{
"type": "FeatureCollection",
"name": "effis_sanmauro_2018_2025",
"crs": { "type": "name", "properties": { "name": "urn:ogc:def:crs:OGC:1.3:CRS84" } },
"features": [
{ "type": "Feature", "properties": { "id": "44819", "FIREDATE": "2020-10-17 10:15:00", "FINALDATE": "2020-10-17 10:15:00", "LASTUPDATE": "2022-01-26 11:45:36.105095", "COUNTRY": "IT", "PROVINCE": "Palermo", "COMMUNE": "San Mauro Castelverde", "AREA_HA": "36", "BROADLEA": "0", "CONIFER": "0", "MIXED": "41.02564102553583", "SCLEROPH": "58.97435897420775", "TRANSIT": "0", "OTHERNATLC": "0", "AGRIAREAS": "0", "ARTIFSURF": "0", "OTHERLC": "0", "PERCNA2K": "100", "year": 2020, "source": "EFFIS" }, "geometry": { "type": "Polygon", "coordinates": [ [ [ 14.202474125100885, 37.929710792052589 ], [ 14.202412306909316, 37.929109558578389 ], [ 14.202535943292453, 37.928708736262251 ], [ 14.202845034250293, 37.928575128823546 ], [ 14.203339579782837, 37.928708736262251 ], [ 14.203834125315382, 37.928975951139677 ], [ 14.204452307231062, 37.929376773455807 ], [ 14.20507048914674, 37.929978006930014 ], [ 14.205750489253989, 37.930779651562283 ], [ 14.2063068529781, 37.931447688755838 ], [ 14.206863216702214, 37.931915314791325 ], [ 14.20723412585162, 37.932249333388107 ], [ 14.207605035001029, 37.932516548265525 ], [ 14.207914125958869, 37.932650155704238 ], [ 14.208161398725141, 37.932850566862307 ], [ 14.208408671491412, 37.932917370581663 ], [ 14.208594126066117, 37.933050978020376 ], [ 14.208841398832389, 37.933050978020376 ], [ 14.209088671598661, 37.932984174301019 ], [ 14.209397762556501, 37.932850566862307 ], [ 14.209768671705909, 37.932650155704238 ], [ 14.210015944472181, 37.932449744546169 ], [ 14.210263217238452, 37.932382940826813 ], [ 14.210448671813158, 37.932382940826813 ], [ 14.210572308196292, 37.932449744546169 ], [ 14.210634126387861, 37.932516548265525 ], [ 14.210634126387861, 37.932650155704238 ], [ 14.210572308196292, 37.932850566862307 ], [ 14.210448671813158, 37.933050978020376 ], [ 14.210386853621589, 37.933184585459081 ], [ 14.210386853621589, 37.933318192897794 ], [ 14.210448671813158, 37.93338499661715 ], [ 14.210572308196292, 37.933451800336506 ], [ 14.210634126387861, 37.933585407775219 ], [ 14.210757762770998, 37.933785818933288 ], [ 14.210881399154133, 37.934119837530062 ], [ 14.210943217345701, 37.934587463565556 ], [ 14.211005035537269, 37.934921482162331 ], [ 14.211005035537269, 37.935188697039756 ], [ 14.210943217345701, 37.935322304478468 ], [ 14.210819580962566, 37.935389108197825 ], [ 14.210695944579429, 37.93552271563653 ], [ 14.210634126387861, 37.935656323075243 ], [ 14.210572308196292, 37.935856734233312 ], [ 14.210510490004726, 37.936057145391381 ], [ 14.210510490004726, 37.936324360268799 ], [ 14.210572308196292, 37.936457967707511 ], [ 14.210757762770998, 37.93665837886558 ], [ 14.211066853728838, 37.936791986304293 ], [ 14.211190490111973, 37.936858790023649 ], [ 14.211128671920406, 37.936925593743005 ], [ 14.210943217345701, 37.936992397462355 ], [ 14.210634126387861, 37.937059201181711 ], [ 14.210325035430021, 37.936992397462355 ], [ 14.210139580855317, 37.936925593743005 ], [ 14.210015944472181, 37.936725182584937 ], [ 14.209892308089046, 37.936524771426868 ], [ 14.209830489897477, 37.936324360268799 ], [ 14.209706853514341, 37.936190752830086 ], [ 14.209583217131206, 37.936123949110737 ], [ 14.209459580748069, 37.936123949110737 ], [ 14.209212307981797, 37.936190752830086 ], [ 14.208965035215526, 37.936391163988155 ], [ 14.208594126066117, 37.936591575146224 ], [ 14.208223216916709, 37.936925593743005 ], [ 14.2078523077673, 37.937126004901067 ], [ 14.207419580426325, 37.937326416059136 ], [ 14.207048671276917, 37.937460023497849 ], [ 14.206677762127509, 37.937526827217205 ], [ 14.2063068529781, 37.937593630936561 ], [ 14.20599776202026, 37.937526827217205 ], [ 14.205626852870854, 37.937460023497849 ], [ 14.205317761913014, 37.937326416059136 ], [ 14.205008670955173, 37.93725961233978 ], [ 14.2047613981889, 37.937192808620424 ], [ 14.204514125422628, 37.93725961233978 ], [ 14.204390489039493, 37.937326416059136 ], [ 14.204143216273222, 37.937326416059136 ], [ 14.203834125315382, 37.93725961233978 ], [ 14.203401397974405, 37.937192808620424 ], [ 14.202968670633428, 37.937059201181711 ], [ 14.202597761484022, 37.936925593743005 ], [ 14.202288670526181, 37.936791986304293 ], [ 14.202165034143045, 37.93665837886558 ], [ 14.202103215951476, 37.936524771426868 ], [ 14.202226852334613, 37.936391163988155 ], [ 14.202474125100885, 37.936190752830086 ], [ 14.202968670633428, 37.935990341672024 ], [ 14.203525034357542, 37.935789930513955 ], [ 14.204081398081653, 37.935589519355887 ], [ 14.204575943614197, 37.93552271563653 ], [ 14.204946852763605, 37.93552271563653 ], [ 14.205317761913014, 37.935589519355887 ], [ 14.205750489253989, 37.935656323075243 ], [ 14.206245034786534, 37.935656323075243 ], [ 14.206801398510645, 37.93552271563653 ], [ 14.207419580426325, 37.935455911917174 ], [ 14.207728671384166, 37.935255500759112 ], [ 14.207728671384166, 37.934988285881687 ], [ 14.207481398617894, 37.934587463565556 ], [ 14.20692503489378, 37.934186641249418 ], [ 14.2063068529781, 37.933852622652644 ], [ 14.20568867106242, 37.933652211494575 ], [ 14.205008670955173, 37.933585407775219 ], [ 14.204328670847925, 37.933652211494575 ], [ 14.203834125315382, 37.933518604055863 ], [ 14.203463216165973, 37.933318192897794 ], [ 14.203215943399702, 37.932984174301019 ], [ 14.203154125208133, 37.932516548265525 ], [ 14.203030488824997, 37.931915314791325 ], [ 14.202906852441862, 37.93124727759777 ], [ 14.202721397867156, 37.930512436684857 ], [ 14.202474125100885, 37.929710792052589 ] ] ] } },
{ "type": "Feature", "properties": { "id": "45051", "FIREDATE": "2020-10-21 11:48:00", "FINALDATE": "2020-10-21 12:42:00", "LASTUPDATE": "2022-01-26 11:45:36.105095", "COUNTRY": "IT", "PROVINCE": "Palermo", "COMMUNE": "San Mauro Castelverde", "AREA_HA": "10", "BROADLEA": "0", "CONIFER": "0", "MIXED": "0", "SCLEROPH": "99.99999999888888", "TRANSIT": "0", "OTHERNATLC": "0", "AGRIAREAS": "0", "ARTIFSURF": "0", "OTHERLC": "0", "PERCNA2K": "0", "year": 2020, "source": "EFFIS" }, "geometry": { "type": "Polygon", "coordinates": [ [ [ 14.225285037789478, 37.955296616565811 ], [ 14.225655946938886, 37.955163009127105 ], [ 14.226150492471429, 37.955229812846454 ], [ 14.226830492578678, 37.955497027723879 ], [ 14.227634129069061, 37.955964653759366 ], [ 14.228252310984741, 37.956365476075504 ], [ 14.228685038325718, 37.956766298391635 ], [ 14.22893231109199, 37.957167120707773 ], [ 14.228994129283558, 37.957501139304547 ], [ 14.22893231109199, 37.957768354181972 ], [ 14.228808674708853, 37.957968765340041 ], [ 14.228561401942581, 37.95816917649811 ], [ 14.228252310984741, 37.958302783936816 ], [ 14.228066856410038, 37.958503195094885 ], [ 14.227881401835333, 37.958703606252953 ], [ 14.227757765452198, 37.958970821130379 ], [ 14.22769594726063, 37.959304839727153 ], [ 14.227572310877493, 37.959505250885222 ], [ 14.22738685630279, 37.959638858323935 ], [ 14.227139583536518, 37.959705662043291 ], [ 14.226830492578678, 37.959705662043291 ], [ 14.226645038003973, 37.959572054604578 ], [ 14.22645958342927, 37.959371643446509 ], [ 14.226335947046135, 37.959037624849728 ], [ 14.226274128854566, 37.958703606252953 ], [ 14.226212310662998, 37.958302783936816 ], [ 14.226150492471429, 37.957901961620685 ], [ 14.226088674279861, 37.957501139304547 ], [ 14.226026856088295, 37.957167120707773 ], [ 14.225903219705158, 37.956833102110991 ], [ 14.225717765130454, 37.956565887233573 ], [ 14.225470492364181, 37.956432279794861 ], [ 14.225223219597909, 37.956298672356148 ], [ 14.225037765023206, 37.956165064917435 ], [ 14.225037765023206, 37.955897850040017 ], [ 14.225099583214774, 37.955630635162592 ], [ 14.225285037789478, 37.955296616565811 ] ] ] } },
{ "type": "Feature", "properties": { "id": "52155", "FIREDATE": "2021-08-04 11:21:00", "FINALDATE": "2021-08-09 11:21:00", "LASTUPDATE": "2022-01-26 11:45:36.105095", "COUNTRY": "IT", "PROVINCE": "Palermo", "COMMUNE": "San Mauro Castelverde", "AREA_HA": "9778", "BROADLEA": "2.662570404505861", "CONIFER": "0", "MIXED": "0.09216589861751058", "SCLEROPH": "32.319508448540375", "TRANSIT": "0.45058883768560726", "OTHERNATLC": "16.80491551459276", "AGRIAREAS": "47.66001024065491", "ARTIFSURF": "0.01024065540194562", "OTHERLC": "0", "PERCNA2K": "1.427341438591938", "year": 2021, "source": "EFFIS" }, "geometry": { "type": "Polygon", "coordinates": [ [ [ 14.216074127245845, 37.937727238375267 ], [ 14.21625958182055, 37.937126004901067 ], [ 14.21656867277839, 37.936591575146224 ], [ 14.216939581927797, 37.936190752830086 ], [ 14.21749594565191, 37.935923537952668 ], [ 14.21811412756759, 37.935723126794599 ], [ 14.218917764057974, 37.935656323075243 ], [ 14.219845036931494, 37.935656323075243 ], [ 14.220895946188149, 37.935723126794599 ], [ 14.221946855444806, 37.935923537952668 ], [ 14.222997764701461, 37.936190752830086 ], [ 14.224048673958118, 37.936591575146224 ], [ 14.225099583214774, 37.936992397462355 ], [ 14.226088674279861, 37.937526827217205 ], [ 14.22707776534495, 37.938128060691405 ], [ 14.22800503821847, 37.938796097884961 ], [ 14.228870492900421, 37.939530938797873 ], [ 14.229612311199238, 37.940265779710785 ], [ 14.230292311306485, 37.940933816904341 ], [ 14.230848675030598, 37.941601854097897 ], [ 14.231343220563142, 37.942269891291453 ], [ 14.23171412971255, 37.942937928485016 ], [ 14.231961402478822, 37.943672769397928 ], [ 14.232085038861959, 37.94440761031084 ], [ 14.232146857053525, 37.945209254943109 ], [ 14.232270493436662, 37.945944095856021 ], [ 14.232455948011365, 37.946612133049577 ], [ 14.232703220777639, 37.947280170243133 ], [ 14.233074129927045, 37.947948207436689 ], [ 14.233321402693319, 37.948749852068957 ], [ 14.233445039076454, 37.949751907859294 ], [ 14.233445039076454, 37.950954374807694 ], [ 14.233321402693319, 37.952357252914162 ], [ 14.233383220884885, 37.953492916143212 ], [ 14.233506857268022, 37.954361364494837 ], [ 14.233815948225862, 37.954962597969036 ], [ 14.234248675566837, 37.955363420285167 ], [ 14.234681402907814, 37.955563831443236 ], [ 14.235114130248791, 37.955697438881948 ], [ 14.235546857589766, 37.955630635162592 ], [ 14.235979584930742, 37.955497027723879 ], [ 14.236288675888582, 37.955163009127105 ], [ 14.236474130463286, 37.954628579372255 ], [ 14.236597766846423, 37.953960542178699 ], [ 14.236597766846423, 37.95315889754643 ], [ 14.236659585037991, 37.952490860352874 ], [ 14.236783221421126, 37.951889626878675 ], [ 14.237030494187398, 37.951355197123831 ], [ 14.237339585145238, 37.95102117852705 ], [ 14.238081403444054, 37.950954374807694 ], [ 14.239255949083846, 37.951154785965763 ], [ 14.240801403873046, 37.95162241200125 ], [ 14.242717767811655, 37.952424056633518 ], [ 14.244325040792422, 37.952958486388361 ], [ 14.24562322281535, 37.95315889754643 ], [ 14.246612313880439, 37.953092093827074 ], [ 14.247230495796119, 37.9527580752303 ], [ 14.247848677711799, 37.952290449194805 ], [ 14.248405041435911, 37.951756019439962 ], [ 14.248961405160022, 37.951154785965763 ], [ 14.249455950692566, 37.950486748772207 ], [ 14.250074132608246, 37.950085926456069 ], [ 14.250939587290199, 37.949885515298 ], [ 14.251928678355286, 37.950019122736713 ], [ 14.253103223995078, 37.950353141333494 ], [ 14.254215951443303, 37.950553552491563 ], [ 14.255328678891527, 37.950753963649625 ], [ 14.256317769956615, 37.950820767368981 ], [ 14.257306861021704, 37.950753963649625 ], [ 14.258172315703655, 37.950687159930268 ], [ 14.259037770385607, 37.950553552491563 ], [ 14.25984140687599, 37.95041994505285 ], [ 14.260521406983239, 37.950219533894781 ], [ 14.261201407090487, 37.949952319017356 ], [ 14.261819589006167, 37.949618300420582 ], [ 14.262314134538711, 37.949217478104444 ], [ 14.262870498262822, 37.948749852068957 ], [ 14.263426861986936, 37.948482637191532 ], [ 14.264168680285751, 37.948415833472176 ], [ 14.264972316776134, 37.948549440910888 ], [ 14.265837771458088, 37.948950263227026 ], [ 14.267259589864151, 37.949150674385088 ], [ 14.26917595380276, 37.9492842818238 ], [ 14.271586863273912, 37.9492842818238 ], [ 14.274492318277607, 37.949083870665739 ], [ 14.276841409557191, 37.949083870665739 ], [ 14.278634137112663, 37.949083870665739 ], [ 14.279932319135591, 37.949217478104444 ], [ 14.28061231924284, 37.949484692981869 ], [ 14.28123050115852, 37.949952319017356 ], [ 14.281663228499497, 37.950620356210919 ], [ 14.281972319457335, 37.951488804562537 ], [ 14.282095955840472, 37.952557664072231 ], [ 14.28215777403204, 37.953492916143212 ], [ 14.282034137648903, 37.954227757056124 ], [ 14.281725046691063, 37.954828990530324 ], [ 14.281292319350088, 37.955163009127105 ], [ 14.280241410093431, 37.955563831443236 ], [ 14.278634137112663, 37.955964653759366 ], [ 14.276346864024648, 37.956432279794861 ], [ 14.273503227212519, 37.956899905830348 ], [ 14.270659590400392, 37.957434335585198 ], [ 14.267692317205126, 37.957968765340041 ], [ 14.264725044009863, 37.958636802533597 ], [ 14.261695952623031, 37.959371643446509 ], [ 14.259285043151879, 37.960106484359422 ], [ 14.257430497404838, 37.96090812899169 ], [ 14.256132315381912, 37.961642969904602 ], [ 14.255390497083095, 37.962377810817515 ], [ 14.254772315167415, 37.963313062888496 ], [ 14.254215951443303, 37.964381922398182 ], [ 14.253721405910758, 37.965651193065945 ], [ 14.253350496761351, 37.967054071172413 ], [ 14.253041405803511, 37.968189734401456 ], [ 14.252979587611943, 37.969058182753081 ], [ 14.253041405803511, 37.969592612507931 ], [ 14.253226860378215, 37.969793023665993 ], [ 14.253474133144486, 37.969993434824062 ], [ 14.253721405910758, 37.970060238543418 ], [ 14.254030496868598, 37.970127042262774 ], [ 14.254401406018006, 37.970127042262774 ], [ 14.254772315167415, 37.969926631104705 ], [ 14.255081406125255, 37.96965941622728 ], [ 14.255452315274663, 37.96925859391115 ], [ 14.255761406232503, 37.968724164156306 ], [ 14.256194133573478, 37.968189734401456 ], [ 14.25675049729759, 37.967722108365969 ], [ 14.257430497404838, 37.967388089769187 ], [ 14.258234133895224, 37.967054071172413 ], [ 14.259346861343447, 37.966786856294988 ], [ 14.260706861557942, 37.96651964141757 ], [ 14.262375952730279, 37.966319230259501 ], [ 14.264292316668888, 37.966185622820788 ], [ 14.265837771458088, 37.966118819101432 ], [ 14.267074135289448, 37.966118819101432 ], [ 14.267877771779832, 37.966185622820788 ], [ 14.268372317312375, 37.966319230259501 ], [ 14.268681408270215, 37.96651964141757 ], [ 14.268928681036487, 37.9669204637337 ], [ 14.269052317419623, 37.967388089769187 ], [ 14.268990499228055, 37.967989323243394 ], [ 14.268805044653352, 37.968590556717594 ], [ 14.268372317312375, 37.969191790191793 ], [ 14.267754135396695, 37.969859827385349 ], [ 14.266950498906311, 37.970461060859549 ], [ 14.2663941351822, 37.971062294333755 ], [ 14.266146862415928, 37.971529920369242 ], [ 14.266208680607495, 37.971997546404729 ], [ 14.266517771565335, 37.972331565001511 ], [ 14.266579589756903, 37.972932798475711 ], [ 14.266332316990631, 37.973734443107979 ], [ 14.265837771458088, 37.974736498898316 ], [ 14.265034134967703, 37.975938965846716 ], [ 14.264910498584568, 37.976941021637053 ], [ 14.265343225925543, 37.977809469988678 ], [ 14.2663941351822, 37.978477507182234 ], [ 14.268063226354535, 37.979011936937077 ], [ 14.2694850447606, 37.979412759253215 ], [ 14.270659590400392, 37.97954636669192 ], [ 14.271525045082344, 37.97954636669192 ], [ 14.272205045189592, 37.979345955533859 ], [ 14.272761408913704, 37.979078740656433 ], [ 14.273317772637816, 37.978744722059652 ], [ 14.273750499978792, 37.978410703462878 ], [ 14.274183227319767, 37.97800988114674 ], [ 14.274554136469176, 37.977876273708034 ], [ 14.274925045618584, 37.977943077427391 ], [ 14.275234136576424, 37.978277096024165 ], [ 14.275481409342696, 37.978878329498365 ], [ 14.275975954875239, 37.97954636669192 ], [ 14.276594136790919, 37.980281207604833 ], [ 14.277397773281304, 37.981149655956457 ], [ 14.278386864346391, 37.982018104308082 ], [ 14.279252319028343, 37.982953356379063 ], [ 14.27999413732716, 37.983821804730688 ], [ 14.28061231924284, 37.984623449362957 ], [ 14.281106864775383, 37.985425093995225 ], [ 14.281663228499497, 37.986093131188781 ], [ 14.282219592223608, 37.986627560943624 ], [ 14.282837774139288, 37.987028383259762 ], [ 14.283517774246535, 37.987362401856537 ], [ 14.284197774353784, 37.987496009295249 ], [ 14.284754138077895, 37.987562813014605 ], [ 14.285372319993575, 37.987562813014605 ], [ 14.285866865526121, 37.987496009295249 ], [ 14.286485047441801, 37.987228794417824 ], [ 14.287103229357481, 37.986827972101693 ], [ 14.287783229464727, 37.98629354234685 ], [ 14.288525047763544, 37.985625505153287 ], [ 14.289205047870793, 37.984957467959731 ], [ 14.289823229786473, 37.984289430766175 ], [ 14.290317775319016, 37.983621393572619 ], [ 14.290812320851559, 37.982886552659707 ], [ 14.291245048192536, 37.982084908027439 ], [ 14.291677775533513, 37.981149655956457 ], [ 14.29204868468292, 37.980080796446771 ], [ 14.292419593832328, 37.978878329498365 ], [ 14.292790502981736, 37.977876273708034 ], [ 14.293223230322711, 37.977007825356409 ], [ 14.293655957663688, 37.976272984443497 ], [ 14.2942123213878, 37.975738554688647 ], [ 14.29452141234564, 37.975137321214447 ], [ 14.294645048728777, 37.974469284020891 ], [ 14.294583230537208, 37.973734443107979 ], [ 14.294335957770937, 37.972932798475711 ], [ 14.29390323042996, 37.972264761282155 ], [ 14.29328504851428, 37.971663527807955 ], [ 14.292543230215465, 37.971129098053112 ], [ 14.291554139150376, 37.970661472017618 ], [ 14.290750502659993, 37.970193845982131 ], [ 14.290008684361176, 37.96965941622728 ], [ 14.289328684253928, 37.969124986472437 ], [ 14.288834138721384, 37.968523752998237 ], [ 14.288339593188841, 37.967788912085325 ], [ 14.287968684039432, 37.9669204637337 ], [ 14.287659593081592, 37.965851604224007 ], [ 14.287474138506887, 37.964715940994964 ], [ 14.287350502123752, 37.96364708148527 ], [ 14.287288683932184, 37.96264502569494 ], [ 14.287350502123752, 37.961709773623959 ], [ 14.287474138506887, 37.96090812899169 ], [ 14.287721411273161, 37.960173288078778 ], [ 14.288154138614136, 37.959572054604578 ], [ 14.288710502338247, 37.959104428569084 ], [ 14.289390502445496, 37.95877040997231 ], [ 14.289946866169608, 37.958302783936816 ], [ 14.290441411702153, 37.957835157901329 ], [ 14.290812320851559, 37.957167120707773 ], [ 14.291121411809399, 37.956499083514217 ], [ 14.291492320958808, 37.955764242601305 ], [ 14.292110502874488, 37.955096205407749 ], [ 14.292852321173305, 37.954428168214186 ], [ 14.293717775855256, 37.95376013102063 ], [ 14.294645048728777, 37.95315889754643 ], [ 14.295510503410728, 37.9527580752303 ], [ 14.29637595809268, 37.952424056633518 ], [ 14.297241412774632, 37.952223645475449 ], [ 14.298045049265017, 37.952156841756093 ], [ 14.2988486857554, 37.952223645475449 ], [ 14.299528685862649, 37.952490860352874 ], [ 14.300208685969896, 37.952824878949656 ], [ 14.300826867885576, 37.953292504985143 ], [ 14.301445049801256, 37.953693327301274 ], [ 14.302063231716936, 37.954160953336768 ], [ 14.302619595441049, 37.954695383091611 ], [ 14.303175959165161, 37.955229812846454 ], [ 14.303608686506136, 37.955831046320661 ], [ 14.303979595655544, 37.956499083514217 ], [ 14.304226868421816, 37.957233924427129 ], [ 14.304165050230248, 37.958503195094885 ], [ 14.303794141080841, 37.960440502956203 ], [ 14.303052322782024, 37.962979044291714 ], [ 14.301939595333801, 37.966118819101432 ], [ 14.301383231609689, 37.96865736043695 ], [ 14.301321413418121, 37.970661472017618 ], [ 14.301754140759096, 37.971997546404729 ], [ 14.302743231824184, 37.972799191036998 ], [ 14.303794141080841, 37.973801246827335 ], [ 14.304968686720633, 37.975003713775735 ], [ 14.306205050551993, 37.97640659188221 ], [ 14.307565050766488, 37.978076684866096 ], [ 14.308615960023145, 37.979412759253215 ], [ 14.30935777832196, 37.980481618762902 ], [ 14.309790505662937, 37.98128326339517 ], [ 14.30997596023764, 37.981750889430664 ], [ 14.309852323854505, 37.982218515466151 ], [ 14.309481414705097, 37.982619337782282 ], [ 14.308801414597848, 37.983086963817776 ], [ 14.307874141724328, 37.983487786133907 ], [ 14.307317778000217, 37.983955412169401 ], [ 14.307194141617082, 37.9845566456436 ], [ 14.30750323257492, 37.985291486556513 ], [ 14.308245050873737, 37.986026327469425 ], [ 14.30873959640628, 37.986694364662981 ], [ 14.309110505555688, 37.98729559813718 ], [ 14.30935777832196, 37.987830027892031 ], [ 14.30935777832196, 37.988297653927518 ], [ 14.308925050980985, 37.988564868804943 ], [ 14.308059596299033, 37.988631672524292 ], [ 14.306699596084536, 37.988564868804943 ], [ 14.304968686720633, 37.988364457646874 ], [ 14.303485050123001, 37.988364457646874 ], [ 14.302248686291641, 37.988564868804943 ], [ 14.301383231609689, 37.98903249484043 ], [ 14.300826867885576, 37.989700532033986 ], [ 14.300394140544601, 37.990301765508185 ], [ 14.300023231395192, 37.990902998982392 ], [ 14.299899595012057, 37.991504232456592 ], [ 14.299837776820489, 37.992105465930791 ], [ 14.299899595012057, 37.992706699404991 ], [ 14.300146867778329, 37.993374736598547 ], [ 14.300455958736169, 37.994042773792103 ], [ 14.300950504268712, 37.994710810985659 ], [ 14.301383231609689, 37.995512455617927 ], [ 14.301815958950664, 37.996380903969552 ], [ 14.302125049908504, 37.997316156040533 ], [ 14.302372322674776, 37.99831821183087 ], [ 14.303052322782024, 37.999119856463139 ], [ 14.304103232038681, 37.999654286217982 ], [ 14.305586868636313, 37.999921501095407 ], [ 14.307441414383353, 37.999988304814764 ], [ 14.308925050980985, 38.000255519692182 ], [ 14.310037778429209, 38.00065634200832 ], [ 14.310779596728025, 38.001190771763163 ], [ 14.311212324069, 38.001992416395431 ], [ 14.311954142367817, 38.002526846150275 ], [ 14.313005051624472, 38.002860864747056 ], [ 14.314303233647401, 38.002927668466413 ], [ 14.315972324819738, 38.0027940610277 ], [ 14.317394143225801, 38.0027940610277 ], [ 14.318568688865593, 38.0027940610277 ], [ 14.319557779930681, 38.002927668466413 ], [ 14.32023778003793, 38.003128079624474 ], [ 14.320732325570473, 38.003328490782543 ], [ 14.320917780145177, 38.003662509379325 ], [ 14.32085596195361, 38.003996527976099 ], [ 14.320485052804202, 38.004464154011593 ], [ 14.320114143654793, 38.004798172608368 ], [ 14.31961959812225, 38.005198994924505 ], [ 14.319063234398136, 38.005466209801924 ], [ 14.318445052482456, 38.005733424679349 ], [ 14.317950506949913, 38.00606744327613 ], [ 14.317517779608938, 38.006535069311617 ], [ 14.317208688651098, 38.007069499066461 ], [ 14.316961415884824, 38.00767073254066 ], [ 14.316899597693258, 38.008271966014867 ], [ 14.316961415884824, 38.00880639576971 ], [ 14.317208688651098, 38.009340825524554 ], [ 14.317517779608938, 38.009808451560048 ], [ 14.318135961524618, 38.010342881314891 ], [ 14.31900141620657, 38.011010918508447 ], [ 14.320114143654793, 38.011678955702003 ], [ 14.321412325677722, 38.012480600334271 ], [ 14.322525053125945, 38.013349048685896 ], [ 14.323328689616329, 38.014351104476233 ], [ 14.323946871532009, 38.015486767705276 ], [ 14.324255962489849, 38.016689234653683 ], [ 14.324441417064554, 38.017958505321438 ], [ 14.324503235256122, 38.019361383427906 ], [ 14.324441417064554, 38.020764261534374 ], [ 14.324255962489849, 38.022300747079555 ], [ 14.323946871532009, 38.023570017747318 ], [ 14.323575962382602, 38.024572073537648 ], [ 14.323143235041625, 38.025373718169917 ], [ 14.322648689509082, 38.02590814792476 ], [ 14.322030507593402, 38.026308970240898 ], [ 14.321288689294585, 38.026576185118323 ], [ 14.320423234612633, 38.026642988837672 ], [ 14.319372325355976, 38.026509381398967 ], [ 14.31745596141737, 38.026642988837672 ], [ 14.314674142796809, 38.026977007434454 ], [ 14.31090323311116, 38.027511437189297 ], [ 14.306266868743561, 38.028246278102209 ], [ 14.302001413525369, 38.028713904137703 ], [ 14.298168685648152, 38.028981119015121 ], [ 14.294768685111912, 38.028981119015121 ], [ 14.29173959372508, 38.028713904137703 ], [ 14.289266866062359, 38.028580296698991 ], [ 14.287350502123752, 38.028580296698991 ], [ 14.285928683717687, 38.028780707857059 ], [ 14.285125047227304, 38.029114726453834 ], [ 14.284197774353784, 38.029515548769972 ], [ 14.283332319671832, 38.030049978524815 ], [ 14.282405046798312, 38.030718015718371 ], [ 14.281477773924792, 38.031452856631283 ], [ 14.28061231924284, 38.032120893824839 ], [ 14.279808682752456, 38.032588519860333 ], [ 14.27906686445364, 38.032989342176464 ], [ 14.278386864346391, 38.033256557053889 ], [ 14.278015955196985, 38.03365737937002 ], [ 14.277830500622279, 38.034258612844219 ], [ 14.277892318813848, 38.034993453757131 ], [ 14.278201409771688, 38.035928705828113 ], [ 14.27844868253796, 38.036730350460381 ], [ 14.278510500729528, 38.037398387653937 ], [ 14.278572318921096, 38.037999621128144 ], [ 14.278510500729528, 38.038467247163631 ], [ 14.278015955196985, 38.039268891795899 ], [ 14.277026864131896, 38.040404555024942 ], [ 14.275666863917399, 38.041874236850767 ], [ 14.273874136361927, 38.043611133554016 ], [ 14.272514136147432, 38.045147619099197 ], [ 14.271586863273912, 38.046483693486309 ], [ 14.271154135932935, 38.047619356715359 ], [ 14.271215954124504, 38.04855460878634 ], [ 14.271154135932935, 38.049356253418608 ], [ 14.271030499549799, 38.05009109433152 ], [ 14.270845044975095, 38.05069232780572 ], [ 14.270597772208824, 38.051226757560563 ], [ 14.270041408484712, 38.052028402192832 ], [ 14.26917595380276, 38.053164065421882 ], [ 14.268001408162966, 38.05456694352835 ], [ 14.266579589756903, 38.056237036512243 ], [ 14.265281407733974, 38.057639914618711 ], [ 14.264230498477319, 38.058775577847754 ], [ 14.263365043795368, 38.059510418760667 ], [ 14.262685043688119, 38.060044848515517 ], [ 14.261077770707351, 38.060646081989717 ], [ 14.25860504304463, 38.061447726621985 ], [ 14.255266860699958, 38.062449782412315 ], [ 14.251001405481766, 38.063585445641365 ], [ 14.247168677604551, 38.06445389399299 ], [ 14.243892313451447, 38.06505512746719 ], [ 14.241048676639318, 38.06545594978332 ], [ 14.238637767168166, 38.065522753502677 ], [ 14.236845039612694, 38.065656360941389 ], [ 14.235485039398197, 38.065789968380102 ], [ 14.234743221099382, 38.065990379538171 ], [ 14.234434130141542, 38.066190790696233 ], [ 14.234310493758406, 38.06659161301237 ], [ 14.234372311949974, 38.067059239047857 ], [ 14.234557766524677, 38.067727276241413 ], [ 14.234866857482517, 38.068462117154326 ], [ 14.235052312057222, 38.069130154347889 ], [ 14.235114130248791, 38.069664584102732 ], [ 14.235114130248791, 38.069998602699506 ], [ 14.234928675674086, 38.070265817576932 ], [ 14.234434130141542, 38.070332621296288 ], [ 14.233630493651159, 38.070332621296288 ], [ 14.232455948011365, 38.070332621296288 ], [ 14.230910493222165, 38.070132210138219 ], [ 14.229303220241398, 38.070065406418863 ], [ 14.227634129069061, 38.070132210138219 ], [ 14.225965037896726, 38.070332621296288 ], [ 14.224172310341254, 38.070733443612419 ], [ 14.222194128211077, 38.070800247331775 ], [ 14.219906855123062, 38.070666639893069 ], [ 14.217434127460342, 38.070332621296288 ], [ 14.21471412703135, 38.069664584102732 ], [ 14.212303217560198, 38.068996546909176 ], [ 14.210263217238452, 38.06832850971562 ], [ 14.208594126066117, 38.067660472522064 ], [ 14.207295944043189, 38.066992435328501 ], [ 14.205935943828694, 38.066391201854302 ], [ 14.204514125422628, 38.065856772099458 ], [ 14.203092307016565, 38.065322342344615 ], [ 14.201608670418933, 38.064921520028477 ], [ 14.200434124779141, 38.064253482834921 ], [ 14.199506851905621, 38.06331823076394 ], [ 14.198826851798373, 38.062249371254254 ], [ 14.198394124457396, 38.060913296867135 ], [ 14.198146851691124, 38.059577222480023 ], [ 14.198146851691124, 38.058241148092911 ], [ 14.198270488074261, 38.056838269986443 ], [ 14.198703215415236, 38.055502195599331 ], [ 14.198826851798373, 38.054366532370281 ], [ 14.198826851798373, 38.053564887738013 ], [ 14.198517760840533, 38.053030457983169 ], [ 14.198085033499556, 38.052763243105744 ], [ 14.197219578817604, 38.052562831947675 ], [ 14.196045033177812, 38.052295617070257 ], [ 14.194499578388612, 38.052095205912188 ], [ 14.192521396258437, 38.051894794754119 ], [ 14.1908523050861, 38.051694383596057 ], [ 14.189492304871605, 38.051493972437989 ], [ 14.188317759231813, 38.05129356127992 ], [ 14.18745230454986, 38.051026346402494 ], [ 14.186772304442613, 38.050759131525076 ], [ 14.186277758910068, 38.050491916647651 ], [ 14.185906849760661, 38.050291505489582 ], [ 14.185659576994388, 38.050024290612164 ], [ 14.185535940611253, 38.049823879454095 ], [ 14.185474122419684, 38.049623468296026 ], [ 14.185474122419684, 38.049356253418608 ], [ 14.185597758802821, 38.049155842260539 ], [ 14.185845031569093, 38.048888627383114 ], [ 14.186339577101636, 38.048688216225045 ], [ 14.186957759017316, 38.048421001347627 ], [ 14.187823213699268, 38.048153786470202 ], [ 14.18837957742338, 38.047752964154071 ], [ 14.18868866838122, 38.047218534399221 ], [ 14.188750486572788, 38.046483693486309 ], [ 14.188565031998085, 38.045615245134691 ], [ 14.188317759231813, 38.044813600502422 ], [ 14.187946850082405, 38.044145563308859 ], [ 14.187514122741428, 38.043611133554016 ], [ 14.187081395400453, 38.043143507518529 ], [ 14.186401395293204, 38.042809488921748 ], [ 14.185597758802821, 38.04254227404433 ], [ 14.184670485929301, 38.042408666605617 ], [ 14.183557758481076, 38.042341862886261 ], [ 14.182630485607556, 38.042141451728192 ], [ 14.181888667308741, 38.041941040570123 ], [ 14.181332303584629, 38.041673825692705 ], [ 14.18096139443522, 38.041273003376567 ], [ 14.18096139443522, 38.040404555024942 ], [ 14.181394121776195, 38.039001676918474 ], [ 14.182197758266581, 38.037064369057163 ], [ 14.183434122097941, 38.034592631441001 ], [ 14.184485031354596, 38.032655323579689 ], [ 14.185288667844981, 38.031185641753865 ], [ 14.185906849760661, 38.03031719340224 ], [ 14.186339577101636, 38.029916371086102 ], [ 14.186710486251044, 38.029582352489328 ], [ 14.187205031783588, 38.029315137611903 ], [ 14.187699577316133, 38.02918153017319 ], [ 14.188194122848676, 38.02918153017319 ], [ 14.18899775933906, 38.029315137611903 ], [ 14.190172304978852, 38.029715959928033 ], [ 14.191594123384917, 38.03031719340224 ], [ 14.19332503274882, 38.031118838034509 ], [ 14.19487048753802, 38.031386052911927 ], [ 14.196230487752517, 38.031052034315152 ], [ 14.197281397009172, 38.030183585963528 ], [ 14.198208669882693, 38.028647100418347 ], [ 14.198826851798373, 38.027444633469941 ], [ 14.199197760947781, 38.026375773960254 ], [ 14.199383215522484, 38.025640933047342 ], [ 14.199259579139349, 38.025039699573142 ], [ 14.198826851798373, 38.024705680976361 ], [ 14.198085033499556, 38.024638877257004 ], [ 14.196972306051332, 38.024705680976361 ], [ 14.195550487645269, 38.024972895853786 ], [ 14.194437760197044, 38.025240110731204 ], [ 14.193572305515092, 38.02530691445056 ], [ 14.19301594179098, 38.02530691445056 ], [ 14.19270685083314, 38.025240110731204 ], [ 14.192521396258437, 38.024972895853786 ], [ 14.1923977598753, 38.024505269818292 ], [ 14.1923977598753, 38.023904036344092 ], [ 14.192459578066869, 38.023102391711824 ], [ 14.1923977598753, 38.022233943360199 ], [ 14.192150487109028, 38.021365495008574 ], [ 14.191717759768052, 38.0204302429376 ], [ 14.191223214235508, 38.019494990866619 ], [ 14.190914123277668, 38.018760149953707 ], [ 14.190975941469237, 38.018292523918213 ], [ 14.191285032427077, 38.018025309040794 ], [ 14.191841396151188, 38.018025309040794 ], [ 14.192645032641572, 38.018225720198863 ], [ 14.19363412370666, 38.018559738795638 ], [ 14.194808669346452, 38.018960561111776 ], [ 14.196230487752517, 38.019561794585975 ], [ 14.197405033392309, 38.020029420621462 ], [ 14.198332306265829, 38.020229831779531 ], [ 14.199135942756213, 38.020229831779531 ], [ 14.199692306480324, 38.020029420621462 ], [ 14.200372306587573, 38.019962616902106 ], [ 14.201237761269525, 38.019962616902106 ], [ 14.202226852334613, 38.020029420621462 ], [ 14.203339579782837, 38.020229831779531 ], [ 14.204390489039493, 38.020229831779531 ], [ 14.205317761913014, 38.020163028060175 ], [ 14.206121398403397, 38.019962616902106 ], [ 14.206863216702214, 38.019561794585975 ], [ 14.207419580426325, 38.019160972269837 ], [ 14.207728671384166, 38.018626542514994 ], [ 14.207914125958869, 38.018025309040794 ], [ 14.207914125958869, 38.017357271847239 ], [ 14.207605035001029, 38.016689234653683 ], [ 14.207048671276917, 38.01595439374077 ], [ 14.206183216594965, 38.015219552827858 ], [ 14.20507048914674, 38.014484711914939 ], [ 14.204390489039493, 38.013683067282678 ], [ 14.204081398081653, 38.012881422650409 ], [ 14.204266852656357, 38.012012974298784 ], [ 14.204823216380468, 38.011077722227803 ], [ 14.205008670955173, 38.010209273876178 ], [ 14.2047613981889, 38.00940762924391 ], [ 14.204143216273222, 38.008739592050354 ], [ 14.203030488824997, 38.008071554856798 ], [ 14.202103215951476, 38.007269910224529 ], [ 14.201361397652661, 38.006334658153548 ], [ 14.200743215736981, 38.005265798643862 ], [ 14.200310488396005, 38.003996527976099 ], [ 14.200001397438164, 38.002927668466413 ], [ 14.199815942863461, 38.002126023834144 ], [ 14.199754124671893, 38.001457986640588 ], [ 14.19987776105503, 38.000990360605094 ], [ 14.20018685201287, 38.000589538288963 ], [ 14.200681397545413, 38.000255519692182 ], [ 14.201423215844228, 38.000055108534113 ], [ 14.202288670526181, 37.999854697376051 ], [ 14.203030488824997, 37.999587482498626 ], [ 14.203648670740677, 37.999253463901852 ], [ 14.204081398081653, 37.998852641585714 ], [ 14.204328670847925, 37.998385015550227 ], [ 14.204575943614197, 37.99778378207602 ], [ 14.204823216380468, 37.997115744882464 ], [ 14.20507048914674, 37.996380903969552 ], [ 14.205317761913014, 37.995512455617927 ], [ 14.20537958010458, 37.994644007266309 ], [ 14.205317761913014, 37.993641951475972 ], [ 14.205132307338308, 37.992573091966278 ], [ 14.204823216380468, 37.991504232456592 ], [ 14.204575943614197, 37.990568980385611 ], [ 14.204514125422628, 37.989700532033986 ], [ 14.204514125422628, 37.988965691121074 ], [ 14.204637761805765, 37.98843126136623 ], [ 14.2047613981889, 37.987963635330736 ], [ 14.205008670955173, 37.987562813014605 ], [ 14.205194125529877, 37.987362401856537 ], [ 14.205441398296148, 37.987228794417824 ], [ 14.205812307445557, 37.987161990698468 ], [ 14.206245034786534, 37.987228794417824 ], [ 14.206801398510645, 37.987362401856537 ], [ 14.207419580426325, 37.987562813014605 ], [ 14.208037762342006, 37.987696420453318 ], [ 14.208594126066117, 37.987629616733962 ], [ 14.209150489790229, 37.987496009295249 ], [ 14.209645035322772, 37.987228794417824 ], [ 14.210201399046886, 37.986961579540406 ], [ 14.210881399154133, 37.986827972101693 ], [ 14.211623217452949, 37.986694364662981 ], [ 14.212488672134901, 37.986627560943624 ], [ 14.213230490433718, 37.986427149785555 ], [ 14.21378685415783, 37.986159934908137 ], [ 14.214157763307238, 37.985692308872643 ], [ 14.21440503607351, 37.9851578791178 ], [ 14.214899581606053, 37.984757056801669 ], [ 14.21564139990487, 37.984623449362957 ], [ 14.216630490969957, 37.9845566456436 ], [ 14.217866854801317, 37.984757056801669 ], [ 14.218917764057974, 37.984757056801669 ], [ 14.219721400548357, 37.984623449362957 ], [ 14.220277764272469, 37.984356234485531 ], [ 14.220586855230309, 37.983955412169401 ], [ 14.220834127996582, 37.98342098241455 ], [ 14.221019582571286, 37.982886552659707 ], [ 14.221205037145989, 37.982285319185507 ], [ 14.221328673529126, 37.981550478272595 ], [ 14.221575946295397, 37.980949244798396 ], [ 14.221946855444806, 37.980414815043545 ], [ 14.222441400977349, 37.979947189008058 ], [ 14.223121401084597, 37.97954636669192 ], [ 14.223677764808709, 37.979279151814502 ], [ 14.224172310341254, 37.979078740656433 ], [ 14.224605037682229, 37.979078740656433 ], [ 14.224975946831638, 37.97914554437579 ], [ 14.225285037789478, 37.979479562972571 ], [ 14.225594128747318, 37.979947189008058 ], [ 14.225903219705158, 37.980615226201614 ], [ 14.226150492471429, 37.981483674553239 ], [ 14.226583219812406, 37.981951300588726 ], [ 14.227139583536518, 37.98188449686937 ], [ 14.227943220026901, 37.981416870833883 ], [ 14.228808674708853, 37.980548422482258 ], [ 14.229797765773942, 37.979880385288702 ], [ 14.230725038647462, 37.97954636669192 ], [ 14.231652311520982, 37.97954636669192 ], [ 14.232579584394502, 37.979813581569346 ], [ 14.233321402693319, 37.979813581569346 ], [ 14.233754130034294, 37.979479562972571 ], [ 14.233939584608997, 37.978811525779008 ], [ 14.233877766417431, 37.977876273708034 ], [ 14.234001402800565, 37.977074629075766 ], [ 14.234310493758406, 37.976339788162853 ], [ 14.234743221099382, 37.975738554688647 ], [ 14.235423221206631, 37.975204124933803 ], [ 14.235855948547606, 37.97466969517896 ], [ 14.236165039505446, 37.974202069143466 ], [ 14.236350494080151, 37.973801246827335 ], [ 14.236350494080151, 37.973400424511205 ], [ 14.236288675888582, 37.973066405914423 ], [ 14.236103221313877, 37.972732387317642 ], [ 14.235917766739174, 37.97253197615958 ], [ 14.235670493972902, 37.972331565001511 ], [ 14.234990493865654, 37.972131153843442 ], [ 14.233815948225862, 37.971997546404729 ], [ 14.232270493436662, 37.971930742685373 ], [ 14.230292311306485, 37.971863938966024 ], [ 14.22862322013415, 37.971730331527311 ], [ 14.227325038111221, 37.971529920369242 ], [ 14.226335947046135, 37.971262705491817 ], [ 14.225655946938886, 37.970928686895043 ], [ 14.224790492256934, 37.97079507945633 ], [ 14.223739583000278, 37.970861883175687 ], [ 14.222503219168917, 37.971129098053112 ], [ 14.221081400762854, 37.971596724088599 ], [ 14.219845036931494, 37.971863938966024 ], [ 14.218917764057974, 37.971863938966024 ], [ 14.218175945759157, 37.971663527807955 ], [ 14.217743218418182, 37.971262705491817 ], [ 14.217310491077205, 37.970728275736974 ], [ 14.217001400119365, 37.969993434824062 ], [ 14.216692309161525, 37.969124986472437 ], [ 14.216506854586822, 37.9681229306821 ], [ 14.216445036395253, 37.967254482330482 ], [ 14.216506854586822, 37.96651964141757 ], [ 14.216754127353093, 37.965918407943363 ], [ 14.21718685469407, 37.965517585627232 ], [ 14.21780503660975, 37.965049959591745 ], [ 14.218608673100134, 37.964582333556251 ], [ 14.219597764165222, 37.964047903801408 ], [ 14.220710491613445, 37.963513474046565 ], [ 14.221637764486966, 37.962845436853002 ], [ 14.222317764594214, 37.962043792220733 ], [ 14.222750491935189, 37.961041736430403 ], [ 14.222935946509894, 37.959839269481996 ], [ 14.223183219276166, 37.958904017411022 ], [ 14.223368673850869, 37.958035569059398 ], [ 14.223677764808709, 37.957434335585198 ], [ 14.223925037574981, 37.956899905830348 ], [ 14.223739583000278, 37.956365476075504 ], [ 14.223121401084597, 37.955697438881948 ], [ 14.222070491827942, 37.954962597969036 ], [ 14.220525037038742, 37.954094149617411 ], [ 14.219165036824245, 37.953292504985143 ], [ 14.21811412756759, 37.952557664072231 ], [ 14.217248672885637, 37.951822823159318 ], [ 14.216630490969957, 37.951154785965763 ], [ 14.21625958182055, 37.950152730175425 ], [ 14.216135945437413, 37.948816655788313 ], [ 14.216197763628982, 37.947213366523776 ], [ 14.216506854586822, 37.945209254943109 ], [ 14.216630490969957, 37.943605965678572 ], [ 14.216692309161525, 37.942269891291453 ], [ 14.21656867277839, 37.941267835501122 ], [ 14.216321400012117, 37.940599798307566 ], [ 14.216135945437413, 37.939864957394654 ], [ 14.216074127245845, 37.939196920201098 ], [ 14.216012309054276, 37.938462079288179 ], [ 14.216074127245845, 37.937727238375267 ] ], [ [ 14.224914128640069, 38.01481873051172 ], [ 14.222132310019509, 38.01541996398592 ], [ 14.219845036931494, 38.016154804898832 ], [ 14.218052309376022, 38.017090056969813 ], [ 14.216815945544662, 38.018225720198863 ], [ 14.216074127245845, 38.019628598305331 ], [ 14.215703218096436, 38.020697457815018 ], [ 14.21564139990487, 38.021632709885999 ], [ 14.215826854479573, 38.022300747079555 ], [ 14.216445036395253, 38.022768373115049 ], [ 14.217125036502502, 38.022968784273111 ], [ 14.218052309376022, 38.023035587992467 ], [ 14.219103218632677, 38.022835176834398 ], [ 14.220401400655605, 38.022501158237624 ], [ 14.221699582678534, 38.022300747079555 ], [ 14.223059582893029, 38.022233943360199 ], [ 14.224481401299094, 38.022434354518268 ], [ 14.225903219705158, 38.022701569395693 ], [ 14.22707776534495, 38.023102391711824 ], [ 14.227881401835333, 38.023503214027961 ], [ 14.228437765559447, 38.023970840063448 ], [ 14.22862322013415, 38.024438466098935 ], [ 14.228870492900421, 38.024638877257004 ], [ 14.229303220241398, 38.024638877257004 ], [ 14.229797765773942, 38.024438466098935 ], [ 14.230415947689622, 38.023904036344092 ], [ 14.230972311413733, 38.023235999150536 ], [ 14.231466856946279, 38.022367550798911 ], [ 14.231837766095685, 38.021298691289225 ], [ 14.232208675245094, 38.020029420621462 ], [ 14.232270493436662, 38.018960561111776 ], [ 14.23202322067039, 38.018225720198863 ], [ 14.231528675137845, 38.017691290444013 ], [ 14.23078685683903, 38.017357271847239 ], [ 14.23016867492335, 38.016956449531101 ], [ 14.229674129390807, 38.016488823495614 ], [ 14.229426856624533, 38.015820786302058 ], [ 14.229303220241398, 38.015085945389146 ], [ 14.228499583751013, 38.014685123073008 ], [ 14.22707776534495, 38.014618319353652 ], [ 14.224914128640069, 38.01481873051172 ] ] ] } },
{ "type": "Feature", "properties": { "id": "45949", "FIREDATE": "2021-02-05 10:54:00", "FINALDATE": "2021-02-05 10:54:00", "LASTUPDATE": "2022-01-26 11:45:36.105095", "COUNTRY": "IT", "PROVINCE": "Messina", "COMMUNE": "Tusa", "AREA_HA": "5", "BROADLEA": "0", "CONIFER": "0", "MIXED": "0", "SCLEROPH": "0", "TRANSIT": "24.999999999375", "OTHERNATLC": "74.999999998125", "AGRIAREAS": "0", "ARTIFSURF": "0", "OTHERLC": "0", "PERCNA2K": "100.00000000000004", "year": 2021, "source": "EFFIS" }, "geometry": { "type": "Polygon", "coordinates": [ [ [ 14.232455948011365, 37.911606984107202 ], [ 14.232703220777639, 37.911406572949133 ], [ 14.23295049354391, 37.91127296551042 ], [ 14.233321402693319, 37.911206161791064 ], [ 14.233630493651159, 37.911206161791064 ], [ 14.234001402800565, 37.91127296551042 ], [ 14.234372311949974, 37.911406572949133 ], [ 14.234743221099382, 37.911606984107202 ], [ 14.235114130248791, 37.911941002703976 ], [ 14.235361403015062, 37.912275021300758 ], [ 14.235485039398197, 37.912609039897539 ], [ 14.235485039398197, 37.91300986221367 ], [ 14.235361403015062, 37.913477488249157 ], [ 14.235237766631926, 37.913811506845938 ], [ 14.235052312057222, 37.914011918004007 ], [ 14.234805039290951, 37.914145525442713 ], [ 14.234557766524677, 37.914212329162069 ], [ 14.234372311949974, 37.914145525442713 ], [ 14.234125039183702, 37.914145525442713 ], [ 14.233939584608997, 37.914011918004007 ], [ 14.233692311842725, 37.913878310565295 ], [ 14.233630493651159, 37.913677899407226 ], [ 14.233692311842725, 37.913477488249157 ], [ 14.233877766417431, 37.913277077091095 ], [ 14.234125039183702, 37.91300986221367 ], [ 14.234186857375271, 37.912809451055601 ], [ 14.234001402800565, 37.912609039897539 ], [ 14.233630493651159, 37.912542236178183 ], [ 14.23295049354391, 37.91240862873947 ], [ 14.232517766202934, 37.912275021300758 ], [ 14.232270493436662, 37.912141413862045 ], [ 14.232270493436662, 37.91187419898462 ], [ 14.232455948011365, 37.911606984107202 ] ] ] } },
{ "type": "Feature", "properties": { "id": "46439", "FIREDATE": "2021-03-01 01:12:00", "FINALDATE": "2021-03-01 01:12:00", "LASTUPDATE": "2022-01-26 11:45:36.105095", "COUNTRY": "IT", "PROVINCE": "Palermo", "COMMUNE": "San Mauro Castelverde", "AREA_HA": "4", "BROADLEA": "0", "CONIFER": "0", "MIXED": "99.9999999975", "SCLEROPH": "0", "TRANSIT": "0", "OTHERNATLC": "0", "AGRIAREAS": "0", "ARTIFSURF": "0", "OTHERLC": "0", "PERCNA2K": "100", "year": 2021, "source": "EFFIS" }, "geometry": { "type": "Polygon", "coordinates": [ [ [ 14.198208669882693, 37.963713885204626 ], [ 14.198579579032101, 37.96364708148527 ], [ 14.199012306373076, 37.963780688923983 ], [ 14.199506851905621, 37.964114707520764 ], [ 14.200001397438164, 37.964582333556251 ], [ 14.200248670204436, 37.965049959591745 ], [ 14.200310488396005, 37.96538397818852 ], [ 14.200125033821301, 37.965651193065945 ], [ 14.199815942863461, 37.965851604224007 ], [ 14.199383215522484, 37.965851604224007 ], [ 14.198950488181509, 37.965784800504657 ], [ 14.198517760840533, 37.965450781907876 ], [ 14.198023215307989, 37.965049959591745 ], [ 14.197714124350149, 37.964649137275607 ], [ 14.197652306158581, 37.964315118678826 ], [ 14.197837760733284, 37.963981100082052 ], [ 14.198208669882693, 37.963713885204626 ] ] ] } },
{ "type": "Feature", "properties": { "id": "211645", "FIREDATE": "2022-11-09 12:50:00", "FINALDATE": "2022-11-09 12:50:00", "LASTUPDATE": "2022-11-11 08:31:54.04549", "COUNTRY": "IT", "PROVINCE": "Palermo", "COMMUNE": "San Mauro Castelverde", "AREA_HA": "11", "BROADLEA": "9.9999999999", "CONIFER": "0", "MIXED": "0", "SCLEROPH": "0", "TRANSIT": "0", "OTHERNATLC": "89.9999999991", "AGRIAREAS": "0", "ARTIFSURF": "0", "OTHERLC": "0", "PERCNA2K": "100", "year": 2022, "source": "EFFIS" }, "geometry": { "type": "Polygon", "coordinates": [ [ [ 14.223183219276166, 37.906863920032947 ], [ 14.223059582893029, 37.906930723752303 ], [ 14.223059582893029, 37.907064331191016 ], [ 14.223059582893029, 37.907197938629729 ], [ 14.223183219276166, 37.907331546068434 ], [ 14.223306855659301, 37.907531957226503 ], [ 14.223492310234006, 37.907665564665216 ], [ 14.223615946617141, 37.907865975823285 ], [ 14.223739583000278, 37.908066386981346 ], [ 14.223863219383414, 37.908266798139415 ], [ 14.223925037574981, 37.908467209297484 ], [ 14.223863219383414, 37.908667620455553 ], [ 14.223801401191846, 37.908934835332971 ], [ 14.223615946617141, 37.90913524649104 ], [ 14.223430492042437, 37.909202050210396 ], [ 14.223183219276166, 37.909268853929753 ], [ 14.222935946509894, 37.909202050210396 ], [ 14.222626855552054, 37.909001639052327 ], [ 14.222379582785782, 37.908868031613615 ], [ 14.222132310019509, 37.908801227894266 ], [ 14.222008673636374, 37.908801227894266 ], [ 14.221946855444806, 37.908868031613615 ], [ 14.221885037253237, 37.908934835332971 ], [ 14.221885037253237, 37.909001639052327 ], [ 14.221946855444806, 37.90913524649104 ], [ 14.222008673636374, 37.909268853929753 ], [ 14.222070491827942, 37.909335657649109 ], [ 14.222194128211077, 37.909469265087822 ], [ 14.222317764594214, 37.909536068807178 ], [ 14.222441400977349, 37.909602872526527 ], [ 14.222626855552054, 37.909669676245883 ], [ 14.222812310126757, 37.909803283684596 ], [ 14.222935946509894, 37.909936891123309 ], [ 14.223121401084597, 37.910070498562021 ], [ 14.223245037467734, 37.910204106000734 ], [ 14.223183219276166, 37.91027090972009 ], [ 14.222997764701461, 37.910337713439446 ], [ 14.222750491935189, 37.910404517158796 ], [ 14.222565037360486, 37.910471320878152 ], [ 14.222379582785782, 37.910471320878152 ], [ 14.222317764594214, 37.910604928316864 ], [ 14.222255946402646, 37.910671732036221 ], [ 14.222255946402646, 37.910738535755577 ], [ 14.222194128211077, 37.910738535755577 ], [ 14.222132310019509, 37.910805339474933 ], [ 14.222070491827942, 37.910805339474933 ], [ 14.222008673636374, 37.910805339474933 ], [ 14.221946855444806, 37.910938946913646 ], [ 14.221946855444806, 37.911072554352359 ], [ 14.221885037253237, 37.911206161791064 ], [ 14.221823219061669, 37.911339769229777 ], [ 14.221761400870102, 37.911406572949133 ], [ 14.221637764486966, 37.911406572949133 ], [ 14.221575946295397, 37.911339769229777 ], [ 14.221452309912262, 37.911206161791064 ], [ 14.221390491720694, 37.911072554352359 ], [ 14.221390491720694, 37.91087214319429 ], [ 14.221390491720694, 37.910671732036221 ], [ 14.221328673529126, 37.910471320878152 ], [ 14.221205037145989, 37.910337713439446 ], [ 14.221081400762854, 37.91027090972009 ], [ 14.220834127996582, 37.910204106000734 ], [ 14.220648673421877, 37.910137302281377 ], [ 14.220463218847174, 37.910003694842665 ], [ 14.220277764272469, 37.909936891123309 ], [ 14.220092309697765, 37.909803283684596 ], [ 14.220030491506197, 37.909669676245883 ], [ 14.220092309697765, 37.909602872526527 ], [ 14.220277764272469, 37.909602872526527 ], [ 14.220525037038742, 37.909536068807178 ], [ 14.220710491613445, 37.909536068807178 ], [ 14.220834127996582, 37.909402461368465 ], [ 14.220834127996582, 37.909335657649109 ], [ 14.220834127996582, 37.90913524649104 ], [ 14.220834127996582, 37.909001639052327 ], [ 14.220772309805014, 37.908868031613615 ], [ 14.220710491613445, 37.908667620455553 ], [ 14.220648673421877, 37.90853401301684 ], [ 14.220648673421877, 37.908400405578128 ], [ 14.220586855230309, 37.908266798139415 ], [ 14.220586855230309, 37.908133190700703 ], [ 14.220525037038742, 37.907999583261997 ], [ 14.220525037038742, 37.907865975823285 ], [ 14.220586855230309, 37.907732368384572 ], [ 14.220710491613445, 37.907665564665216 ], [ 14.220834127996582, 37.907531957226503 ], [ 14.220957764379717, 37.90739834978779 ], [ 14.221019582571286, 37.907197938629729 ], [ 14.221019582571286, 37.906930723752303 ], [ 14.221019582571286, 37.906596705155522 ], [ 14.220957764379717, 37.90639629399746 ], [ 14.220895946188149, 37.906195882839391 ], [ 14.220710491613445, 37.905995471681322 ], [ 14.220525037038742, 37.905928667961966 ], [ 14.220463218847174, 37.905795060523253 ], [ 14.220401400655605, 37.905728256803904 ], [ 14.220463218847174, 37.905594649365192 ], [ 14.220648673421877, 37.905461041926479 ], [ 14.220772309805014, 37.905327434487766 ], [ 14.220895946188149, 37.90526063076841 ], [ 14.221081400762854, 37.90526063076841 ], [ 14.221205037145989, 37.90526063076841 ], [ 14.221328673529126, 37.905327434487766 ], [ 14.221452309912262, 37.905394238207123 ], [ 14.221514128103829, 37.905527845645835 ], [ 14.221575946295397, 37.905661453084548 ], [ 14.221575946295397, 37.905795060523253 ], [ 14.221575946295397, 37.905928667961966 ], [ 14.221575946295397, 37.906062275400679 ], [ 14.221575946295397, 37.906195882839391 ], [ 14.221575946295397, 37.906329490278104 ], [ 14.221637764486966, 37.906463097716816 ], [ 14.221699582678534, 37.906529901436173 ], [ 14.221885037253237, 37.906663508874878 ], [ 14.222008673636374, 37.906730312594235 ], [ 14.222194128211077, 37.906730312594235 ], [ 14.222317764594214, 37.906663508874878 ], [ 14.222503219168917, 37.906596705155522 ], [ 14.222626855552054, 37.906529901436173 ], [ 14.222812310126757, 37.906529901436173 ], [ 14.222935946509894, 37.906596705155522 ], [ 14.223121401084597, 37.906596705155522 ], [ 14.223183219276166, 37.906663508874878 ], [ 14.223245037467734, 37.906797116313591 ], [ 14.223183219276166, 37.906863920032947 ] ] ] } },
{ "type": "Feature", "properties": { "id": "206086", "FIREDATE": "2022-07-12 11:10:00", "FINALDATE": "2022-07-12 12:51:00", "LASTUPDATE": "2022-07-18 15:09:13.43281", "COUNTRY": "IT", "PROVINCE": "Messina", "COMMUNE": "Tusa", "AREA_HA": "22", "BROADLEA": "0", "CONIFER": "0", "MIXED": "0", "SCLEROPH": "0", "TRANSIT": "0", "OTHERNATLC": "99.99999999952381", "AGRIAREAS": "0", "ARTIFSURF": "0", "OTHERLC": "0", "PERCNA2K": "100.00000000000007", "year": 2022, "source": "EFFIS" }, "geometry": { "type": "Polygon", "coordinates": [ [ [ 14.239688676424823, 37.90973647996524 ], [ 14.239812312807958, 37.909803283684596 ], [ 14.239935949191095, 37.909936891123309 ], [ 14.239997767382663, 37.910204106000734 ], [ 14.24005958557423, 37.910404517158796 ], [ 14.240121403765798, 37.910671732036221 ], [ 14.240121403765798, 37.91087214319429 ], [ 14.24005958557423, 37.911005750633002 ], [ 14.239935949191095, 37.911139358071708 ], [ 14.239874130999526, 37.91127296551042 ], [ 14.239688676424823, 37.911473376668489 ], [ 14.239565040041686, 37.911740591545914 ], [ 14.239379585466983, 37.912007806423333 ], [ 14.239194130892278, 37.912208217581401 ], [ 14.239008676317574, 37.912275021300758 ], [ 14.238885039934438, 37.912275021300758 ], [ 14.238761403551303, 37.912208217581401 ], [ 14.238575948976598, 37.912208217581401 ], [ 14.238390494401894, 37.91240862873947 ], [ 14.238205039827189, 37.912742647336245 ], [ 14.237957767060918, 37.913143469652383 ], [ 14.237710494294646, 37.913544291968513 ], [ 14.237525039719943, 37.913811506845938 ], [ 14.237401403336806, 37.914078721723364 ], [ 14.237277766953671, 37.914212329162069 ], [ 14.237154130570534, 37.914279132881425 ], [ 14.236968675995831, 37.914345936600782 ], [ 14.236783221421126, 37.914412740320138 ], [ 14.236597766846423, 37.914412740320138 ], [ 14.236412312271717, 37.914345936600782 ], [ 14.236288675888582, 37.914279132881425 ], [ 14.236226857697014, 37.914212329162069 ], [ 14.236226857697014, 37.914078721723364 ], [ 14.236165039505446, 37.914011918004007 ], [ 14.236041403122311, 37.913878310565295 ], [ 14.235917766739174, 37.913744703126582 ], [ 14.235732312164471, 37.91361109568787 ], [ 14.235608675781334, 37.913477488249157 ], [ 14.235546857589766, 37.913343880810451 ], [ 14.235608675781334, 37.913143469652383 ], [ 14.235670493972902, 37.912943058494314 ], [ 14.235608675781334, 37.912809451055601 ], [ 14.235299584823494, 37.912675843616888 ], [ 14.234866857482517, 37.912609039897539 ], [ 14.234186857375271, 37.912542236178183 ], [ 14.233692311842725, 37.91240862873947 ], [ 14.233321402693319, 37.912275021300758 ], [ 14.233135948118614, 37.912141413862045 ], [ 14.233135948118614, 37.912007806423333 ], [ 14.233012311735479, 37.91187419898462 ], [ 14.232826857160774, 37.911740591545914 ], [ 14.232579584394502, 37.911740591545914 ], [ 14.232270493436662, 37.911740591545914 ], [ 14.23202322067039, 37.911740591545914 ], [ 14.231837766095685, 37.911740591545914 ], [ 14.23171412971255, 37.911673787826558 ], [ 14.231652311520982, 37.911606984107202 ], [ 14.231590493329414, 37.911540180387846 ], [ 14.231528675137845, 37.911473376668489 ], [ 14.23140503875471, 37.911473376668489 ], [ 14.231281402371573, 37.911540180387846 ], [ 14.231157765988439, 37.911473376668489 ], [ 14.231034129605302, 37.911473376668489 ], [ 14.230972311413733, 37.911339769229777 ], [ 14.230910493222165, 37.911206161791064 ], [ 14.230848675030598, 37.911072554352359 ], [ 14.230725038647462, 37.911005750633002 ], [ 14.230601402264325, 37.910938946913646 ], [ 14.230415947689622, 37.91087214319429 ], [ 14.230354129498053, 37.910805339474933 ], [ 14.230415947689622, 37.910671732036221 ], [ 14.230539584072758, 37.910538124597508 ], [ 14.23078685683903, 37.91027090972009 ], [ 14.23109594779687, 37.910137302281377 ], [ 14.231466856946279, 37.910003694842665 ], [ 14.231837766095685, 37.910003694842665 ], [ 14.232270493436662, 37.910003694842665 ], [ 14.232703220777639, 37.910070498562021 ], [ 14.233074129927045, 37.910137302281377 ], [ 14.233445039076454, 37.910204106000734 ], [ 14.233754130034294, 37.910337713439446 ], [ 14.234063220992134, 37.910471320878152 ], [ 14.234495948333111, 37.910538124597508 ], [ 14.234928675674086, 37.910538124597508 ], [ 14.235361403015062, 37.910471320878152 ], [ 14.235855948547606, 37.910471320878152 ], [ 14.236288675888582, 37.910471320878152 ], [ 14.236783221421126, 37.910471320878152 ], [ 14.237215948762103, 37.910404517158796 ], [ 14.237525039719943, 37.910404517158796 ], [ 14.237772312486214, 37.910337713439446 ], [ 14.237834130677783, 37.91027090972009 ], [ 14.237834130677783, 37.910137302281377 ], [ 14.237895948869349, 37.910003694842665 ], [ 14.238081403444054, 37.909936891123309 ], [ 14.238328676210326, 37.909803283684596 ], [ 14.238699585359734, 37.90973647996524 ], [ 14.239008676317574, 37.909669676245883 ], [ 14.239255949083846, 37.909669676245883 ], [ 14.239503221850118, 37.909669676245883 ], [ 14.239688676424823, 37.90973647996524 ] ] ] } },
{ "type": "Feature", "properties": { "id": "213653", "FIREDATE": "2023-02-24 00:00:00", "FINALDATE": "2023-02-24 00:00:00", "LASTUPDATE": "2023-03-16 08:19:30.356968", "COUNTRY": "IT", "PROVINCE": "Palermo", "COMMUNE": "San Mauro Castelverde", "AREA_HA": "9", "BROADLEA": "0", "CONIFER": "0", "MIXED": "0", "SCLEROPH": "0", "TRANSIT": "36.36363636330579", "OTHERNATLC": "63.63636363578512", "AGRIAREAS": "0", "ARTIFSURF": "0", "OTHERLC": "0", "PERCNA2K": "4.033322827423292", "year": 2023, "source": "EFFIS" }, "geometry": { "type": "Polygon", "coordinates": [ [ [ 14.249023223351591, 37.943806376836633 ], [ 14.249146859734726, 37.944340806591484 ], [ 14.249332314309431, 37.945676880978596 ], [ 14.249332314309431, 37.946144507014083 ], [ 14.249085041543159, 37.946211310733439 ], [ 14.248899586968454, 37.946211310733439 ], [ 14.248590496010614, 37.946278114452795 ], [ 14.248281405052774, 37.946211310733439 ], [ 14.247725041328662, 37.946010899575377 ], [ 14.247477768562391, 37.945810488417308 ], [ 14.247354132179254, 37.945543273539883 ], [ 14.247230495796119, 37.945342862381814 ], [ 14.246983223029847, 37.945142451223752 ], [ 14.24685958664671, 37.945075647504396 ], [ 14.246797768455142, 37.945075647504396 ], [ 14.246612313880439, 37.945142451223752 ], [ 14.246303222922599, 37.945342862381814 ], [ 14.246117768347894, 37.945476469820527 ], [ 14.245808677390054, 37.945743684697952 ], [ 14.245437768240647, 37.945877292136664 ], [ 14.244757768133399, 37.946077703294726 ], [ 14.244448677175559, 37.946077703294726 ], [ 14.244201404409287, 37.945944095856021 ], [ 14.244139586217718, 37.945877292136664 ], [ 14.24407776802615, 37.945743684697952 ], [ 14.243830495259878, 37.945743684697952 ], [ 14.243088676961062, 37.945743684697952 ], [ 14.242655949620087, 37.945610077259239 ], [ 14.242285040470678, 37.945075647504396 ], [ 14.242470495045382, 37.944808432626971 ], [ 14.24315049515263, 37.944674825188258 ], [ 14.243645040685175, 37.944608021468902 ], [ 14.244325040792422, 37.944674825188258 ], [ 14.244881404516535, 37.944674825188258 ], [ 14.245561404623782, 37.944674825188258 ], [ 14.245994131964759, 37.944674825188258 ], [ 14.246426859305734, 37.944608021468902 ], [ 14.246674132072007, 37.944474414030196 ], [ 14.246983223029847, 37.944140395433415 ], [ 14.247415950370822, 37.943939984275346 ], [ 14.248343223244342, 37.943739573117284 ], [ 14.248775950585319, 37.943672769397928 ], [ 14.249023223351591, 37.943806376836633 ] ] ] } },
{ "type": "Feature", "properties": { "id": "221088", "FIREDATE": "2023-09-21 12:25:00", "FINALDATE": "2023-09-23 01:15:00", "LASTUPDATE": "2023-09-25 06:49:16.983581", "COUNTRY": "IT", "PROVINCE": "Messina", "COMMUNE": "Tusa", "AREA_HA": "145", "BROADLEA": "89.58333333327113", "CONIFER": "0", "MIXED": "0", "SCLEROPH": "0", "TRANSIT": "0", "OTHERNATLC": "0", "AGRIAREAS": "10.416666666659435", "ARTIFSURF": "0", "OTHERLC": "0", "PERCNA2K": "93.50073434056299", "year": 2023, "source": "EFFIS" }, "geometry": { "type": "Polygon", "coordinates": [ [ [ 14.209830489897477, 37.860769353677533 ], [ 14.210325035430021, 37.860769353677533 ], [ 14.212055944793924, 37.861570998309801 ], [ 14.212550490326469, 37.861771409467863 ], [ 14.213045035859013, 37.861704605748507 ], [ 14.213354126816853, 37.861704605748507 ], [ 14.214281399690373, 37.861704605748507 ], [ 14.214528672456645, 37.86183821318722 ], [ 14.214528672456645, 37.862639857819488 ], [ 14.214466854265078, 37.862907072696913 ], [ 14.214281399690373, 37.8633746987324 ], [ 14.21409594511567, 37.863575109890469 ], [ 14.213539581391558, 37.863909128487251 ], [ 14.213415945008421, 37.864176343364669 ], [ 14.213539581391558, 37.864844380558225 ], [ 14.213663217774693, 37.865245202874362 ], [ 14.21409594511567, 37.866380866103405 ], [ 14.214157763307238, 37.866848492138899 ], [ 14.213910490540965, 37.867583333051812 ], [ 14.21378685415783, 37.868117762806655 ], [ 14.213539581391558, 37.869854659509905 ], [ 14.21347776319999, 37.870255481826035 ], [ 14.21347776319999, 37.870455892984104 ], [ 14.213354126816853, 37.870656304142173 ], [ 14.212859581284309, 37.871391145055085 ], [ 14.212797763092741, 37.87172516365186 ], [ 14.212921399475878, 37.872593612003485 ], [ 14.212859581284309, 37.872994434319622 ], [ 14.212612308518038, 37.873662471513178 ], [ 14.212426853943333, 37.874063293829309 ], [ 14.211994126602358, 37.875065349619646 ], [ 14.211623217452949, 37.875332564497072 ], [ 14.210634126387861, 37.87559977937449 ], [ 14.210263217238452, 37.875666583093846 ], [ 14.209645035322772, 37.87559977937449 ], [ 14.209335944364932, 37.875733386813202 ], [ 14.208841398832389, 37.876334620287402 ], [ 14.208717762449252, 37.876601835164827 ], [ 14.208594126066117, 37.877269872358383 ], [ 14.208346853299846, 37.877537087235808 ], [ 14.207605035001029, 37.878338731868077 ], [ 14.207357762234757, 37.878739554184207 ], [ 14.207110489468485, 37.879541198816476 ], [ 14.206986853085349, 37.879875217413257 ], [ 14.206801398510645, 37.880476450887457 ], [ 14.206554125744374, 37.880543254606813 ], [ 14.20568867106242, 37.880409647168101 ], [ 14.205255943721445, 37.880142432290675 ], [ 14.204452307231062, 37.879407591377763 ], [ 14.204019579890085, 37.87887316162292 ], [ 14.203092307016565, 37.877537087235808 ], [ 14.202783216058725, 37.877002657480958 ], [ 14.202597761484022, 37.876067405409984 ], [ 14.202597761484022, 37.875666583093846 ], [ 14.202721397867156, 37.87499854590029 ], [ 14.203030488824997, 37.874664527303509 ], [ 14.204143216273222, 37.873796078951891 ], [ 14.2047613981889, 37.873328452916397 ], [ 14.206183216594965, 37.87225959340671 ], [ 14.206801398510645, 37.871591556213147 ], [ 14.207914125958869, 37.869988266948617 ], [ 14.208161398725141, 37.869453837193767 ], [ 14.208099580533574, 37.868718996280855 ], [ 14.207975944150437, 37.868451781403436 ], [ 14.207481398617894, 37.867917351648586 ], [ 14.207357762234757, 37.867716940490524 ], [ 14.20723412585162, 37.867382921893743 ], [ 14.207110489468485, 37.867182510735674 ], [ 14.206677762127509, 37.866982099577612 ], [ 14.2063068529781, 37.867048903296961 ], [ 14.205255943721445, 37.867382921893743 ], [ 14.204452307231062, 37.867583333051812 ], [ 14.202350488717748, 37.868050959087299 ], [ 14.201794124993636, 37.868184566526011 ], [ 14.201299579461093, 37.86838497768408 ], [ 14.201175943077956, 37.868585388842142 ], [ 14.201237761269525, 37.869186622316349 ], [ 14.201175943077956, 37.86938703347441 ], [ 14.200557761162276, 37.869654248351836 ], [ 14.200372306587573, 37.869654248351836 ], [ 14.200063215629733, 37.869453837193767 ], [ 14.19987776105503, 37.869186622316349 ], [ 14.199383215522484, 37.868318173964724 ], [ 14.199383215522484, 37.868050959087299 ], [ 14.199568670097189, 37.867716940490524 ], [ 14.19987776105503, 37.867583333051812 ], [ 14.20080503392855, 37.867316118174386 ], [ 14.201237761269525, 37.867182510735674 ], [ 14.201979579568341, 37.866982099577612 ], [ 14.202412306909316, 37.866848492138899 ], [ 14.203401397974405, 37.866648080980831 ], [ 14.203710488932245, 37.866514473542118 ], [ 14.203957761698517, 37.8662472586647 ], [ 14.203957761698517, 37.866046847506631 ], [ 14.203834125315382, 37.865579221471137 ], [ 14.203710488932245, 37.865312006593719 ], [ 14.203277761591268, 37.864643969400163 ], [ 14.202783216058725, 37.864376754522738 ], [ 14.201175943077956, 37.864109539645312 ], [ 14.200619579353845, 37.863909128487251 ], [ 14.200125033821301, 37.863241091293688 ], [ 14.199939579246596, 37.862907072696913 ], [ 14.199815942863461, 37.862105428064645 ], [ 14.199692306480324, 37.861771409467863 ], [ 14.199506851905621, 37.86123697971302 ], [ 14.199568670097189, 37.860969764835595 ], [ 14.200063215629733, 37.860435335080751 ], [ 14.200310488396005, 37.860435335080751 ], [ 14.200866852120116, 37.861036568554951 ], [ 14.201299579461093, 37.861437390871089 ], [ 14.202535943292453, 37.862573054100132 ], [ 14.202906852441862, 37.862773465258201 ], [ 14.203401397974405, 37.862439446661426 ], [ 14.203710488932245, 37.862172231784001 ], [ 14.204575943614197, 37.861437390871089 ], [ 14.204946852763605, 37.861370587151733 ], [ 14.205935943828694, 37.862038624345288 ], [ 14.206245034786534, 37.862439446661426 ], [ 14.206801398510645, 37.8633746987324 ], [ 14.207357762234757, 37.863508306171113 ], [ 14.208965035215526, 37.863241091293688 ], [ 14.209397762556501, 37.86297387641627 ], [ 14.209521398939637, 37.862305839222714 ], [ 14.209459580748069, 37.862038624345288 ], [ 14.209150489790229, 37.861570998309801 ], [ 14.209212307981797, 37.861370587151733 ], [ 14.209830489897477, 37.860769353677533 ] ] ] } },
{ "type": "Feature", "properties": { "id": "224041", "FIREDATE": "2023-11-07 11:51:00", "FINALDATE": "2023-11-07 11:51:00", "LASTUPDATE": "2023-12-11 10:03:22.419602", "COUNTRY": "IT", "PROVINCE": "Palermo", "COMMUNE": "San Mauro Castelverde", "AREA_HA": "5", "BROADLEA": "0", "CONIFER": "0", "MIXED": "0", "SCLEROPH": "99.99999999799999", "TRANSIT": "0", "OTHERNATLC": "0", "AGRIAREAS": "0", "ARTIFSURF": "0", "OTHERLC": "0", "PERCNA2K": "0", "year": 2023, "source": "EFFIS" }, "geometry": { "type": "Polygon", "coordinates": [ [ [ 14.228066856410038, 37.970193845982131 ], [ 14.22831412917631, 37.970060238543418 ], [ 14.228561401942581, 37.969993434824062 ], [ 14.228808674708853, 37.970060238543418 ], [ 14.228994129283558, 37.970260649701487 ], [ 14.229117765666693, 37.970394257140192 ], [ 14.229179583858262, 37.970527864578905 ], [ 14.229179583858262, 37.970661472017618 ], [ 14.229117765666693, 37.97079507945633 ], [ 14.229055947475127, 37.970995490614399 ], [ 14.228994129283558, 37.971129098053112 ], [ 14.22893231109199, 37.971329509211174 ], [ 14.228870492900421, 37.971529920369242 ], [ 14.228808674708853, 37.971663527807955 ], [ 14.228746856517287, 37.971863938966024 ], [ 14.228685038325718, 37.971997546404729 ], [ 14.228685038325718, 37.972131153843442 ], [ 14.228561401942581, 37.972264761282155 ], [ 14.228499583751013, 37.972264761282155 ], [ 14.22831412917631, 37.972264761282155 ], [ 14.228128674601606, 37.972197957562798 ], [ 14.22800503821847, 37.972197957562798 ], [ 14.227881401835333, 37.972264761282155 ], [ 14.227943220026901, 37.972398368720867 ], [ 14.227881401835333, 37.972465172440224 ], [ 14.227757765452198, 37.972598779878936 ], [ 14.227634129069061, 37.972665583598285 ], [ 14.227325038111221, 37.972732387317642 ], [ 14.227139583536518, 37.972799191036998 ], [ 14.226954128961813, 37.972932798475711 ], [ 14.22676867438711, 37.972999602195067 ], [ 14.226645038003973, 37.973133209633779 ], [ 14.226521401620838, 37.973333620791848 ], [ 14.226397765237701, 37.973467228230554 ], [ 14.226274128854566, 37.973600835669266 ], [ 14.226150492471429, 37.973801246827335 ], [ 14.226026856088295, 37.973934854266048 ], [ 14.225841401513589, 37.974068461704761 ], [ 14.225655946938886, 37.974202069143466 ], [ 14.225470492364181, 37.974335676582179 ], [ 14.225346855981046, 37.974335676582179 ], [ 14.225346855981046, 37.974202069143466 ], [ 14.225408674172614, 37.973934854266048 ], [ 14.225594128747318, 37.97353403194991 ], [ 14.225717765130454, 37.973200013353136 ], [ 14.225903219705158, 37.972999602195067 ], [ 14.225965037896726, 37.972799191036998 ], [ 14.226088674279861, 37.972665583598285 ], [ 14.226212310662998, 37.97253197615958 ], [ 14.226335947046135, 37.972465172440224 ], [ 14.226583219812406, 37.972398368720867 ], [ 14.22676867438711, 37.972398368720867 ], [ 14.227015947153381, 37.972331565001511 ], [ 14.227139583536518, 37.972331565001511 ], [ 14.227263219919653, 37.972264761282155 ], [ 14.227325038111221, 37.972131153843442 ], [ 14.227325038111221, 37.971997546404729 ], [ 14.22738685630279, 37.971797135246668 ], [ 14.22738685630279, 37.971529920369242 ], [ 14.227325038111221, 37.971262705491817 ], [ 14.22738685630279, 37.970928686895043 ], [ 14.227510492685926, 37.970661472017618 ], [ 14.227757765452198, 37.970394257140192 ], [ 14.228066856410038, 37.970193845982131 ] ] ] } },
{ "type": "Feature", "properties": { "id": "224247", "FIREDATE": "2024-01-03 11:34:00", "FINALDATE": "2024-01-03 11:34:00", "LASTUPDATE": "2024-01-23 07:45:56.81277", "COUNTRY": "IT", "PROVINCE": "Palermo", "COMMUNE": "San Mauro Castelverde", "AREA_HA": "2", "BROADLEA": "0", "CONIFER": "0", "MIXED": "0", "SCLEROPH": "0", "TRANSIT": "0", "OTHERNATLC": "99.999999995", "AGRIAREAS": "0", "ARTIFSURF": "0", "OTHERLC": "0", "PERCNA2K": "95.65234686627343", "year": 2024, "source": "EFFIS" }, "geometry": { "type": "Polygon", "coordinates": [ [ [ 14.206059580211829, 37.963981100082052 ], [ 14.205935943828694, 37.96418151124012 ], [ 14.205441398296148, 37.964649137275607 ], [ 14.205317761913014, 37.964715940994964 ], [ 14.205132307338308, 37.964715940994964 ], [ 14.20507048914674, 37.964649137275607 ], [ 14.204885034572037, 37.964582333556251 ], [ 14.204823216380468, 37.964448726117539 ], [ 14.204885034572037, 37.964248314959477 ], [ 14.2047613981889, 37.963981100082052 ], [ 14.204452307231062, 37.963379866607852 ], [ 14.204452307231062, 37.963179455449783 ], [ 14.204575943614197, 37.962979044291714 ], [ 14.204699579997333, 37.962912240572358 ], [ 14.20507048914674, 37.962912240572358 ], [ 14.205255943721445, 37.962845436853002 ], [ 14.205626852870854, 37.96264502569494 ], [ 14.205750489253989, 37.962578221975583 ], [ 14.205935943828694, 37.96264502569494 ], [ 14.20599776202026, 37.962778633133652 ], [ 14.20599776202026, 37.963246259169139 ], [ 14.20599776202026, 37.963446670327208 ], [ 14.206059580211829, 37.963981100082052 ] ] ] } },
{ "type": "Feature", "properties": { "id": "225417", "FIREDATE": "2024-02-07 00:58:00", "FINALDATE": "2024-02-07 00:58:00", "LASTUPDATE": "2024-02-19 10:54:53.10855", "COUNTRY": "IT", "PROVINCE": "Palermo", "COMMUNE": "San Mauro Castelverde", "AREA_HA": "3", "BROADLEA": "0", "CONIFER": "0", "MIXED": "99.999999995", "SCLEROPH": "0", "TRANSIT": "0", "OTHERNATLC": "0", "AGRIAREAS": "0", "ARTIFSURF": "0", "OTHERLC": "0", "PERCNA2K": "100", "year": 2024, "source": "EFFIS" }, "geometry": { "type": "Polygon", "coordinates": [ [ [ 14.201979579568341, 37.961242147588472 ], [ 14.201979579568341, 37.96150936246589 ], [ 14.201917761376773, 37.961642969904602 ], [ 14.201855943185205, 37.961843381062671 ], [ 14.201732306802068, 37.961910184782027 ], [ 14.201608670418933, 37.961976988501384 ], [ 14.201485034035796, 37.962043792220733 ], [ 14.201361397652661, 37.961976988501384 ], [ 14.201237761269525, 37.961910184782027 ], [ 14.201175943077956, 37.961776577343315 ], [ 14.201114124886388, 37.961642969904602 ], [ 14.201052306694821, 37.961576166185246 ], [ 14.200928670311685, 37.96150936246589 ], [ 14.20080503392855, 37.96150936246589 ], [ 14.200681397545413, 37.96150936246589 ], [ 14.200557761162276, 37.96150936246589 ], [ 14.200434124779141, 37.961576166185246 ], [ 14.200248670204436, 37.961642969904602 ], [ 14.200125033821301, 37.961642969904602 ], [ 14.200001397438164, 37.961642969904602 ], [ 14.19987776105503, 37.961642969904602 ], [ 14.199815942863461, 37.961576166185246 ], [ 14.199692306480324, 37.96150936246589 ], [ 14.199630488288756, 37.961442558746533 ], [ 14.199506851905621, 37.961375755027177 ], [ 14.199445033714053, 37.961308951307821 ], [ 14.199321397330916, 37.961175343869115 ], [ 14.199259579139349, 37.961108540149759 ], [ 14.199135942756213, 37.960974932711046 ], [ 14.199074124564644, 37.96090812899169 ], [ 14.199012306373076, 37.960841325272334 ], [ 14.199012306373076, 37.960707717833621 ], [ 14.199074124564644, 37.960640914114265 ], [ 14.199135942756213, 37.960574110394909 ], [ 14.199259579139349, 37.960574110394909 ], [ 14.199321397330916, 37.960574110394909 ], [ 14.199445033714053, 37.960640914114265 ], [ 14.199568670097189, 37.960640914114265 ], [ 14.199630488288756, 37.960707717833621 ], [ 14.199754124671893, 37.960707717833621 ], [ 14.199815942863461, 37.960707717833621 ], [ 14.199939579246596, 37.960640914114265 ], [ 14.200063215629733, 37.960574110394909 ], [ 14.20018685201287, 37.960574110394909 ], [ 14.200434124779141, 37.960507306675552 ], [ 14.200681397545413, 37.960507306675552 ], [ 14.200866852120116, 37.960507306675552 ], [ 14.201052306694821, 37.960507306675552 ], [ 14.201175943077956, 37.960507306675552 ], [ 14.201299579461093, 37.960507306675552 ], [ 14.201423215844228, 37.960574110394909 ], [ 14.201485034035796, 37.960640914114265 ], [ 14.201546852227365, 37.960707717833621 ], [ 14.201608670418933, 37.960774521552977 ], [ 14.201670488610501, 37.96090812899169 ], [ 14.201732306802068, 37.96090812899169 ], [ 14.201794124993636, 37.960974932711046 ], [ 14.201917761376773, 37.96090812899169 ], [ 14.201917761376773, 37.960974932711046 ], [ 14.201979579568341, 37.961108540149759 ], [ 14.201979579568341, 37.961242147588472 ] ] ] } },
{ "type": "Feature", "properties": { "id": "246129", "FIREDATE": "2024-10-08 12:17:00", "FINALDATE": "2024-10-08 12:17:00", "LASTUPDATE": "2024-10-14 06:43:06.277165", "COUNTRY": "IT", "PROVINCE": "Palermo", "COMMUNE": "San Mauro Castelverde", "AREA_HA": "10", "BROADLEA": "0", "CONIFER": "0", "MIXED": "99.999999999", "SCLEROPH": "0", "TRANSIT": "0", "OTHERNATLC": "0", "AGRIAREAS": "0", "ARTIFSURF": "0", "OTHERLC": "0", "PERCNA2K": "99.99999999999999", "year": 2024, "source": "EFFIS" }, "geometry": { "type": "Polygon", "coordinates": [ [ [ 14.219165036824245, 37.922228775484754 ], [ 14.219535945973654, 37.922696401520241 ], [ 14.219597764165222, 37.923431242433153 ], [ 14.219474127782085, 37.923898868468648 ], [ 14.219226855015814, 37.924099279626709 ], [ 14.218979582249542, 37.924299690784778 ], [ 14.218794127674837, 37.924433298223491 ], [ 14.218485036716997, 37.924500101942847 ], [ 14.217990491184453, 37.92463370938156 ], [ 14.21749594565191, 37.924700513100916 ], [ 14.21687776373623, 37.924700513100916 ], [ 14.216383218203685, 37.924566905662203 ], [ 14.21595049086271, 37.924299690784778 ], [ 14.215765036288005, 37.923898868468648 ], [ 14.215765036288005, 37.923364438713797 ], [ 14.215826854479573, 37.923097223836379 ], [ 14.215888672671142, 37.92289681267831 ], [ 14.216012309054276, 37.922696401520241 ], [ 14.216135945437413, 37.922429186642823 ], [ 14.216197763628982, 37.922161971765398 ], [ 14.216321400012117, 37.92176114944926 ], [ 14.216506854586822, 37.921493934571842 ], [ 14.216754127353093, 37.921226719694417 ], [ 14.217063218310933, 37.921093112255704 ], [ 14.217372309268773, 37.921026308536348 ], [ 14.217681400226613, 37.921159915975061 ], [ 14.217990491184453, 37.921493934571842 ], [ 14.21842321852543, 37.921827953168616 ], [ 14.219165036824245, 37.922228775484754 ] ] ] } },
{ "type": "Feature", "properties": { "id": "246130", "FIREDATE": "2024-10-08 12:17:00", "FINALDATE": "2024-10-08 12:17:00", "LASTUPDATE": "2024-10-14 06:43:15.930274", "COUNTRY": "IT", "PROVINCE": "Palermo", "COMMUNE": "San Mauro Castelverde", "AREA_HA": "3", "BROADLEA": "0", "CONIFER": "0", "MIXED": "99.9999999975", "SCLEROPH": "0", "TRANSIT": "0", "OTHERNATLC": "0", "AGRIAREAS": "0", "ARTIFSURF": "0", "OTHERLC": "0", "PERCNA2K": "100", "year": 2024, "source": "EFFIS" }, "geometry": { "type": "Polygon", "coordinates": [ [ [ 14.220092309697765, 37.925101335417047 ], [ 14.220339582464037, 37.925101335417047 ], [ 14.220277764272469, 37.925368550294472 ], [ 14.220277764272469, 37.925568961452534 ], [ 14.220277764272469, 37.92563576517189 ], [ 14.219906855123062, 37.925902980049315 ], [ 14.219226855015814, 37.926236998646097 ], [ 14.218670491291702, 37.926437409804159 ], [ 14.218237763950725, 37.926571017242871 ], [ 14.217866854801317, 37.926637820962227 ], [ 14.217372309268773, 37.92677142840094 ], [ 14.217001400119365, 37.92677142840094 ], [ 14.216692309161525, 37.926571017242871 ], [ 14.21656867277839, 37.926370606084802 ], [ 14.216630490969957, 37.926103391207384 ], [ 14.216692309161525, 37.925969783768672 ], [ 14.216939581927797, 37.925836176329959 ], [ 14.217310491077205, 37.925769372610603 ], [ 14.217743218418182, 37.925769372610603 ], [ 14.218299582142294, 37.92563576517189 ], [ 14.218917764057974, 37.925502157733185 ], [ 14.219535945973654, 37.925301746575116 ], [ 14.220092309697765, 37.925101335417047 ] ] ] } }
]
}
