{
"type": "FeatureCollection",
"name": "gfw_viirs_alerts_sanmauro",
"crs": { "type": "name", "properties": { "name": "urn:ogc:def:crs:OGC:1.3:CRS84" } },
"features": [
{ "type": "Feature", "properties": { "latitude": "37.95852", "longitude": "14.22287", "alert__date": "2022-11-09", "alert__time_utc": "1250", "confidence__cat": "n", "frp__MW": "3.3499999046325684" }, "geometry": { "type": "Point", "coordinates": [ 14.22287, 37.95852 ] } },
{ "type": "Feature", "properties": { "latitude": "37.98027", "longitude": "14.20274", "alert__date": "2021-11-07", "alert__time_utc": "1231", "confidence__cat": "n", "frp__MW": "4.03000020980835" }, "geometry": { "type": "Point", "coordinates": [ 14.20274, 37.98027 ] } },
{ "type": "Feature", "properties": { "latitude": "37.902309", "longitude": "14.193506", "alert__date": "2020-05-09", "alert__time_utc": "1146", "confidence__cat": "n", "frp__MW": "4.409999847412109" }, "geometry": { "type": "Point", "coordinates": [ 14.193506, 37.902309 ] } },
{ "type": "Feature", "properties": { "latitude": "37.90747", "longitude": "14.21812", "alert__date": "2024-04-04", "alert__time_utc": "1251", "confidence__cat": "n", "frp__MW": "2.240000009536743" }, "geometry": { "type": "Point", "coordinates": [ 14.21812, 37.90747 ] } },
{ "type": "Feature", "properties": { "latitude": "37.9162", "longitude": "14.16438", "alert__date": "2024-03-30", "alert__time_utc": "1244", "confidence__cat": "n", "frp__MW": "3.4800000190734863" }, "geometry": { "type": "Point", "coordinates": [ 14.16438, 37.9162 ] } },
{ "type": "Feature", "properties": { "latitude": "37.95868", "longitude": "14.18324", "alert__date": "2024-03-14", "alert__time_utc": "1244", "confidence__cat": "n", "frp__MW": "3.0" }, "geometry": { "type": "Point", "coordinates": [ 14.18324, 37.95868 ] } },
{ "type": "Feature", "properties": { "latitude": "37.98035", "longitude": "14.20205", "alert__date": "2023-06-19", "alert__time_utc": "1149", "confidence__cat": "n", "frp__MW": "3.240000009536743" }, "geometry": { "type": "Point", "coordinates": [ 14.20205, 37.98035 ] } },
{ "type": "Feature", "properties": { "latitude": "37.90248", "longitude": "14.20023", "alert__date": "2023-03-18", "alert__time_utc": "1232", "confidence__cat": "n", "frp__MW": "3.2899999618530273" }, "geometry": { "type": "Point", "coordinates": [ 14.20023, 37.90248 ] } },
{ "type": "Feature", "properties": { "latitude": "37.89139", "longitude": "14.17896", "alert__date": "2021-02-06", "alert__time_utc": "1124", "confidence__cat": "n", "frp__MW": "3.5999999046325684" }, "geometry": { "type": "Point", "coordinates": [ 14.17896, 37.89139 ] } },
{ "type": "Feature", "properties": { "latitude": "37.92352", "longitude": "14.21546", "alert__date": "2020-11-12", "alert__time_utc": "1136", "confidence__cat": "n", "frp__MW": "4.699999809265137" }, "geometry": { "type": "Point", "coordinates": [ 14.21546, 37.92352 ] } },
{ "type": "Feature", "properties": { "latitude": "37.94542", "longitude": "14.14609", "alert__date": "2019-04-18", "alert__time_utc": "1242", "confidence__cat": "n", "frp__MW": "2.9000000953674316" }, "geometry": { "type": "Point", "coordinates": [ 14.14609, 37.94542 ] } },
{ "type": "Feature", "properties": { "latitude": "37.98159", "longitude": "14.18339", "alert__date": "2018-03-12", "alert__time_utc": "1139", "confidence__cat": "n", "frp__MW": "2.700000047683716" }, "geometry": { "type": "Point", "coordinates": [ 14.18339, 37.98159 ] } },
{ "type": "Feature", "properties": { "latitude": "37.9061", "longitude": "14.20019", "alert__date": "2024-02-07", "alert__time_utc": "58", "confidence__cat": "n", "frp__MW": "0.5699999928474426" }, "geometry": { "type": "Point", "coordinates": [ 14.20019, 37.9061 ] } },
{ "type": "Feature", "properties": { "latitude": "37.89574", "longitude": "14.22533", "alert__date": "2019-10-13", "alert__time_utc": "1205", "confidence__cat": "n", "frp__MW": "2.700000047683716" }, "geometry": { "type": "Point", "coordinates": [ 14.22533, 37.89574 ] } },
{ "type": "Feature", "properties": { "latitude": "37.93975", "longitude": "14.18033", "alert__date": "2019-06-12", "alert__time_utc": "50", "confidence__cat": "n", "frp__MW": "1.7999999523162842" }, "geometry": { "type": "Point", "coordinates": [ 14.18033, 37.93975 ] } },
{ "type": "Feature", "properties": { "latitude": "37.90295", "longitude": "14.19904", "alert__date": "2021-03-01", "alert__time_utc": "112", "confidence__cat": "n", "frp__MW": "0.699999988079071" }, "geometry": { "type": "Point", "coordinates": [ 14.19904, 37.90295 ] } },
{ "type": "Feature", "properties": { "latitude": "37.90355", "longitude": "14.20564", "alert__date": "2024-01-03", "alert__time_utc": "1134", "confidence__cat": "n", "frp__MW": "8.970000267028809" }, "geometry": { "type": "Point", "coordinates": [ 14.20564, 37.90355 ] } },
{ "type": "Feature", "properties": { "latitude": "37.90688", "longitude": "14.24782", "alert__date": "2020-10-11", "alert__time_utc": "1136", "confidence__cat": "n", "frp__MW": "11.100000381469727" }, "geometry": { "type": "Point", "coordinates": [ 14.24782, 37.90688 ] } },
{ "type": "Feature", "properties": { "latitude": "37.91487", "longitude": "14.22317", "alert__date": "2020-10-21", "alert__time_utc": "1148", "confidence__cat": "n", "frp__MW": "2.5999999046325684" }, "geometry": { "type": "Point", "coordinates": [ 14.22317, 37.91487 ] } },
{ "type": "Feature", "properties": { "latitude": "37.9152", "longitude": "14.22677", "alert__date": "2020-10-21", "alert__time_utc": "1148", "confidence__cat": "n", "frp__MW": "2.4000000953674316" }, "geometry": { "type": "Point", "coordinates": [ 14.22677, 37.9152 ] } },
{ "type": "Feature", "properties": { "latitude": "37.87976", "longitude": "14.26152", "alert__date": "2021-08-05", "alert__time_utc": "33", "confidence__cat": "n", "frp__MW": "2.619999885559082" }, "geometry": { "type": "Point", "coordinates": [ 14.26152, 37.87976 ] } },
{ "type": "Feature", "properties": { "latitude": "37.88301", "longitude": "14.26867", "alert__date": "2021-08-05", "alert__time_utc": "33", "confidence__cat": "n", "frp__MW": "2.6600000858306885" }, "geometry": { "type": "Point", "coordinates": [ 14.26867, 37.88301 ] } },
{ "type": "Feature", "properties": { "latitude": "37.88375", "longitude": "14.26178", "alert__date": "2021-08-05", "alert__time_utc": "33", "confidence__cat": "n", "frp__MW": "2.6600000858306885" }, "geometry": { "type": "Point", "coordinates": [ 14.26178, 37.88375 ] } },
{ "type": "Feature", "properties": { "latitude": "37.88699", "longitude": "14.26897", "alert__date": "2021-08-05", "alert__time_utc": "33", "confidence__cat": "n", "frp__MW": "2.6600000858306885" }, "geometry": { "type": "Point", "coordinates": [ 14.26897, 37.88699 ] } },
{ "type": "Feature", "properties": { "latitude": "37.88774", "longitude": "14.26195", "alert__date": "2021-08-05", "alert__time_utc": "33", "confidence__cat": "n", "frp__MW": "2.6600000858306885" }, "geometry": { "type": "Point", "coordinates": [ 14.26195, 37.88774 ] } },
{ "type": "Feature", "properties": { "latitude": "37.89175", "longitude": "14.26211", "alert__date": "2021-08-05", "alert__time_utc": "33", "confidence__cat": "n", "frp__MW": "4.409999847412109" }, "geometry": { "type": "Point", "coordinates": [ 14.26211, 37.89175 ] } },
{ "type": "Feature", "properties": { "latitude": "37.87715", "longitude": "14.2102", "alert__date": "2021-08-05", "alert__time_utc": "33", "confidence__cat": "n", "frp__MW": "43.709999084472656" }, "geometry": { "type": "Point", "coordinates": [ 14.2102, 37.87715 ] } },
{ "type": "Feature", "properties": { "latitude": "37.88125", "longitude": "14.24752", "alert__date": "2021-08-05", "alert__time_utc": "33", "confidence__cat": "n", "frp__MW": "5.849999904632568" }, "geometry": { "type": "Point", "coordinates": [ 14.24752, 37.88125 ] } },
{ "type": "Feature", "properties": { "latitude": "37.88447", "longitude": "14.25505", "alert__date": "2021-08-05", "alert__time_utc": "33", "confidence__cat": "n", "frp__MW": "6.599999904632568" }, "geometry": { "type": "Point", "coordinates": [ 14.25505, 37.88447 ] } },
{ "type": "Feature", "properties": { "latitude": "37.88519", "longitude": "14.24819", "alert__date": "2021-08-05", "alert__time_utc": "33", "confidence__cat": "n", "frp__MW": "6.599999904632568" }, "geometry": { "type": "Point", "coordinates": [ 14.24819, 37.88519 ] } },
{ "type": "Feature", "properties": { "latitude": "37.87957", "longitude": "14.22537", "alert__date": "2021-08-05", "alert__time_utc": "33", "confidence__cat": "n", "frp__MW": "6.360000133514404" }, "geometry": { "type": "Point", "coordinates": [ 14.22537, 37.87957 ] } },
{ "type": "Feature", "properties": { "latitude": "37.88035", "longitude": "14.218", "alert__date": "2021-08-05", "alert__time_utc": "33", "confidence__cat": "n", "frp__MW": "6.360000133514404" }, "geometry": { "type": "Point", "coordinates": [ 14.218, 37.88035 ] } },
{ "type": "Feature", "properties": { "latitude": "37.88354", "longitude": "14.22591", "alert__date": "2021-08-05", "alert__time_utc": "33", "confidence__cat": "n", "frp__MW": "6.360000133514404" }, "geometry": { "type": "Point", "coordinates": [ 14.22591, 37.88354 ] } },
{ "type": "Feature", "properties": { "latitude": "37.88431", "longitude": "14.21866", "alert__date": "2021-08-05", "alert__time_utc": "33", "confidence__cat": "n", "frp__MW": "6.360000133514404" }, "geometry": { "type": "Point", "coordinates": [ 14.21866, 37.88431 ] } },
{ "type": "Feature", "properties": { "latitude": "37.88751", "longitude": "14.22639", "alert__date": "2021-08-05", "alert__time_utc": "33", "confidence__cat": "n", "frp__MW": "13.029999732971191" }, "geometry": { "type": "Point", "coordinates": [ 14.22639, 37.88751 ] } },
{ "type": "Feature", "properties": { "latitude": "37.88826", "longitude": "14.21937", "alert__date": "2021-08-05", "alert__time_utc": "33", "confidence__cat": "n", "frp__MW": "13.029999732971191" }, "geometry": { "type": "Point", "coordinates": [ 14.21937, 37.88826 ] } },
{ "type": "Feature", "properties": { "latitude": "37.88844", "longitude": "14.25548", "alert__date": "2021-08-05", "alert__time_utc": "33", "confidence__cat": "n", "frp__MW": "6.599999904632568" }, "geometry": { "type": "Point", "coordinates": [ 14.25548, 37.88844 ] } },
{ "type": "Feature", "properties": { "latitude": "37.88916", "longitude": "14.24874", "alert__date": "2021-08-05", "alert__time_utc": "33", "confidence__cat": "n", "frp__MW": "6.599999904632568" }, "geometry": { "type": "Point", "coordinates": [ 14.24874, 37.88916 ] } },
{ "type": "Feature", "properties": { "latitude": "37.88991", "longitude": "14.24167", "alert__date": "2021-08-05", "alert__time_utc": "33", "confidence__cat": "n", "frp__MW": "3.1500000953674316" }, "geometry": { "type": "Point", "coordinates": [ 14.24167, 37.88991 ] } },
{ "type": "Feature", "properties": { "latitude": "37.89242", "longitude": "14.25582", "alert__date": "2021-08-05", "alert__time_utc": "33", "confidence__cat": "n", "frp__MW": "5.449999809265137" }, "geometry": { "type": "Point", "coordinates": [ 14.25582, 37.89242 ] } },
{ "type": "Feature", "properties": { "latitude": "37.89312", "longitude": "14.24918", "alert__date": "2021-08-05", "alert__time_utc": "33", "confidence__cat": "n", "frp__MW": "5.449999809265137" }, "geometry": { "type": "Point", "coordinates": [ 14.24918, 37.89312 ] } },
{ "type": "Feature", "properties": { "latitude": "37.89388", "longitude": "14.24217", "alert__date": "2021-08-05", "alert__time_utc": "33", "confidence__cat": "n", "frp__MW": "2.990000009536743" }, "geometry": { "type": "Point", "coordinates": [ 14.24217, 37.89388 ] } },
{ "type": "Feature", "properties": { "latitude": "37.89463", "longitude": "14.23508", "alert__date": "2021-08-05", "alert__time_utc": "33", "confidence__cat": "n", "frp__MW": "2.990000009536743" }, "geometry": { "type": "Point", "coordinates": [ 14.23508, 37.89463 ] } },
{ "type": "Feature", "properties": { "latitude": "37.89708", "longitude": "14.24979", "alert__date": "2021-08-05", "alert__time_utc": "33", "confidence__cat": "n", "frp__MW": "5.449999809265137" }, "geometry": { "type": "Point", "coordinates": [ 14.24979, 37.89708 ] } },
{ "type": "Feature", "properties": { "latitude": "37.8978", "longitude": "14.24304", "alert__date": "2021-08-05", "alert__time_utc": "33", "confidence__cat": "n", "frp__MW": "2.990000009536743" }, "geometry": { "type": "Point", "coordinates": [ 14.24304, 37.8978 ] } },
{ "type": "Feature", "properties": { "latitude": "37.89854", "longitude": "14.23614", "alert__date": "2021-08-05", "alert__time_utc": "33", "confidence__cat": "n", "frp__MW": "2.990000009536743" }, "geometry": { "type": "Point", "coordinates": [ 14.23614, 37.89854 ] } },
{ "type": "Feature", "properties": { "latitude": "37.9043", "longitude": "14.25742", "alert__date": "2021-08-05", "alert__time_utc": "33", "confidence__cat": "n", "frp__MW": "5.289999961853027" }, "geometry": { "type": "Point", "coordinates": [ 14.25742, 37.9043 ] } },
{ "type": "Feature", "properties": { "latitude": "37.90821", "longitude": "14.25836", "alert__date": "2021-08-05", "alert__time_utc": "33", "confidence__cat": "n", "frp__MW": "29.520000457763672" }, "geometry": { "type": "Point", "coordinates": [ 14.25836, 37.90821 ] } },
{ "type": "Feature", "properties": { "latitude": "37.90924", "longitude": "14.27428", "alert__date": "2021-08-08", "alert__time_utc": "115", "confidence__cat": "n", "frp__MW": "14.229999542236328" }, "geometry": { "type": "Point", "coordinates": [ 14.27428, 37.90924 ] } },
{ "type": "Feature", "properties": { "latitude": "37.91056", "longitude": "14.2678", "alert__date": "2021-08-08", "alert__time_utc": "115", "confidence__cat": "n", "frp__MW": "6.050000190734863" }, "geometry": { "type": "Point", "coordinates": [ 14.2678, 37.91056 ] } },
{ "type": "Feature", "properties": { "latitude": "37.91214", "longitude": "14.25923", "alert__date": "2021-08-05", "alert__time_utc": "33", "confidence__cat": "n", "frp__MW": "29.520000457763672" }, "geometry": { "type": "Point", "coordinates": [ 14.25923, 37.91214 ] } },
{ "type": "Feature", "properties": { "latitude": "37.91293", "longitude": "14.27569", "alert__date": "2021-08-08", "alert__time_utc": "115", "confidence__cat": "h", "frp__MW": "14.229999542236328" }, "geometry": { "type": "Point", "coordinates": [ 14.27569, 37.91293 ] } },
{ "type": "Feature", "properties": { "latitude": "37.91426", "longitude": "14.26913", "alert__date": "2021-08-08", "alert__time_utc": "115", "confidence__cat": "n", "frp__MW": "6.050000190734863" }, "geometry": { "type": "Point", "coordinates": [ 14.26913, 37.91426 ] } },
{ "type": "Feature", "properties": { "latitude": "37.89068", "longitude": "14.23442", "alert__date": "2021-08-05", "alert__time_utc": "33", "confidence__cat": "n", "frp__MW": "3.1500000953674316" }, "geometry": { "type": "Point", "coordinates": [ 14.23442, 37.89068 ] } },
{ "type": "Feature", "properties": { "latitude": "37.89786", "longitude": "14.21517", "alert__date": "2021-08-07", "alert__time_utc": "1255", "confidence__cat": "n", "frp__MW": "12.649999618530273" }, "geometry": { "type": "Point", "coordinates": [ 14.21517, 37.89786 ] } },
{ "type": "Feature", "properties": { "latitude": "37.89807", "longitude": "14.22127", "alert__date": "2021-08-07", "alert__time_utc": "1255", "confidence__cat": "h", "frp__MW": "26.0" }, "geometry": { "type": "Point", "coordinates": [ 14.22127, 37.89807 ] } },
{ "type": "Feature", "properties": { "latitude": "37.89834", "longitude": "14.2167", "alert__date": "2021-08-07", "alert__time_utc": "1255", "confidence__cat": "h", "frp__MW": "13.460000038146973" }, "geometry": { "type": "Point", "coordinates": [ 14.2167, 37.89834 ] } },
{ "type": "Feature", "properties": { "latitude": "37.89858", "longitude": "14.22262", "alert__date": "2021-08-07", "alert__time_utc": "1255", "confidence__cat": "h", "frp__MW": "13.460000038146973" }, "geometry": { "type": "Point", "coordinates": [ 14.22262, 37.89858 ] } },
{ "type": "Feature", "properties": { "latitude": "37.90134", "longitude": "14.21861", "alert__date": "2021-08-07", "alert__time_utc": "1117", "confidence__cat": "h", "frp__MW": "6.340000152587891" }, "geometry": { "type": "Point", "coordinates": [ 14.21861, 37.90134 ] } },
{ "type": "Feature", "properties": { "latitude": "37.90181", "longitude": "14.22109", "alert__date": "2021-08-07", "alert__time_utc": "1117", "confidence__cat": "n", "frp__MW": "4.869999885559082" }, "geometry": { "type": "Point", "coordinates": [ 14.22109, 37.90181 ] } },
{ "type": "Feature", "properties": { "latitude": "37.90316", "longitude": "14.23054", "alert__date": "2021-08-05", "alert__time_utc": "33", "confidence__cat": "n", "frp__MW": "23.170000076293945" }, "geometry": { "type": "Point", "coordinates": [ 14.23054, 37.90316 ] } },
{ "type": "Feature", "properties": { "latitude": "37.89501", "longitude": "14.26914", "alert__date": "2021-08-05", "alert__time_utc": "33", "confidence__cat": "n", "frp__MW": "4.409999847412109" }, "geometry": { "type": "Point", "coordinates": [ 14.26914, 37.89501 ] } },
{ "type": "Feature", "properties": { "latitude": "37.89574", "longitude": "14.26231", "alert__date": "2021-08-05", "alert__time_utc": "33", "confidence__cat": "n", "frp__MW": "4.409999847412109" }, "geometry": { "type": "Point", "coordinates": [ 14.26231, 37.89574 ] } },
{ "type": "Feature", "properties": { "latitude": "37.89639", "longitude": "14.2562", "alert__date": "2021-08-05", "alert__time_utc": "33", "confidence__cat": "n", "frp__MW": "5.449999809265137" }, "geometry": { "type": "Point", "coordinates": [ 14.2562, 37.89639 ] } },
{ "type": "Feature", "properties": { "latitude": "37.89902", "longitude": "14.26914", "alert__date": "2021-08-05", "alert__time_utc": "33", "confidence__cat": "n", "frp__MW": "9.40999984741211" }, "geometry": { "type": "Point", "coordinates": [ 14.26914, 37.89902 ] } },
{ "type": "Feature", "properties": { "latitude": "37.89971", "longitude": "14.26271", "alert__date": "2021-08-05", "alert__time_utc": "33", "confidence__cat": "n", "frp__MW": "9.40999984741211" }, "geometry": { "type": "Point", "coordinates": [ 14.26271, 37.89971 ] } },
{ "type": "Feature", "properties": { "latitude": "37.90035", "longitude": "14.25679", "alert__date": "2021-08-05", "alert__time_utc": "33", "confidence__cat": "n", "frp__MW": "5.289999961853027" }, "geometry": { "type": "Point", "coordinates": [ 14.25679, 37.90035 ] } },
{ "type": "Feature", "properties": { "latitude": "37.90304", "longitude": "14.26912", "alert__date": "2021-08-05", "alert__time_utc": "33", "confidence__cat": "n", "frp__MW": "9.40999984741211" }, "geometry": { "type": "Point", "coordinates": [ 14.26912, 37.90304 ] } },
{ "type": "Feature", "properties": { "latitude": "37.901", "longitude": "14.25068", "alert__date": "2021-08-05", "alert__time_utc": "33", "confidence__cat": "n", "frp__MW": "5.289999961853027" }, "geometry": { "type": "Point", "coordinates": [ 14.25068, 37.901 ] } },
{ "type": "Feature", "properties": { "latitude": "37.9017", "longitude": "14.24423", "alert__date": "2021-08-05", "alert__time_utc": "33", "confidence__cat": "n", "frp__MW": "23.649999618530273" }, "geometry": { "type": "Point", "coordinates": [ 14.24423, 37.9017 ] } },
{ "type": "Feature", "properties": { "latitude": "37.90243", "longitude": "14.23743", "alert__date": "2021-08-05", "alert__time_utc": "33", "confidence__cat": "n", "frp__MW": "23.649999618530273" }, "geometry": { "type": "Point", "coordinates": [ 14.23743, 37.90243 ] } },
{ "type": "Feature", "properties": { "latitude": "37.90493", "longitude": "14.25157", "alert__date": "2021-08-05", "alert__time_utc": "33", "confidence__cat": "n", "frp__MW": "5.289999961853027" }, "geometry": { "type": "Point", "coordinates": [ 14.25157, 37.90493 ] } },
{ "type": "Feature", "properties": { "latitude": "37.90559", "longitude": "14.24543", "alert__date": "2021-08-05", "alert__time_utc": "33", "confidence__cat": "n", "frp__MW": "23.649999618530273" }, "geometry": { "type": "Point", "coordinates": [ 14.24543, 37.90559 ] } },
{ "type": "Feature", "properties": { "latitude": "37.90631", "longitude": "14.23874", "alert__date": "2021-08-05", "alert__time_utc": "33", "confidence__cat": "n", "frp__MW": "23.649999618530273" }, "geometry": { "type": "Point", "coordinates": [ 14.23874, 37.90631 ] } },
{ "type": "Feature", "properties": { "latitude": "37.90883", "longitude": "14.25267", "alert__date": "2021-08-05", "alert__time_utc": "33", "confidence__cat": "n", "frp__MW": "29.520000457763672" }, "geometry": { "type": "Point", "coordinates": [ 14.25267, 37.90883 ] } },
{ "type": "Feature", "properties": { "latitude": "37.90946", "longitude": "14.24674", "alert__date": "2021-08-05", "alert__time_utc": "33", "confidence__cat": "n", "frp__MW": "14.930000305175781" }, "geometry": { "type": "Point", "coordinates": [ 14.24674, 37.90946 ] } },
{ "type": "Feature", "properties": { "latitude": "37.91018", "longitude": "14.24008", "alert__date": "2021-08-05", "alert__time_utc": "33", "confidence__cat": "n", "frp__MW": "14.930000305175781" }, "geometry": { "type": "Point", "coordinates": [ 14.24008, 37.91018 ] } },
{ "type": "Feature", "properties": { "latitude": "37.91275", "longitude": "14.25355", "alert__date": "2021-08-05", "alert__time_utc": "33", "confidence__cat": "n", "frp__MW": "29.520000457763672" }, "geometry": { "type": "Point", "coordinates": [ 14.25355, 37.91275 ] } },
{ "type": "Feature", "properties": { "latitude": "37.90705", "longitude": "14.23179", "alert__date": "2021-08-05", "alert__time_utc": "33", "confidence__cat": "n", "frp__MW": "23.170000076293945" }, "geometry": { "type": "Point", "coordinates": [ 14.23179, 37.90705 ] } },
{ "type": "Feature", "properties": { "latitude": "37.91094", "longitude": "14.23308", "alert__date": "2021-08-05", "alert__time_utc": "33", "confidence__cat": "n", "frp__MW": "21.079999923706055" }, "geometry": { "type": "Point", "coordinates": [ 14.23308, 37.91094 ] } },
{ "type": "Feature", "properties": { "latitude": "37.91484", "longitude": "14.2342", "alert__date": "2021-08-05", "alert__time_utc": "33", "confidence__cat": "n", "frp__MW": "21.079999923706055" }, "geometry": { "type": "Point", "coordinates": [ 14.2342, 37.91484 ] } },
{ "type": "Feature", "properties": { "latitude": "37.91339", "longitude": "14.24762", "alert__date": "2021-08-05", "alert__time_utc": "33", "confidence__cat": "n", "frp__MW": "14.930000305175781" }, "geometry": { "type": "Point", "coordinates": [ 14.24762, 37.91339 ] } },
{ "type": "Feature", "properties": { "latitude": "37.9141", "longitude": "14.24107", "alert__date": "2021-08-05", "alert__time_utc": "33", "confidence__cat": "n", "frp__MW": "14.930000305175781" }, "geometry": { "type": "Point", "coordinates": [ 14.24107, 37.9141 ] } },
{ "type": "Feature", "properties": { "latitude": "37.91738", "longitude": "14.24789", "alert__date": "2021-08-05", "alert__time_utc": "33", "confidence__cat": "n", "frp__MW": "2.799999952316284" }, "geometry": { "type": "Point", "coordinates": [ 14.24789, 37.91738 ] } },
{ "type": "Feature", "properties": { "latitude": "37.91947", "longitude": "14.16262", "alert__date": "2021-07-03", "alert__time_utc": "48", "confidence__cat": "n", "frp__MW": "4.800000190734863" }, "geometry": { "type": "Point", "coordinates": [ 14.16262, 37.91947 ] } },
{ "type": "Feature", "properties": { "latitude": "37.98916", "longitude": "14.20413", "alert__date": "2023-09-22", "alert__time_utc": "43", "confidence__cat": "n", "frp__MW": "6.699999809265137" }, "geometry": { "type": "Point", "coordinates": [ 14.20413, 37.98916 ] } },
{ "type": "Feature", "properties": { "latitude": "37.99049", "longitude": "14.20408", "alert__date": "2023-09-22", "alert__time_utc": "1206", "confidence__cat": "l", "frp__MW": "1.8799999952316284" }, "geometry": { "type": "Point", "coordinates": [ 14.20408, 37.99049 ] } }
]
}
