{
"type": "FeatureCollection",
"name": "san_mauro_boundary",
"crs": { "type": "name", "properties": { "name": "urn:ogc:def:crs:OGC:1.3:CRS84" } },
"features": [
{ "type": "Feature", "properties": { "COD_RIP": 5, "COD_REG": 19, "COD_PROV": 82, "COD_CM": 282, "COD_UTS": 282, "PRO_COM": "82065", "PRO_COM_T": "082065", "COMUNE": "San Mauro Castelverde", "COMUNE_A": null, "CC_UTS": 0, "Shape_Leng": 63980.148936899997, "Shape_Area": 114365242.33400001 }, "geometry": { "type": "Polygon", "coordinates": [ [ [ 14.211317838818209, 37.973806825215512 ], [ 14.211379580797578, 37.973353893086369 ], [ 14.2115196599995, 37.973023518538795 ], [ 14.21181834483273, 37.972834682575353 ], [ 14.212332272999401, 37.97261376806081 ], [ 14.212675720837076, 37.972454436523073 ], [ 14.213110593005451, 37.972241530824348 ], [ 14.21362515176474, 37.972119623347325 ], [ 14.213820741374638, 37.972054225098347 ], [ 14.21387857184054, 37.972034887815866 ], [ 14.214184155222094, 37.971932709415796 ], [ 14.21447330913205, 37.971825705170872 ], [ 14.214515955723652, 37.971809922848742 ], [ 14.214905358992937, 37.971657558635144 ], [ 14.215362416259708, 37.971506667504869 ], [ 14.215853883557106, 37.971259722344051 ], [ 14.216380349559389, 37.970975205357831 ], [ 14.216792281048638, 37.970749808892322 ], [ 14.217192992217919, 37.970556404573387 ], [ 14.217505207836673, 37.970177873269108 ], [ 14.217746196177467, 37.969937561435636 ], [ 14.217909765823263, 37.969588136678944 ], [ 14.218008674252735, 37.969305666393019 ], [ 14.218085888488101, 37.969085104377463 ], [ 14.218259553549998, 37.968847767293212 ], [ 14.218421277357631, 37.968552452456933 ], [ 14.218663096526821, 37.96829410513012 ], [ 14.218738205757637, 37.96824366658408 ], [ 14.218985682808757, 37.968072166418146 ], [ 14.219144148408962, 37.967971066939761 ], [ 14.219613969241248, 37.967770099900513 ], [ 14.220115191653825, 37.967671254358429 ], [ 14.220210187923401, 37.967638774090275 ], [ 14.220362951455598, 37.967586542024812 ], [ 14.22059181650086, 37.967508289319298 ], [ 14.220676978947399, 37.967479156340502 ], [ 14.221087208425429, 37.967335377073212 ], [ 14.221679840239302, 37.96723247464989 ], [ 14.22221773834335, 37.96701944900272 ], [ 14.222619143119847, 37.966686445888179 ], [ 14.223367880374857, 37.965829260412711 ], [ 14.223319161215397, 37.965133636448918 ], [ 14.223255719769185, 37.964676137312807 ], [ 14.223249507893971, 37.964631340773416 ], [ 14.223244830871479, 37.964597616320852 ], [ 14.223160327369211, 37.963988226731807 ], [ 14.223209212063118, 37.963876377445438 ], [ 14.223381051887992, 37.963483201054409 ], [ 14.223624755926608, 37.963161714800322 ], [ 14.223704868957597, 37.963102299678511 ], [ 14.224128459059949, 37.962788138786166 ], [ 14.224736486502655, 37.962432428700225 ], [ 14.22489841108554, 37.96236918019315 ], [ 14.224928292089132, 37.962357508509243 ], [ 14.225078160670554, 37.962298969964912 ], [ 14.225399661376681, 37.962173389462563 ], [ 14.225764170678435, 37.962031009038711 ], [ 14.225916532828229, 37.961723270687571 ], [ 14.225928268881354, 37.961699566694357 ], [ 14.225965511887809, 37.961632092542914 ], [ 14.226124015928161, 37.961344934092843 ], [ 14.22620595693053, 37.961196480100526 ], [ 14.226246381027432, 37.961025738140556 ], [ 14.226277910794391, 37.960892570021443 ], [ 14.226370829814298, 37.960712399878311 ], [ 14.226521202409435, 37.960421633446202 ], [ 14.226645773086513, 37.960209485110028 ], [ 14.226731577689778, 37.960063355438038 ], [ 14.226782475658295, 37.95997667445301 ], [ 14.226868650089411, 37.95982991505872 ], [ 14.22725825542881, 37.959520621590997 ], [ 14.227385339458174, 37.959419734045511 ], [ 14.227694977643463, 37.959176326617097 ], [ 14.227963300767319, 37.959011741113066 ], [ 14.228154007082026, 37.958894764952689 ], [ 14.228387504664028, 37.958626756935459 ], [ 14.228408635193949, 37.95860308785177 ], [ 14.228480874147245, 37.958545870878304 ], [ 14.228526701568509, 37.95850957356555 ], [ 14.22872975482564, 37.958348743386139 ], [ 14.22890086587887, 37.958213215504372 ], [ 14.229234055784501, 37.957901246791131 ], [ 14.229705279467455, 37.957461569414775 ], [ 14.230039600731079, 37.957185561537237 ], [ 14.230463601042754, 37.95676148408085 ], [ 14.230061927533811, 37.956330771327664 ], [ 14.229923475405501, 37.956182309338502 ], [ 14.229597283651893, 37.955845150491129 ], [ 14.229518460053599, 37.955763677128175 ], [ 14.229045931818764, 37.955285043815152 ], [ 14.228801302307554, 37.954643163777327 ], [ 14.228754666181064, 37.954550411468567 ], [ 14.228721016893729, 37.954483488512032 ], [ 14.228632277210419, 37.954306998090885 ], [ 14.228538957257697, 37.954121399074779 ], [ 14.22843379156653, 37.953912238185936 ], [ 14.228403780307243, 37.953866989018842 ], [ 14.228293156854194, 37.953700201793438 ], [ 14.228230011887725, 37.953604994861777 ], [ 14.228190547146257, 37.953545493397428 ], [ 14.228019070378648, 37.953286953263472 ], [ 14.227995893737948, 37.95324679270459 ], [ 14.227950011136715, 37.953167285250224 ], [ 14.227873260595283, 37.953034286724623 ], [ 14.227694869908946, 37.952725160105402 ], [ 14.227664250755929, 37.952615243659245 ], [ 14.227541274553401, 37.95217378035484 ], [ 14.227309208985053, 37.951814561333336 ], [ 14.227253616467642, 37.951753265981552 ], [ 14.226877882836419, 37.951338977719914 ], [ 14.2264294656439, 37.950891771960706 ], [ 14.226381046285061, 37.950835392334788 ], [ 14.226409579248234, 37.950797994441544 ], [ 14.22654431295024, 37.950665042502543 ], [ 14.22709325050443, 37.950379482139773 ], [ 14.227146496839003, 37.950342770331922 ], [ 14.227574928950039, 37.950047386108984 ], [ 14.227877109885691, 37.949805609875447 ], [ 14.228045642390974, 37.949670766771291 ], [ 14.228152065454593, 37.949612504224085 ], [ 14.228663316358674, 37.949332607531858 ], [ 14.229179666522498, 37.949048489152787 ], [ 14.229536043791136, 37.948865654330277 ], [ 14.229580713752545, 37.948842735793477 ], [ 14.229785086018005, 37.948737884511594 ], [ 14.230178131630563, 37.948623487235139 ], [ 14.230333016577244, 37.94857840677885 ], [ 14.230554416298721, 37.948574009529487 ], [ 14.230697071702057, 37.948571176672466 ], [ 14.231119164471639, 37.948610885028472 ], [ 14.231618722676952, 37.948660636247105 ], [ 14.231792353908997, 37.948667966422228 ], [ 14.231958338456783, 37.948674974639012 ], [ 14.232085594203491, 37.948680347643119 ], [ 14.232721440332504, 37.948737513207938 ], [ 14.233165991442645, 37.948713186861617 ], [ 14.233711663468078, 37.948751872965978 ], [ 14.234064727672216, 37.948700109966282 ], [ 14.23461318643017, 37.948608116271423 ], [ 14.23540010454405, 37.948451450911932 ], [ 14.236129352372354, 37.948283855562451 ], [ 14.236527926474889, 37.948221104450397 ], [ 14.236688057983313, 37.948195893249867 ], [ 14.236906410814466, 37.948001567376195 ], [ 14.237455583220152, 37.947679936077819 ], [ 14.23749365744685, 37.947652113842921 ], [ 14.237823036104187, 37.947411426386537 ], [ 14.238406204314808, 37.947088274108552 ], [ 14.239116537136265, 37.946828252192262 ], [ 14.239218586961469, 37.946790895538129 ], [ 14.239846318748064, 37.946515255440744 ], [ 14.240328551224778, 37.946192083495873 ], [ 14.240785521435635, 37.945933083292346 ], [ 14.241484253732642, 37.945586738780719 ], [ 14.242022172225351, 37.945247574126228 ], [ 14.242053088580068, 37.945196516444838 ], [ 14.242277134844926, 37.944826511082454 ], [ 14.242420593441324, 37.944244882937049 ], [ 14.24243075399732, 37.944203687866278 ], [ 14.242388531549416, 37.943916668113303 ], [ 14.242453650153964, 37.943224984755417 ], [ 14.242558536113876, 37.942981690780833 ], [ 14.242835036736558, 37.942613692407413 ], [ 14.243239944061642, 37.942090404067542 ], [ 14.243333175784437, 37.941686566635461 ], [ 14.243452919866641, 37.941073465834315 ], [ 14.243525833647825, 37.940767684960143 ], [ 14.24353568585186, 37.940699692222765 ], [ 14.243598578851056, 37.940265628864161 ], [ 14.243705100079826, 37.939806186219236 ], [ 14.243845439452208, 37.939462267454736 ], [ 14.244054329052572, 37.939043260320716 ], [ 14.244240624577088, 37.938755832385361 ], [ 14.244375416248873, 37.93867913036987 ], [ 14.244584092542031, 37.938560400734261 ], [ 14.244913951376029, 37.938433101854663 ], [ 14.244956600245111, 37.938413836256608 ], [ 14.245245758991034, 37.938283218193732 ], [ 14.245690489055086, 37.938069264961072 ], [ 14.245875030102109, 37.937980484407525 ], [ 14.24667744346022, 37.937345857377245 ], [ 14.246811523336666, 37.937240169050369 ], [ 14.247252630340018, 37.936892468517094 ], [ 14.247731760999265, 37.936686461286797 ], [ 14.24841720117184, 37.936394700809977 ], [ 14.248990496789878, 37.936316108633761 ], [ 14.249039685275548, 37.936309364984048 ], [ 14.249489549470015, 37.936247691470477 ], [ 14.249807319228571, 37.936233474854703 ], [ 14.250012961568761, 37.936224273316654 ], [ 14.250719629833027, 37.936120609294285 ], [ 14.251836684806428, 37.935863541446622 ], [ 14.252488523478544, 37.935560189982077 ], [ 14.25255298452873, 37.935530191594943 ], [ 14.252585431708592, 37.935515090402141 ], [ 14.252671512021456, 37.935475030433338 ], [ 14.253152279033952, 37.935142875342443 ], [ 14.25344106646784, 37.934729293506685 ], [ 14.253640225194481, 37.934274693648184 ], [ 14.253859724119845, 37.933895708115429 ], [ 14.254024828073803, 37.933312081263495 ], [ 14.25404186213939, 37.932834123274574 ], [ 14.254021635938114, 37.932461388978581 ], [ 14.253963788975216, 37.931753525283732 ], [ 14.253958006739683, 37.931682765541034 ], [ 14.253952438054537, 37.931614615418063 ], [ 14.253920818475347, 37.931227895204145 ], [ 14.253905066231862, 37.931117463072283 ], [ 14.253771522940314, 37.930181150624236 ], [ 14.253780780060627, 37.929325383634982 ], [ 14.253537715908511, 37.928557455524448 ], [ 14.253250674814373, 37.927800494660062 ], [ 14.253213546406691, 37.927340503472017 ], [ 14.253210133979849, 37.927281779087032 ], [ 14.253205622672652, 37.927242335846167 ], [ 14.253200737417167, 37.927181815422728 ], [ 14.253189484624313, 37.927042420212352 ], [ 14.253243432418127, 37.926175654094841 ], [ 14.253171832472363, 37.925391049694973 ], [ 14.253152129057392, 37.925287960312126 ], [ 14.253144792522736, 37.925249571816103 ], [ 14.253125744416447, 37.925141534357444 ], [ 14.253009739633395, 37.924542953622556 ], [ 14.252979476656991, 37.924346183124349 ], [ 14.252927639593342, 37.9240091386879 ], [ 14.252882528177958, 37.923715809671592 ], [ 14.252617341110245, 37.922836315191155 ], [ 14.252577283762689, 37.922731965882015 ], [ 14.252296245037776, 37.921999832644609 ], [ 14.252189595566438, 37.921311336746875 ], [ 14.252112693985019, 37.920950118429495 ], [ 14.252049748556011, 37.920426229046384 ], [ 14.252043963675694, 37.920335182925641 ], [ 14.252020657205806, 37.919968350705233 ], [ 14.25202367423341, 37.91966208259835 ], [ 14.25208821541263, 37.919358418329182 ], [ 14.252107715619617, 37.919266666496895 ], [ 14.252156898820738, 37.918783189972281 ], [ 14.252219741903527, 37.918257732676402 ], [ 14.252227113519638, 37.918223354268363 ], [ 14.252316230378176, 37.917807750567896 ], [ 14.252499962403691, 37.917565418973759 ], [ 14.252726236295622, 37.917222163663098 ], [ 14.252748597220911, 37.917195623765252 ], [ 14.252927293037418, 37.9169835741273 ], [ 14.253692322213599, 37.916625198962116 ], [ 14.25463863432134, 37.916488291882374 ], [ 14.254881187593979, 37.916417863885094 ], [ 14.255335255081095, 37.916286017986131 ], [ 14.25598526018981, 37.916018319671274 ], [ 14.256759489277247, 37.915988141377483 ], [ 14.257450133959628, 37.916389369631084 ], [ 14.257720027261472, 37.916597868661533 ], [ 14.258247837369634, 37.916250092454518 ], [ 14.258297142775538, 37.916219874598347 ], [ 14.258556799658324, 37.916060686718019 ], [ 14.258898816102088, 37.915946323347406 ], [ 14.259354097822969, 37.915876391858653 ], [ 14.26003697708887, 37.91589981403304 ], [ 14.26057441770698, 37.915928128123916 ], [ 14.260775636192825, 37.915938729300635 ], [ 14.261480307821106, 37.915979162700125 ], [ 14.262253865112305, 37.9160390186141 ], [ 14.262958914743679, 37.916124455327584 ], [ 14.263685381525006, 37.916330460733363 ], [ 14.264285125503839, 37.916492637328176 ], [ 14.264897325692752, 37.916739792354228 ], [ 14.265361923846809, 37.916989048386398 ], [ 14.266250027842659, 37.917204668926345 ], [ 14.266300950847015, 37.917217031002245 ], [ 14.267449784853, 37.917498597713241 ], [ 14.267915295931129, 37.917631657503399 ], [ 14.268722901181487, 37.917630524417916 ], [ 14.270085206080989, 37.917956507189615 ], [ 14.270847337335367, 37.917886267908891 ], [ 14.27164844037399, 37.917934823980509 ], [ 14.271686692396354, 37.917922909042602 ], [ 14.271931927442969, 37.917863380094758 ], [ 14.272339264401587, 37.917760721898112 ], [ 14.273364197626464, 37.917759698530759 ], [ 14.274443571112023, 37.917864237986606 ], [ 14.27500711697043, 37.918356862364611 ], [ 14.275119515157449, 37.918455113468411 ], [ 14.276207815804662, 37.918892378758933 ], [ 14.276750553293336, 37.919210116439835 ], [ 14.277503693769347, 37.91896465769856 ], [ 14.277610102250529, 37.918913159703095 ], [ 14.2779959322863, 37.918726429431125 ], [ 14.278544029912686, 37.918494703815604 ], [ 14.279193256270466, 37.918424968504169 ], [ 14.279983603938234, 37.91839644568126 ], [ 14.280206408880181, 37.918388403681824 ], [ 14.280306607444775, 37.918398421794166 ], [ 14.281137942772011, 37.918481535844322 ], [ 14.281284527037178, 37.918477571873659 ], [ 14.281889447588913, 37.918461210877901 ], [ 14.281979648575712, 37.918454625549948 ], [ 14.282560895826384, 37.918412186065041 ], [ 14.283021127521955, 37.918378579674965 ], [ 14.283078889669691, 37.918374362286642 ], [ 14.283175517888305, 37.918367306623033 ], [ 14.28326109894768, 37.91836630345464 ], [ 14.283303941116367, 37.918365800872614 ], [ 14.284257157756985, 37.918354618924582 ], [ 14.285190287436754, 37.918272085239877 ], [ 14.286248813428106, 37.918224406518668 ], [ 14.287231073203968, 37.91836576094115 ], [ 14.287341095721748, 37.918367866377899 ], [ 14.287683254808931, 37.918374418759583 ], [ 14.287723189328052, 37.918376555769079 ], [ 14.287765183342751, 37.918375987121486 ], [ 14.288056522692907, 37.918381565345619 ], [ 14.288933006341335, 37.918351064179951 ], [ 14.288992576541794, 37.918350285490682 ], [ 14.290058534943942, 37.918336342823523 ], [ 14.291025279613745, 37.918405293925773 ], [ 14.291288300831358, 37.918465065719765 ], [ 14.291934440684949, 37.918611899182295 ], [ 14.292001066864763, 37.918469357093983 ], [ 14.292061258260441, 37.918340582623827 ], [ 14.292166599589034, 37.918007208433337 ], [ 14.292306874427705, 37.917685756956203 ], [ 14.292269480001531, 37.917452727006413 ], [ 14.29226353824455, 37.917415700299372 ], [ 14.29222151881385, 37.917342184776565 ], [ 14.29214736556443, 37.91721576187151 ], [ 14.291781553715596, 37.916879694330483 ], [ 14.291605410479461, 37.91671787330656 ], [ 14.291554155293136, 37.916670784429101 ], [ 14.291443852961747, 37.916511411794431 ], [ 14.291217879114443, 37.916184904056827 ], [ 14.291172663804089, 37.916119572403154 ], [ 14.291117368269772, 37.916039676317823 ], [ 14.290958059986135, 37.915809805936362 ], [ 14.290668780893956, 37.91549430293562 ], [ 14.290542762685682, 37.915356861112485 ], [ 14.290463620190113, 37.915251186501585 ], [ 14.290330256660523, 37.915073111897563 ], [ 14.290249481942082, 37.914965257101926 ], [ 14.289981801250608, 37.914607831127661 ], [ 14.289709393739523, 37.914183200377764 ], [ 14.289678670072817, 37.914135308506786 ], [ 14.289510568117402, 37.913947948373142 ], [ 14.289432371162279, 37.913860793072658 ], [ 14.289127417323112, 37.913520901958407 ], [ 14.28903976705752, 37.913447895697125 ], [ 14.288896882343577, 37.913328886992289 ], [ 14.288742872757663, 37.913200610531902 ], [ 14.288247448310232, 37.912750245634648 ], [ 14.287920151300463, 37.912494895083597 ], [ 14.287535818619325, 37.912147557383449 ], [ 14.287217906436478, 37.911892070897679 ], [ 14.286825037995932, 37.911576340617664 ], [ 14.286123474323446, 37.911202795182184 ], [ 14.285683426722402, 37.910830946844683 ], [ 14.28541404864553, 37.910516125074473 ], [ 14.285357037621436, 37.910449497092543 ], [ 14.285238940174938, 37.910002137209375 ], [ 14.285126338656644, 37.9096000456383 ], [ 14.284741006564495, 37.909446335926354 ], [ 14.284635091344548, 37.909412015036551 ], [ 14.28433130145544, 37.909313570775737 ], [ 14.284239522412745, 37.909282737583688 ], [ 14.284158242846402, 37.909238519500818 ], [ 14.284120235060685, 37.909234497251177 ], [ 14.284089039471215, 37.909221880450545 ], [ 14.283732285607648, 37.909077591295834 ], [ 14.28339499537134, 37.908980323171875 ], [ 14.283165166213367, 37.908914045714141 ], [ 14.282533769615272, 37.908786449027453 ], [ 14.282381773967399, 37.908755733411262 ], [ 14.282129399976371, 37.908735653263818 ], [ 14.281767468037458, 37.908706857184832 ], [ 14.281041233118296, 37.90862248708185 ], [ 14.280507183789334, 37.908484453818033 ], [ 14.27988503213918, 37.908147789880346 ], [ 14.279503798039196, 37.907575213418625 ], [ 14.279268593170906, 37.907167129834484 ], [ 14.278999326710327, 37.906868612388749 ], [ 14.278398701673936, 37.906594015142439 ], [ 14.277730337978529, 37.906421767304543 ], [ 14.276923457857427, 37.906205676863344 ], [ 14.2764591425435, 37.905969950700673 ], [ 14.276198190176467, 37.90579802647278 ], [ 14.276030541374967, 37.905687588106609 ], [ 14.275624233458849, 37.905408740705226 ], [ 14.275116167987694, 37.905008411502322 ], [ 14.27494807159472, 37.904846337643718 ], [ 14.274821724458061, 37.90472451531484 ], [ 14.274620568505124, 37.904454455792148 ], [ 14.27452272983693, 37.904237022444391 ], [ 14.274573268707245, 37.90400018447064 ], [ 14.274674743506372, 37.903524652091278 ], [ 14.275025456211027, 37.902590518789445 ], [ 14.275112423503796, 37.901870830668393 ], [ 14.275154937637122, 37.900986560248192 ], [ 14.275126503221664, 37.90042060810881 ], [ 14.275131877913868, 37.900341064186208 ], [ 14.275167669557346, 37.899825790940028 ], [ 14.275181115504639, 37.899756063797305 ], [ 14.275273879013636, 37.899275040552709 ], [ 14.275288465786099, 37.898923245243516 ], [ 14.275351153914297, 37.89842973866169 ], [ 14.275376364070148, 37.898077463189232 ], [ 14.275496113641825, 37.897518348397881 ], [ 14.275600588675504, 37.897212040297141 ], [ 14.275765513700065, 37.896718436642296 ], [ 14.275942695204138, 37.895999175340158 ], [ 14.275915531604666, 37.895839479455105 ], [ 14.275888740796065, 37.895681973598272 ], [ 14.27576935974972, 37.895214664878438 ], [ 14.275590019437754, 37.894871584855338 ], [ 14.275310558206895, 37.894379940319389 ], [ 14.275019569778543, 37.893866316497075 ], [ 14.274841965007713, 37.893478127141016 ], [ 14.274629215298601, 37.893105034821573 ], [ 14.274451104180867, 37.892689874540508 ], [ 14.274273206337696, 37.892199836231846 ], [ 14.274164244280167, 37.891905944851871 ], [ 14.274031299098516, 37.891457240676615 ], [ 14.27400359621298, 37.89132128942645 ], [ 14.273966758452453, 37.891140513312209 ], [ 14.273946717362698, 37.890830782126258 ], [ 14.273983833365428, 37.8905950284109 ], [ 14.274053539499789, 37.890348791455786 ], [ 14.274075889883326, 37.890301303165202 ], [ 14.274239698053053, 37.889953273532981 ], [ 14.274395812457733, 37.889756506014542 ], [ 14.274676729556848, 37.889402434967451 ], [ 14.274930535026686, 37.889089398500921 ], [ 14.27510347579666, 37.888856537365832 ], [ 14.275226035408567, 37.88864804048098 ], [ 14.275242095545535, 37.888620721052298 ], [ 14.275349792881894, 37.888161202009734 ], [ 14.275109306057916, 37.887765495162739 ], [ 14.275091460441836, 37.887736131261079 ], [ 14.274946366033253, 37.887552018795986 ], [ 14.274848485386823, 37.887427812547038 ], [ 14.27475567323944, 37.887310040259536 ], [ 14.274703346224012, 37.887287934017856 ], [ 14.274505274108778, 37.887204257581246 ], [ 14.274448880508817, 37.887160573903166 ], [ 14.274411613621986, 37.887131707069074 ], [ 14.274161818285583, 37.88693538901228 ], [ 14.274076816413315, 37.886872368514069 ], [ 14.273956737652625, 37.886814585668454 ], [ 14.273794441172161, 37.886736489159773 ], [ 14.273285548548891, 37.886421726911486 ], [ 14.273106439248759, 37.886317867071732 ], [ 14.272922254296134, 37.886211063842971 ], [ 14.272889250174892, 37.886191924348068 ], [ 14.272770214332118, 37.886058079941073 ], [ 14.272688886033986, 37.885966632656768 ], [ 14.272608215060941, 37.885875922897512 ], [ 14.272462459564474, 37.885684374498915 ], [ 14.272253021787693, 37.885263820047065 ], [ 14.272227823943503, 37.88521322118077 ], [ 14.272120374922215, 37.884623820237785 ], [ 14.271941248834283, 37.884303220204067 ], [ 14.271763818836186, 37.883847512070204 ], [ 14.271736837226145, 37.883463353252985 ], [ 14.271723474433593, 37.883273093582588 ], [ 14.271761889076579, 37.882906728926713 ], [ 14.271676479760334, 37.88239735980293 ], [ 14.27163670957365, 37.882293837024875 ], [ 14.271509866309138, 37.88196366281575 ], [ 14.271298418458425, 37.881518477728058 ], [ 14.271198382258078, 37.881221338534438 ], [ 14.270895585338071, 37.880789255258073 ], [ 14.270672821431058, 37.880245541897835 ], [ 14.270531139836512, 37.879743196259589 ], [ 14.270410644434135, 37.879199389917908 ], [ 14.270347832611723, 37.878747529659158 ], [ 14.270248441727238, 37.878360321890788 ], [ 14.270037861754329, 37.877847570125837 ], [ 14.269969080401733, 37.877777086910299 ], [ 14.269654867909294, 37.877455095044461 ], [ 14.26927132663466, 37.877134685184146 ], [ 14.26898962615784, 37.876818702439842 ], [ 14.268697383350087, 37.8764941748815 ], [ 14.268371492152212, 37.876126146207497 ], [ 14.26817020711878, 37.875842563660932 ], [ 14.268150404527908, 37.875632394251966 ], [ 14.268091664411656, 37.874958860731006 ], [ 14.268253082151313, 37.874299227616312 ], [ 14.268363471867112, 37.873889580030003 ], [ 14.268442190272566, 37.873597456114162 ], [ 14.268705294042352, 37.873365057864468 ], [ 14.268760485767269, 37.873263162339981 ], [ 14.269030177197196, 37.872765248171447 ], [ 14.2695815007247, 37.872155273371305 ], [ 14.26962848645649, 37.872059086797108 ], [ 14.269815215255866, 37.871676821332947 ], [ 14.269849054820547, 37.871607543418101 ], [ 14.270229142931649, 37.871144801768189 ], [ 14.270674996749614, 37.870926709449961 ], [ 14.27118766419197, 37.870710115778024 ], [ 14.271606460541189, 37.870613044920987 ], [ 14.271645055012089, 37.870589120625773 ], [ 14.272320716802607, 37.870006465624961 ], [ 14.27240374270238, 37.869943678475153 ], [ 14.272687776253401, 37.869728878695902 ], [ 14.273043223978648, 37.869388787440762 ], [ 14.273367816765127, 37.868824991226674 ], [ 14.273368194890555, 37.868785262674706 ], [ 14.27337090189841, 37.868500725189413 ], [ 14.273348802891261, 37.8683110120283 ], [ 14.273344424507041, 37.868273429302121 ], [ 14.273328644916269, 37.868137966599456 ], [ 14.273672901101767, 37.867780378958493 ], [ 14.273992962506069, 37.86754091316196 ], [ 14.274124286871979, 37.867044304373671 ], [ 14.274253100429071, 37.866552327212339 ], [ 14.27428294182876, 37.866466604333546 ], [ 14.274293161589734, 37.866437247078601 ], [ 14.274440959450637, 37.866012686314427 ], [ 14.274535313399189, 37.865634791958904 ], [ 14.274617718565192, 37.86529796523579 ], [ 14.274581557892024, 37.864592264733091 ], [ 14.274579975125878, 37.864561366840469 ], [ 14.274550459766932, 37.864462847578942 ], [ 14.274497417621564, 37.864285793737793 ], [ 14.274414956780166, 37.864010545748357 ], [ 14.274271217789833, 37.863548809589204 ], [ 14.274141100530784, 37.862969425375397 ], [ 14.273997289463292, 37.862516708264543 ], [ 14.27385446690953, 37.862077444813707 ], [ 14.273734609815355, 37.861542609324864 ], [ 14.273600676147556, 37.861267495412385 ], [ 14.27356597543093, 37.861200941238167 ], [ 14.27335687238938, 37.860686231980949 ], [ 14.27321183070679, 37.86035510308934 ], [ 14.273182832493353, 37.860279594227741 ], [ 14.273155295292073, 37.860207891319867 ], [ 14.273122715747293, 37.860123057013269 ], [ 14.273045273514718, 37.859921402535555 ], [ 14.273019522157945, 37.859770243939479 ], [ 14.272958508457801, 37.859412094414907 ], [ 14.272885704654064, 37.85914538165666 ], [ 14.272856344965726, 37.859037824151336 ], [ 14.27283832631063, 37.858971811683951 ], [ 14.272719673019568, 37.858491306458063 ], [ 14.272703903403748, 37.858427442983441 ], [ 14.272693783379291, 37.858386024060422 ], [ 14.272672914070581, 37.858298144500942 ], [ 14.272523186278372, 37.857663812016703 ], [ 14.272684818745486, 37.857344393090891 ], [ 14.272800348006818, 37.857118792607444 ], [ 14.272828423613882, 37.856617824523106 ], [ 14.27288880485891, 37.85610190740443 ], [ 14.27290683514782, 37.855953551877576 ], [ 14.27293886926285, 37.855689991275845 ], [ 14.272959889232588, 37.855263436634729 ], [ 14.272969321660822, 37.85509701688531 ], [ 14.273029887527828, 37.854722590428459 ], [ 14.273040902141885, 37.854654499837984 ], [ 14.273146555724978, 37.854186060775078 ], [ 14.273156308562445, 37.854134613402799 ], [ 14.273209062283948, 37.853856320561363 ], [ 14.2732429511895, 37.85367754341469 ], [ 14.273327945807713, 37.853447434468748 ], [ 14.273379617030619, 37.853307543277062 ], [ 14.273423892466043, 37.853086486599807 ], [ 14.273442038582273, 37.852992130737888 ], [ 14.273467130465482, 37.852861655346459 ], [ 14.273493975832038, 37.852539617470214 ], [ 14.273502745303118, 37.852434429025195 ], [ 14.27351949297079, 37.852233545124989 ], [ 14.273533575874074, 37.851904285936243 ], [ 14.273537725403768, 37.851485433464553 ], [ 14.27364425789575, 37.851039468338449 ], [ 14.273646661760496, 37.850980731187427 ], [ 14.273655644105482, 37.850761288323739 ], [ 14.273656860580644, 37.850731582807981 ], [ 14.273658472798052, 37.850692188678217 ], [ 14.273675341422067, 37.850610651973746 ], [ 14.273753426058454, 37.85023324522961 ], [ 14.273750150329763, 37.850185717021354 ], [ 14.27373362946202, 37.849946019622848 ], [ 14.273732690886158, 37.849877813965321 ], [ 14.27373200253837, 37.849827847506447 ], [ 14.273727184285903, 37.849478114696645 ], [ 14.273730403133571, 37.849377739490436 ], [ 14.273734753759197, 37.849242196444422 ], [ 14.273743676827158, 37.84896416846501 ], [ 14.273747321414653, 37.848567854146317 ], [ 14.27371647617422, 37.848195583551899 ], [ 14.273585453189714, 37.847692761336994 ], [ 14.273486167718529, 37.84744511915455 ], [ 14.273335242512937, 37.846990528032123 ], [ 14.272629273474582, 37.846997375836224 ], [ 14.272490262901016, 37.846998723929538 ], [ 14.272253834446442, 37.84698601879532 ], [ 14.271353871784282, 37.846928190366171 ], [ 14.271113149187974, 37.846905190883859 ], [ 14.270039198107789, 37.846802573341819 ], [ 14.269889973331447, 37.846788314149713 ], [ 14.269174464393693, 37.846719939037307 ], [ 14.269013816660253, 37.846704586815434 ], [ 14.267730441081028, 37.846766665303221 ], [ 14.266942760281351, 37.847352647558509 ], [ 14.266700081700506, 37.847533182274454 ], [ 14.265590087761311, 37.848124069154892 ], [ 14.265351827400034, 37.848250900431239 ], [ 14.264944158035975, 37.848341206959155 ], [ 14.263950392967958, 37.848561337140822 ], [ 14.263593523681333, 37.848691170520183 ], [ 14.263414177146256, 37.84875641895669 ], [ 14.263118547712002, 37.848732012322607 ], [ 14.262797587039, 37.848705515081882 ], [ 14.262142011149111, 37.84865138939265 ], [ 14.261846823957359, 37.848663658817955 ], [ 14.261466997515896, 37.84867944614281 ], [ 14.261246416352737, 37.848688614348831 ], [ 14.261067505915294, 37.848696049355006 ], [ 14.260755378198114, 37.848709020077493 ], [ 14.259475959134299, 37.849288538302396 ], [ 14.259216186916284, 37.849469676986054 ], [ 14.259038604088554, 37.84959350360932 ], [ 14.258969062372918, 37.849641994993 ], [ 14.258856585495245, 37.849720423326083 ], [ 14.258584601418701, 37.849910074076092 ], [ 14.258457483201951, 37.849998712459907 ], [ 14.258296179606972, 37.850111186436408 ], [ 14.256600897942066, 37.85035365377211 ], [ 14.255547091831289, 37.850300306518029 ], [ 14.255408475193407, 37.850293288338307 ], [ 14.254760510227335, 37.850260481556901 ], [ 14.254208322114561, 37.850422429574913 ], [ 14.253483065848563, 37.850635131492773 ], [ 14.253438326218896, 37.850648252673025 ], [ 14.252248428672745, 37.851439781689407 ], [ 14.251080205809473, 37.852306872698811 ], [ 14.249839169345472, 37.852736085468415 ], [ 14.24958525004048, 37.852823900841976 ], [ 14.248846597268262, 37.852843423824332 ], [ 14.248278116120657, 37.852775452483193 ], [ 14.247887130919672, 37.852728702868973 ], [ 14.246928146556691, 37.852614031623084 ], [ 14.246284933000929, 37.852665532859142 ], [ 14.245908466740703, 37.852695675529141 ], [ 14.245826654624453, 37.852702225994875 ], [ 14.245760917536463, 37.85270748744864 ], [ 14.245643824795296, 37.852716858188124 ], [ 14.245528885271888, 37.852726056993077 ], [ 14.244850668382819, 37.852342217718459 ], [ 14.244373063917777, 37.852446188226828 ], [ 14.244220262884673, 37.852479451031009 ], [ 14.24415819365524, 37.852496095112464 ], [ 14.244100783136219, 37.852505460447183 ], [ 14.244013868322092, 37.85252531729995 ], [ 14.24390575868166, 37.852571967720806 ], [ 14.243835993713926, 37.852602072001105 ], [ 14.243595414643812, 37.852705881751298 ], [ 14.243436523683322, 37.852774442883685 ], [ 14.243267977236787, 37.852588565041827 ], [ 14.243227963358549, 37.852544437854164 ], [ 14.243112927396931, 37.852417571704152 ], [ 14.242930474503774, 37.852216356851464 ], [ 14.241669490894944, 37.852146598918821 ], [ 14.240378571476597, 37.852816468313243 ], [ 14.239646655587194, 37.853353343072861 ], [ 14.238463437692317, 37.85359955082432 ], [ 14.238324819807062, 37.853628393529654 ], [ 14.237556704449331, 37.854175869054217 ], [ 14.237163848812139, 37.854850672719294 ], [ 14.236708334595939, 37.855034024083459 ], [ 14.236170193616291, 37.855250632112295 ], [ 14.235460998354053, 37.855678413430361 ], [ 14.23535013618182, 37.856597243217379 ], [ 14.235160689082401, 37.856821744884755 ], [ 14.235053879597329, 37.856950338818251 ], [ 14.235030468232498, 37.856976059287213 ], [ 14.235010542474889, 37.856999672330204 ], [ 14.234903078733453, 37.857127022170253 ], [ 14.234773818842644, 37.85728020131306 ], [ 14.233601844367763, 37.857417986088478 ], [ 14.233490459611103, 37.857420946267794 ], [ 14.233390266769543, 37.857423608316786 ], [ 14.233215640516324, 37.857428247829098 ], [ 14.232740132829473, 37.857440880809683 ], [ 14.232350960970409, 37.857451218832828 ], [ 14.231140200779802, 37.858063407786418 ], [ 14.23086882013587, 37.858195692984516 ], [ 14.230614737802783, 37.858319551973054 ], [ 14.230433719541592, 37.858407793470199 ], [ 14.230316926022811, 37.858464727292244 ], [ 14.231160723626866, 37.858850481517038 ], [ 14.231272193773023, 37.858901441756245 ], [ 14.231329350149833, 37.858927570714606 ], [ 14.231357822147526, 37.85894058679132 ], [ 14.231375495222867, 37.85896659567976 ], [ 14.231743500540551, 37.859508164340156 ], [ 14.2318393415785, 37.859651014597375 ], [ 14.231990218760997, 37.86040252028701 ], [ 14.23200035105436, 37.860523538370856 ], [ 14.232005504962794, 37.860585092895974 ], [ 14.2321013839563, 37.861730128682545 ], [ 14.232318998350413, 37.862697328288334 ], [ 14.232447367709684, 37.86328651674458 ], [ 14.232467459537279, 37.863378733411999 ], [ 14.232475992141719, 37.863417897913507 ], [ 14.232521588762962, 37.863627173725583 ], [ 14.232558941834691, 37.863798603801797 ], [ 14.232540995158732, 37.864019789872337 ], [ 14.232479392979707, 37.864779063260691 ], [ 14.232591147393501, 37.865051799253742 ], [ 14.232659496108646, 37.865218602068154 ], [ 14.232790986505233, 37.8655394966313 ], [ 14.233214968301569, 37.866014552902165 ], [ 14.233486532047316, 37.866318825519343 ], [ 14.233477655383199, 37.866649564575056 ], [ 14.233451449064811, 37.867625936856761 ], [ 14.233539743301113, 37.868009392758623 ], [ 14.233559187067266, 37.86809383443628 ], [ 14.233700644913085, 37.868236470822396 ], [ 14.233997397756145, 37.868535695251857 ], [ 14.234020955731163, 37.868559448757637 ], [ 14.234260328842309, 37.868995803892354 ], [ 14.2344114866872, 37.869271345116125 ], [ 14.234389643128875, 37.869427780419954 ], [ 14.234309022688679, 37.870005134805709 ], [ 14.234292981508181, 37.870120020877764 ], [ 14.234251438223584, 37.870417442599567 ], [ 14.233954706563489, 37.871628179603071 ], [ 14.23356054089693, 37.872366040562603 ], [ 14.23304934734665, 37.873035942678143 ], [ 14.232984416701285, 37.873121028901942 ], [ 14.232589928827887, 37.873894914853075 ], [ 14.232569161895558, 37.87392797049047 ], [ 14.232471799315856, 37.874082953352485 ], [ 14.232194406844082, 37.874524509299256 ], [ 14.232138936598295, 37.874612807447257 ], [ 14.231778709184056, 37.875333458094318 ], [ 14.231731552826178, 37.875427796308486 ], [ 14.231055932611449, 37.875921585756274 ], [ 14.230795797642184, 37.875917428362207 ], [ 14.230677055476209, 37.875915530964491 ], [ 14.230238050448119, 37.875908515147408 ], [ 14.228624778085392, 37.875786795958376 ], [ 14.227782093584818, 37.875805798389976 ], [ 14.227395868628845, 37.875814505825481 ], [ 14.226863860813667, 37.875865827492106 ], [ 14.226269142455966, 37.875923196811939 ], [ 14.225968699188542, 37.876382257609329 ], [ 14.225807764255654, 37.876669794153031 ], [ 14.225506145938144, 37.877208681081207 ], [ 14.225226285891017, 37.877491132283836 ], [ 14.224712853013934, 37.878009310338982 ], [ 14.223870779370486, 37.878498235008543 ], [ 14.223831142656671, 37.878521249514037 ], [ 14.223433081758751, 37.878518280577985 ], [ 14.222444756844805, 37.878510904234282 ], [ 14.221154115518447, 37.878197215411411 ], [ 14.221004288926066, 37.878160798597399 ], [ 14.220255747003446, 37.87794647581606 ], [ 14.219031730445005, 37.87760471755206 ], [ 14.218056670392304, 37.877443730281406 ], [ 14.217442022429385, 37.877342244797838 ], [ 14.216523220620854, 37.877215799774973 ], [ 14.215479367299702, 37.877195596506205 ], [ 14.214840177972807, 37.877183219975521 ], [ 14.214578548027248, 37.877142563272876 ], [ 14.21429330196306, 37.877098236806994 ], [ 14.213751035983305, 37.877013966508272 ], [ 14.213632592291118, 37.876995557831563 ], [ 14.213519387052401, 37.87697796176306 ], [ 14.213420881029867, 37.876962651725322 ], [ 14.212775980860236, 37.877036639484317 ], [ 14.212664998432745, 37.877049371594609 ], [ 14.212396928353828, 37.87708012472266 ], [ 14.211773898396785, 37.87705956499407 ], [ 14.211546362483856, 37.87705205468621 ], [ 14.211204213343771, 37.877040762429921 ], [ 14.211150414174513, 37.877038987872346 ], [ 14.210884683360566, 37.87703021650325 ], [ 14.209797160174041, 37.876906647677714 ], [ 14.209488546449561, 37.876871580317271 ], [ 14.208774761127307, 37.876748338889747 ], [ 14.207881708164349, 37.876604575653545 ], [ 14.207666589441446, 37.876568828042579 ], [ 14.207576258587416, 37.876553816684151 ], [ 14.207478532487716, 37.876537576491891 ], [ 14.20764508903031, 37.876036243257559 ], [ 14.207679859102758, 37.875931587493383 ], [ 14.207691059006388, 37.875897875341124 ], [ 14.207288139717173, 37.875126687230818 ], [ 14.206360947471174, 37.874736886987137 ], [ 14.206179178536589, 37.874800214054297 ], [ 14.206046473278713, 37.874846447642682 ], [ 14.205969459355783, 37.874873278966618 ], [ 14.205845361354051, 37.874916514147081 ], [ 14.205670322090814, 37.874977496367102 ], [ 14.205517100654756, 37.875030876923667 ], [ 14.205471661580031, 37.875050907452952 ], [ 14.205423791045856, 37.875071428432598 ], [ 14.205117085018868, 37.875228806837896 ], [ 14.204910710017318, 37.875332349335054 ], [ 14.204824852790592, 37.87529583871985 ], [ 14.204549848975432, 37.875180366811684 ], [ 14.204402660551192, 37.875116297148118 ], [ 14.204133880531121, 37.874862913689199 ], [ 14.204067839943489, 37.87480065531954 ], [ 14.203993370705179, 37.874730452687437 ], [ 14.203969810555282, 37.874705808805736 ], [ 14.203755510123779, 37.874377210338061 ], [ 14.203665692356331, 37.87423779489005 ], [ 14.203598873039928, 37.874115719945351 ], [ 14.203460950032014, 37.873863735513567 ], [ 14.20337074057737, 37.873698923621021 ], [ 14.20335347586316, 37.873676402840992 ], [ 14.203302032331658, 37.873609301252408 ], [ 14.203116607913179, 37.873367429555756 ], [ 14.203026367648306, 37.873249719988898 ], [ 14.202809889045579, 37.872953951579781 ], [ 14.202709637086892, 37.87283438848538 ], [ 14.202642461936518, 37.8727542725074 ], [ 14.202384903946694, 37.872495687268781 ], [ 14.202193111072681, 37.872830889664343 ], [ 14.202161481275164, 37.872886168731718 ], [ 14.201935135971416, 37.873281754882754 ], [ 14.201919815247736, 37.873308527925509 ], [ 14.20158534550705, 37.873426635609654 ], [ 14.201031205964439, 37.873622309010884 ], [ 14.200972239314842, 37.873643130623556 ], [ 14.200720287671659, 37.873738186993307 ], [ 14.200309750935949, 37.873893072269659 ], [ 14.199625020137074, 37.874180009205183 ], [ 14.19875940010796, 37.874319227237514 ], [ 14.198688782965675, 37.874333237101176 ], [ 14.198247781864138, 37.874420726434238 ], [ 14.198041127533436, 37.874461723546816 ], [ 14.197690053649289, 37.874565704399117 ], [ 14.197133717603707, 37.874730476306901 ], [ 14.196981734942206, 37.874775489341943 ], [ 14.196496474467933, 37.875052620087096 ], [ 14.196471605739346, 37.875142966871522 ], [ 14.196380717009717, 37.875602177180276 ], [ 14.196404031832621, 37.875703094149628 ], [ 14.19642275466961, 37.875784134674269 ], [ 14.196510441468211, 37.876163685354278 ], [ 14.196491454951751, 37.876231288076127 ], [ 14.196388378445786, 37.876598294610424 ], [ 14.196344002658709, 37.876756297742908 ], [ 14.196081791141347, 37.876917239250112 ], [ 14.196035800041582, 37.876945468911792 ], [ 14.196001455738179, 37.876922014644265 ], [ 14.195673720210618, 37.876698209470334 ], [ 14.195573506791973, 37.876629401660793 ], [ 14.195105041742655, 37.876292642577909 ], [ 14.195064746172084, 37.876263677122665 ], [ 14.194969822857592, 37.876262502784087 ], [ 14.194690026834266, 37.876259040157706 ], [ 14.194508518270663, 37.876256793697166 ], [ 14.194390531442934, 37.876288193600324 ], [ 14.19422800243647, 37.876331448500871 ], [ 14.193845919762381, 37.876433132620676 ], [ 14.193789443321156, 37.876448163571943 ], [ 14.193770718531264, 37.876470215996491 ], [ 14.193638080949057, 37.876807740993577 ], [ 14.1935909632604, 37.876927644594339 ], [ 14.193597046513736, 37.877269316509441 ], [ 14.193598893197551, 37.877372987275308 ], [ 14.193658816526609, 37.87770721098704 ], [ 14.193715809613741, 37.87802508885715 ], [ 14.193679309512728, 37.878156498963172 ], [ 14.193586673648491, 37.878490011544201 ], [ 14.193429131352953, 37.878614411737523 ], [ 14.193139080943645, 37.878838448144101 ], [ 14.192950936306088, 37.87889620714062 ], [ 14.192884827203597, 37.878916499790968 ], [ 14.192718862784128, 37.878967445529199 ], [ 14.192590746262413, 37.879006772257149 ], [ 14.192326009968291, 37.879046646791345 ], [ 14.192125619711797, 37.879076829423418 ], [ 14.191998339902902, 37.879096000086264 ], [ 14.191589250861584, 37.879114090383055 ], [ 14.191416461748741, 37.879128631476902 ], [ 14.191197190828463, 37.87914811062317 ], [ 14.191049682700202, 37.879160910281271 ], [ 14.190849120266584, 37.879178312740166 ], [ 14.190605975333749, 37.879162406413755 ], [ 14.190110069574105, 37.879129962051714 ], [ 14.190059290177459, 37.879120577310587 ], [ 14.189483825712971, 37.87901422848185 ], [ 14.189225474359187, 37.878966481694157 ], [ 14.188911861687412, 37.87895760039796 ], [ 14.188605114840902, 37.878948912749628 ], [ 14.188343170111658, 37.878942817548683 ], [ 14.188294016356446, 37.878942473099656 ], [ 14.18817791543022, 37.878943631096789 ], [ 14.1878984725523, 37.878952124717848 ], [ 14.187315858736588, 37.878969827877512 ], [ 14.187032046449396, 37.879094157631918 ], [ 14.186835810036799, 37.879180121781772 ], [ 14.186860954244207, 37.879210855278636 ], [ 14.18697738844129, 37.879353174682095 ], [ 14.1870285135643, 37.879415664402543 ], [ 14.187137956510913, 37.879549438901009 ], [ 14.187259432824355, 37.879690071178452 ], [ 14.187343332209144, 37.879787201494175 ], [ 14.18743012679006, 37.879887682053891 ], [ 14.187587490124427, 37.880226608240221 ], [ 14.18768616062337, 37.88043912060111 ], [ 14.187690762073174, 37.880672239712986 ], [ 14.187699788907397, 37.881129461034988 ], [ 14.187491512208833, 37.881581433875063 ], [ 14.18740907019775, 37.881752987893961 ], [ 14.187293137062296, 37.88200065099138 ], [ 14.187231318008291, 37.882043124961328 ], [ 14.186997867322113, 37.88220351919081 ], [ 14.186877956462473, 37.882284002741351 ], [ 14.18629656625369, 37.882151849373393 ], [ 14.186233480097908, 37.882137509739074 ], [ 14.186142058401206, 37.882091249334415 ], [ 14.185708887079254, 37.881872058994517 ], [ 14.185603937164077, 37.881812855515079 ], [ 14.185540061398298, 37.881729661882588 ], [ 14.184973046879861, 37.880991154142471 ], [ 14.184603095585906, 37.88072924286071 ], [ 14.184486754038927, 37.880646878006118 ], [ 14.184296713290323, 37.880512334427166 ], [ 14.184067326928002, 37.880583555260749 ], [ 14.183417860064742, 37.880785199122428 ], [ 14.18268126919725, 37.881578553633254 ], [ 14.182671604280742, 37.88170978112138 ], [ 14.182635797956625, 37.882195968645576 ], [ 14.182632094733011, 37.88224624918184 ], [ 14.18261440763672, 37.882486412512286 ], [ 14.182770450564043, 37.882690337019575 ], [ 14.182894314374915, 37.882852204360155 ], [ 14.182944116287862, 37.882942817916117 ], [ 14.183046094964588, 37.883128362864078 ], [ 14.183116560608832, 37.883256574100216 ], [ 14.18312331479131, 37.883575149152065 ], [ 14.183125142114669, 37.883661377925534 ], [ 14.183031491847066, 37.883938093484694 ], [ 14.182924070361668, 37.884255504464292 ], [ 14.182225114131571, 37.884799582559587 ], [ 14.182014440768146, 37.884836611306142 ], [ 14.181780585782557, 37.884877714306676 ], [ 14.181339640270586, 37.884601952987069 ], [ 14.181276752266237, 37.884561136542231 ], [ 14.181249410108006, 37.884545523783835 ], [ 14.181063718475535, 37.884348317071584 ], [ 14.180968595134461, 37.884247294335339 ], [ 14.180308059873097, 37.884312438171008 ], [ 14.179847309594335, 37.88454335930863 ], [ 14.179668212044193, 37.884632240279373 ], [ 14.179598836066299, 37.884667888318383 ], [ 14.179356197222761, 37.884857162837896 ], [ 14.179190620933529, 37.884986322925627 ], [ 14.17911564341339, 37.885044809725244 ], [ 14.179037109251034, 37.885106069938104 ], [ 14.178968772814082, 37.885159378118011 ], [ 14.178912804568284, 37.885561751334293 ], [ 14.178869221976679, 37.885875077014916 ], [ 14.178872620491214, 37.886013720058401 ], [ 14.178876936192252, 37.886189768449746 ], [ 14.178885981839578, 37.886558647505097 ], [ 14.178722699183485, 37.886733713582068 ], [ 14.178672931940349, 37.886787073196821 ], [ 14.178622428102154, 37.886841220719411 ], [ 14.178540790096926, 37.886928751668911 ], [ 14.178469974025601, 37.887004678076146 ], [ 14.178128621000148, 37.887167263286372 ], [ 14.177874090411509, 37.887284991566098 ], [ 14.177179962024814, 37.887421727782211 ], [ 14.176881310048515, 37.887535905421473 ], [ 14.176551202932979, 37.887662109326598 ], [ 14.176545514971975, 37.887718257870297 ], [ 14.176556210712823, 37.887842585314743 ], [ 14.176571885645279, 37.888024794223156 ], [ 14.176645060663873, 37.888086129909126 ], [ 14.176733878109683, 37.888160577119088 ], [ 14.176852534131855, 37.888260033478737 ], [ 14.177099477486173, 37.888342786374956 ], [ 14.177363030150406, 37.888431102743027 ], [ 14.177659522224255, 37.888576408903184 ], [ 14.177893980497199, 37.888691311120255 ], [ 14.177922102419078, 37.888756827311873 ], [ 14.177983113891617, 37.888898962007744 ], [ 14.17777667407471, 37.889124165768607 ], [ 14.177700989257145, 37.889166924202172 ], [ 14.177605279196294, 37.889220996900903 ], [ 14.177512269258541, 37.889273544018295 ], [ 14.177334803264225, 37.889373804727889 ], [ 14.177249399465587, 37.889422049045372 ], [ 14.176796159596664, 37.889678442520136 ], [ 14.176741644951036, 37.889709281047793 ], [ 14.176653870385532, 37.889758933271239 ], [ 14.176612247900325, 37.889841821734791 ], [ 14.176446197117833, 37.890172506123008 ], [ 14.176399553399644, 37.89026539337268 ], [ 14.176327901389655, 37.890408087739189 ], [ 14.176108989464264, 37.890676816632627 ], [ 14.175956841533269, 37.890863590540206 ], [ 14.175844788809385, 37.891001141825356 ], [ 14.175779172213085, 37.8909994931524 ], [ 14.175542755070042, 37.89099355227934 ], [ 14.175389506149862, 37.890989699842798 ], [ 14.175116477867101, 37.890681329346897 ], [ 14.174954095166466, 37.890497928495193 ], [ 14.174906131829326, 37.890443756017405 ], [ 14.174681235151013, 37.890264603255225 ], [ 14.174568478566904, 37.890255288502871 ], [ 14.174112684847342, 37.890217636142673 ], [ 14.174051576294596, 37.890280137642847 ], [ 14.173856141614806, 37.890480022209381 ], [ 14.173819333686335, 37.890517667634235 ], [ 14.173790704307393, 37.890546949846481 ], [ 14.173762067115774, 37.890741029193343 ], [ 14.173694084438766, 37.891201778316777 ], [ 14.173331398176092, 37.891547817992503 ], [ 14.173273705025812, 37.891539113465967 ], [ 14.172370021936064, 37.891402770021053 ], [ 14.172175142114996, 37.891373365486402 ], [ 14.17199611280059, 37.891346353389928 ], [ 14.171600169317863, 37.891292754741322 ], [ 14.171553769565737, 37.891288530168133 ], [ 14.171043066272622, 37.891221768048915 ], [ 14.170791014370009, 37.891322129682521 ], [ 14.170583798507058, 37.891404638348753 ], [ 14.170339545484033, 37.891501894012762 ], [ 14.170254909691426, 37.891535593196416 ], [ 14.169964778899416, 37.891762578968191 ], [ 14.169832381037894, 37.891866160823113 ], [ 14.169326963440374, 37.892261570101603 ], [ 14.169292514414147, 37.892288519780038 ], [ 14.1688816485765, 37.89260995198827 ], [ 14.168785354715773, 37.892685285752819 ], [ 14.168466449673682, 37.893097190103674 ], [ 14.168438927995016, 37.893132738645008 ], [ 14.168432283781343, 37.893226792809543 ], [ 14.168399974740801, 37.893684190935815 ], [ 14.168561773661564, 37.894019175453913 ], [ 14.168611579325782, 37.894119295374601 ], [ 14.168732489082666, 37.894362345251295 ], [ 14.168743212417658, 37.894563697464307 ], [ 14.168754440006172, 37.894774524918333 ], [ 14.168766873945621, 37.895007968689633 ], [ 14.168773208043657, 37.895126911211435 ], [ 14.168779612550534, 37.89524716521958 ], [ 14.168672275930154, 37.895467217097284 ], [ 14.168575805925586, 37.895664989002945 ], [ 14.168535000350406, 37.895748645712558 ], [ 14.168434329381535, 37.895846495706742 ], [ 14.168403905812545, 37.895887632971302 ], [ 14.16807482513634, 37.896196587808177 ], [ 14.167737537915654, 37.896169365749095 ], [ 14.167461303538822, 37.896147069940781 ], [ 14.167397180305384, 37.896144552278841 ], [ 14.167094553084954, 37.896132399788883 ], [ 14.166636435479917, 37.896114072927567 ], [ 14.166336273900749, 37.896102063857001 ], [ 14.166259663399069, 37.896131242780982 ], [ 14.165706313468869, 37.896341993497018 ], [ 14.165547772404908, 37.896402375496436 ], [ 14.165570600756656, 37.896504140359696 ], [ 14.165670605304163, 37.896949939840283 ], [ 14.165769006187784, 37.897388577722005 ], [ 14.16580778503188, 37.897561439696211 ], [ 14.165737341320932, 37.897606455172188 ], [ 14.165571941200476, 37.897712153891142 ], [ 14.165520259947222, 37.897745179522872 ], [ 14.165276002673711, 37.897765093449536 ], [ 14.164569725941721, 37.897822667984194 ], [ 14.164204274277017, 37.897852458601143 ], [ 14.164078000176616, 37.897877208379867 ], [ 14.163338454916145, 37.898024641619863 ], [ 14.163186500074859, 37.898054935584426 ], [ 14.163169264893774, 37.898078715183495 ], [ 14.162758446925745, 37.89864551798248 ], [ 14.162693958407235, 37.898968446198609 ], [ 14.162625693587698, 37.899295138486217 ], [ 14.1626278923914, 37.899334789247483 ], [ 14.16265281128487, 37.899783892947461 ], [ 14.162657994421302, 37.8998772953708 ], [ 14.162662578785655, 37.899981600114124 ], [ 14.162590088883015, 37.900236850130177 ], [ 14.16257595657623, 37.900316537984054 ], [ 14.162520695038813, 37.900528472660355 ], [ 14.162182188597683, 37.900704988115308 ], [ 14.162040181982864, 37.900778829847702 ], [ 14.161754961728805, 37.900927138549811 ], [ 14.161742756575169, 37.900954998921677 ], [ 14.161521674179221, 37.901459622322804 ], [ 14.161595194064255, 37.901782504570917 ], [ 14.161618096625979, 37.901883083003014 ], [ 14.161780675917031, 37.902073242493508 ], [ 14.162089203002745, 37.902434104124069 ], [ 14.162158403006263, 37.902466697217335 ], [ 14.162202532024487, 37.902487481901282 ], [ 14.16281482322303, 37.902775862030161 ], [ 14.163337943397753, 37.903103179674723 ], [ 14.163408725269878, 37.903147467092445 ], [ 14.163480357033789, 37.903192287035779 ], [ 14.163569563598502, 37.903389934696975 ], [ 14.163630649083709, 37.903538066218722 ], [ 14.16372685093088, 37.903753943537168 ], [ 14.163501007449771, 37.903910472085904 ], [ 14.163400836215867, 37.903981003176227 ], [ 14.163253647480182, 37.90408463834595 ], [ 14.163042567703124, 37.904091271039263 ], [ 14.163008200711054, 37.904095297471258 ], [ 14.162718077738397, 37.904101467818279 ], [ 14.162537354971692, 37.904107145318868 ], [ 14.162362608848618, 37.904125126643265 ], [ 14.162275201914706, 37.904134120948733 ], [ 14.162036416789006, 37.904158692557118 ], [ 14.161711085135284, 37.904192168408507 ], [ 14.161467653333538, 37.904217216012462 ], [ 14.161408827484571, 37.904220650801378 ], [ 14.161375081016347, 37.904222619958517 ], [ 14.160199665376217, 37.904290609785591 ], [ 14.160013717051179, 37.904294701490301 ], [ 14.159446407486421, 37.90430717833452 ], [ 14.158879097476092, 37.904319653341972 ], [ 14.158371901939429, 37.904330803910526 ], [ 14.158317226534775, 37.904366589125786 ], [ 14.158137228205632, 37.904484400579527 ], [ 14.157771032917474, 37.904724079471478 ], [ 14.15754609600944, 37.90487130180545 ], [ 14.157452229364933, 37.90496469951421 ], [ 14.157234824324211, 37.905181017089312 ], [ 14.157041253322115, 37.905373617654128 ], [ 14.156959109180995, 37.905455349357119 ], [ 14.156765147763057, 37.905616943149042 ], [ 14.156415828365112, 37.906083357201624 ], [ 14.156290989014963, 37.906250042713523 ], [ 14.156332162752918, 37.90763034557034 ], [ 14.156306765717551, 37.907673396748777 ], [ 14.156279258427832, 37.907718658377455 ], [ 14.156079879474367, 37.908058008881 ], [ 14.156007714954054, 37.908180340388938 ], [ 14.155920906394091, 37.908197270599032 ], [ 14.155743704882816, 37.908231830311927 ], [ 14.155471488743915, 37.908284919926572 ], [ 14.155179889958747, 37.908294733031966 ], [ 14.154604109063806, 37.908314107901724 ], [ 14.154192150040961, 37.908259298113272 ], [ 14.154046755238845, 37.908239412934833 ], [ 14.153822614561157, 37.908208757748248 ], [ 14.153762312740504, 37.90819418150393 ], [ 14.153000282873252, 37.908009979626748 ], [ 14.152963283245363, 37.908003502027242 ], [ 14.152587903378, 37.908025161340646 ], [ 14.152480784352116, 37.908031341883884 ], [ 14.152159336462439, 37.908049886911805 ], [ 14.151993328277641, 37.908059463959511 ], [ 14.151865522760286, 37.908181003666527 ], [ 14.151568934024262, 37.908463049967445 ], [ 14.151519946409575, 37.908517796355149 ], [ 14.151459537910815, 37.90883843747411 ], [ 14.151449429758944, 37.908892088011726 ], [ 14.151340507707742, 37.909470230170157 ], [ 14.151422100347673, 37.91020047844345 ], [ 14.151500495591314, 37.910805737203781 ], [ 14.151527048947424, 37.911010745481718 ], [ 14.151563063857823, 37.911075921101244 ], [ 14.15180594438586, 37.911515461568996 ], [ 14.152023304426898, 37.911908809678422 ], [ 14.152073530147653, 37.911999699190673 ], [ 14.152031815787197, 37.912030525102566 ], [ 14.151702582310739, 37.91227382069286 ], [ 14.151568328204201, 37.912373030459285 ], [ 14.151489200761974, 37.912397077595394 ], [ 14.151363492403975, 37.912435281295693 ], [ 14.151066147498184, 37.912525645978896 ], [ 14.150934230818374, 37.912586993851406 ], [ 14.15041393056096, 37.912827891781397 ], [ 14.149884101367565, 37.913022203333107 ], [ 14.149797349771459, 37.913054018538801 ], [ 14.149691261945472, 37.913056168078349 ], [ 14.1491352771267, 37.913067435313529 ], [ 14.149035010166587, 37.913069466665846 ], [ 14.148887537623542, 37.913014998880278 ], [ 14.14845753198469, 37.91285618137502 ], [ 14.14825666855352, 37.912778788239279 ], [ 14.14789109103247, 37.912637928621471 ], [ 14.147811189636123, 37.912609688958995 ], [ 14.147297368356103, 37.912428088879395 ], [ 14.147177174360507, 37.912385608215402 ], [ 14.146849739585745, 37.912399967182765 ], [ 14.146652616198454, 37.912408610632646 ], [ 14.146455652381778, 37.912741388892876 ], [ 14.146605258128238, 37.912998472840748 ], [ 14.146657473141302, 37.913088197136133 ], [ 14.14671152117271, 37.913211528059591 ], [ 14.146823946045705, 37.913468069282317 ], [ 14.14684064521353, 37.913527045006745 ], [ 14.146976468061636, 37.913943095900258 ], [ 14.146990098517433, 37.913977746533149 ], [ 14.147067368804434, 37.914174171653983 ], [ 14.147164195168545, 37.914420313338205 ], [ 14.147197571716472, 37.914505158452684 ], [ 14.147365748549181, 37.914861675730222 ], [ 14.14742020353656, 37.914977110718731 ], [ 14.147326540442766, 37.915155399750915 ], [ 14.147105490511242, 37.9155761691108 ], [ 14.146807311369443, 37.916073349762719 ], [ 14.146664580757484, 37.916311335112404 ], [ 14.146803323457712, 37.916418677746691 ], [ 14.146900878343263, 37.916494152811694 ], [ 14.147127457416433, 37.91667045132332 ], [ 14.147234122252188, 37.917118455473371 ], [ 14.147261883754195, 37.917235054793473 ], [ 14.147246726050133, 37.917509483602942 ], [ 14.147243134928361, 37.917574520089012 ], [ 14.147068066954354, 37.917828830366872 ], [ 14.146771236580937, 37.918027555377009 ], [ 14.146736674317347, 37.918040672712635 ], [ 14.146690030688527, 37.918070489356886 ], [ 14.14652109318912, 37.918050126634427 ], [ 14.146211520042328, 37.918010269203265 ], [ 14.146042092491887, 37.917956662524681 ], [ 14.145840195664666, 37.91789278279758 ], [ 14.145612132651722, 37.917820622552668 ], [ 14.145125579774568, 37.917607853594959 ], [ 14.144674115417111, 37.917490813153179 ], [ 14.144308706370367, 37.917396080532832 ], [ 14.144005720236704, 37.917485764925281 ], [ 14.143898179520493, 37.917517597457525 ], [ 14.143509249276603, 37.917705712675406 ], [ 14.143351228721782, 37.917922430375775 ], [ 14.143288832907299, 37.918008000589531 ], [ 14.143366937637161, 37.918147404736317 ], [ 14.143389349811187, 37.918187409303997 ], [ 14.143579346555574, 37.918526515696811 ], [ 14.143760375194388, 37.918621350686493 ], [ 14.143976227451116, 37.918734427700286 ], [ 14.144324798805636, 37.918917030086511 ], [ 14.144563419757867, 37.919004941003799 ], [ 14.144639626332777, 37.919033016030163 ], [ 14.144936893697571, 37.919139410725464 ], [ 14.145077173987373, 37.919152829175417 ], [ 14.145140459460954, 37.919158882587325 ], [ 14.145317565467026, 37.919175823261419 ], [ 14.145732248483833, 37.919215490395054 ], [ 14.146212652413206, 37.919168876715489 ], [ 14.146279325335097, 37.919162407549926 ], [ 14.146324838184375, 37.919157991662857 ], [ 14.146372541100082, 37.91914171407663 ], [ 14.146773444761969, 37.919004917045228 ], [ 14.146904291335808, 37.918960268071778 ], [ 14.146975756482153, 37.918935881815031 ], [ 14.147314011646712, 37.918993759705089 ], [ 14.147645900032758, 37.919050548111478 ], [ 14.147755846963097, 37.919383365035209 ], [ 14.147718043800392, 37.919558318500471 ], [ 14.147665660397527, 37.919800738897507 ], [ 14.147623262959955, 37.91999695261098 ], [ 14.147487101638347, 37.920180807385925 ], [ 14.147427423676602, 37.920261388416179 ], [ 14.147337422015895, 37.920382914606471 ], [ 14.147299331463792, 37.920434345319158 ], [ 14.147111384218888, 37.920516586965661 ], [ 14.146947274860011, 37.920588397999332 ], [ 14.146853366606091, 37.920629491408327 ], [ 14.146754338002561, 37.920658714977257 ], [ 14.146426408590409, 37.920755488362069 ], [ 14.146391978622976, 37.920763408969677 ], [ 14.146226220117633, 37.920814563903562 ], [ 14.145830521597091, 37.920872827901213 ], [ 14.145747379352525, 37.920885071112181 ], [ 14.145277707996829, 37.921055723189042 ], [ 14.145108689963244, 37.92126346391062 ], [ 14.144990285600777, 37.921408994085546 ], [ 14.145066929016062, 37.921715496011174 ], [ 14.145110549370923, 37.921889937223327 ], [ 14.145210576542542, 37.922001069440547 ], [ 14.145350859594423, 37.922155393334961 ], [ 14.145519165440806, 37.922343916022008 ], [ 14.14564289625914, 37.922481380191343 ], [ 14.145683593895303, 37.922526598200164 ], [ 14.146037949411223, 37.922782050884216 ], [ 14.146225197671166, 37.922917037334045 ], [ 14.146723603487956, 37.923318618907729 ], [ 14.146765718842602, 37.92335255253348 ], [ 14.146858193601258, 37.923531224551944 ], [ 14.146977609633963, 37.923761945397878 ], [ 14.146754203917123, 37.923892523377567 ], [ 14.146644539740151, 37.923956621615126 ], [ 14.145640158072142, 37.924243777794779 ], [ 14.145477076099823, 37.924398724540218 ], [ 14.145444681360697, 37.924429503535166 ], [ 14.145237786312901, 37.924626075259845 ], [ 14.145299738014929, 37.925136588428977 ], [ 14.145556882395159, 37.925553017593785 ], [ 14.146260193110866, 37.925832493073528 ], [ 14.146383356256289, 37.925881434861587 ], [ 14.146693753271007, 37.925901725783888 ], [ 14.14700633941734, 37.925922158477924 ], [ 14.147042812776672, 37.925924542334215 ], [ 14.147290144657498, 37.926251354926265 ], [ 14.147305378465804, 37.926378289185109 ], [ 14.147311248957266, 37.926416560223785 ], [ 14.147322714741509, 37.926522745933276 ], [ 14.147351418476768, 37.92676189626863 ], [ 14.146834563035974, 37.927275277699984 ], [ 14.146677361277606, 37.927319954543378 ], [ 14.146356205977034, 37.927411226215128 ], [ 14.146288761415333, 37.927430393728187 ], [ 14.146160235417698, 37.92746691983043 ], [ 14.14572042626927, 37.92743084953289 ], [ 14.145582493653738, 37.927419537182438 ], [ 14.145444969151914, 37.927408257197733 ], [ 14.144739773194397, 37.927331113483817 ], [ 14.144287819682962, 37.92708531082333 ], [ 14.143724614953204, 37.926610265640072 ], [ 14.143602472238898, 37.926495730029373 ], [ 14.14330724546112, 37.926218888342689 ], [ 14.143011342757331, 37.926254353173164 ], [ 14.14294987802527, 37.926352679226419 ], [ 14.142863813765857, 37.926490352458579 ], [ 14.142816882091026, 37.926571511873043 ], [ 14.142826363082557, 37.926766055137946 ], [ 14.142850878595555, 37.927034035279689 ], [ 14.142853811953332, 37.927061387272644 ], [ 14.143018584118817, 37.927568625411901 ], [ 14.143155123516218, 37.927911607744562 ], [ 14.143217635032737, 37.928068631720045 ], [ 14.143243809675289, 37.928098231866826 ], [ 14.143515001802299, 37.928404912963465 ], [ 14.143577888442245, 37.928476028324908 ], [ 14.143632758513901, 37.928531387553555 ], [ 14.144060405049366, 37.928962845647703 ], [ 14.144116729903804, 37.929019670659109 ], [ 14.144273060398252, 37.929403725966715 ], [ 14.144316581904659, 37.929510641834611 ], [ 14.144501653223596, 37.930186828342215 ], [ 14.144361089755488, 37.930544148927922 ], [ 14.144228671957393, 37.930484518700766 ], [ 14.144077958983909, 37.930416624000813 ], [ 14.143365964659859, 37.930070037497991 ], [ 14.143326752223562, 37.930067023444792 ], [ 14.143061301065858, 37.930046618216963 ], [ 14.142694491167795, 37.930018418272049 ], [ 14.143087053242235, 37.930415268447668 ], [ 14.143155489145295, 37.930484449837131 ], [ 14.143483377034617, 37.930672664237676 ], [ 14.143591044588854, 37.930734559608574 ], [ 14.144062223007769, 37.931005424712446 ], [ 14.144342026720722, 37.931166273760304 ], [ 14.144885148362565, 37.93147560590274 ], [ 14.145649496912183, 37.931999630370498 ], [ 14.145934394329963, 37.932194946622424 ], [ 14.145954729831141, 37.932218434425913 ], [ 14.146033844280504, 37.932309806360259 ], [ 14.146088542523286, 37.932372979277289 ], [ 14.146226229276555, 37.932532001089143 ], [ 14.146349832867518, 37.932781610995008 ], [ 14.146422935410531, 37.932929798271751 ], [ 14.146494700628422, 37.933075275381782 ], [ 14.146608406405983, 37.933285234597371 ], [ 14.146906712010786, 37.933836048610118 ], [ 14.146926001223468, 37.933896154022982 ], [ 14.146937220872056, 37.933931116461864 ], [ 14.147114729600357, 37.934484227461823 ], [ 14.147027596428979, 37.935199363132163 ], [ 14.1469573616712, 37.935532796389907 ], [ 14.146888418631514, 37.935860093405786 ], [ 14.146725131105113, 37.936635274860947 ], [ 14.146567109566032, 37.936856983272747 ], [ 14.146251468729313, 37.93729983353991 ], [ 14.145607826038077, 37.938094832632174 ], [ 14.145246178594615, 37.938397484385511 ], [ 14.145087323048836, 37.938529969077706 ], [ 14.145006995405618, 37.938596962575104 ], [ 14.144988632522779, 37.938635632580201 ], [ 14.144964562087942, 37.93868631936936 ], [ 14.144832324644039, 37.938964777169716 ], [ 14.145020489928838, 37.939420225860673 ], [ 14.144923911316232, 37.939483561236436 ], [ 14.144630496462657, 37.939675941406072 ], [ 14.144297559664432, 37.939965149299837 ], [ 14.144288225552881, 37.940019758648582 ], [ 14.144260163252666, 37.940183933277318 ], [ 14.144255823323707, 37.940209322395312 ], [ 14.144245569382011, 37.940269315996673 ], [ 14.144151796282445, 37.940817928812642 ], [ 14.143677822987847, 37.941356434581685 ], [ 14.143016938494927, 37.942100044838718 ], [ 14.142979018176348, 37.942187414116368 ], [ 14.142423570573797, 37.943319767996392 ], [ 14.142357905814663, 37.943453631871265 ], [ 14.142274366706458, 37.943623936146537 ], [ 14.142043075580359, 37.943985229694214 ], [ 14.141651855379543, 37.944506894691962 ], [ 14.14156210344969, 37.944626573245792 ], [ 14.141477529725096, 37.944739342907987 ], [ 14.141415906344015, 37.944835805380883 ], [ 14.141392960389856, 37.944871724166966 ], [ 14.141268381804219, 37.94506678370513 ], [ 14.141152123760353, 37.945248813407524 ], [ 14.140778989036738, 37.945296323975434 ], [ 14.140716651564295, 37.945306899296959 ], [ 14.140562150240603, 37.945323932386849 ], [ 14.140151160316366, 37.945350061381724 ], [ 14.139821593597365, 37.945370854130168 ], [ 14.13962582175567, 37.945383204410945 ], [ 14.139279569746575, 37.945493163038599 ], [ 14.139099561765169, 37.945550327934399 ], [ 14.139146691151474, 37.945835615774342 ], [ 14.139184477608035, 37.946064338337059 ], [ 14.139467502859652, 37.946271767248923 ], [ 14.139656716515018, 37.946410440449306 ], [ 14.13982786394163, 37.946535871745681 ], [ 14.140033465506923, 37.946697179536812 ], [ 14.140264682916989, 37.946878583011987 ], [ 14.140526507997027, 37.94712578247934 ], [ 14.140649097350897, 37.947242650915634 ], [ 14.140730449078129, 37.947320206765554 ], [ 14.14075517796946, 37.947340815195304 ], [ 14.140917559289926, 37.947476138953228 ], [ 14.141011854771689, 37.94755472123417 ], [ 14.141428454496005, 37.947901898183922 ], [ 14.141448721596225, 37.947922452538357 ], [ 14.141858346127888, 37.948337901832019 ], [ 14.141858856331996, 37.948384937621299 ], [ 14.141825013945516, 37.94855043752986 ], [ 14.141806354343419, 37.948641684295339 ], [ 14.141777055543438, 37.948671235628915 ], [ 14.141484375454704, 37.948966437966909 ], [ 14.141446726353442, 37.949011734117704 ], [ 14.141127098415479, 37.949396280088727 ], [ 14.141282005698855, 37.949953345277734 ], [ 14.14129035864576, 37.949983382551125 ], [ 14.141627056630409, 37.95019982607333 ], [ 14.141669511587361, 37.950227117443518 ], [ 14.141742759838282, 37.950274203793477 ], [ 14.142210196888682, 37.950408654521077 ], [ 14.142639191573224, 37.950532046449617 ], [ 14.142789371253654, 37.95056069924243 ], [ 14.142867165427731, 37.950575541825344 ], [ 14.143209478817447, 37.950640852770803 ], [ 14.143374121239463, 37.950672263607466 ], [ 14.143881332411182, 37.95081902121791 ], [ 14.143999645273672, 37.950853571439474 ], [ 14.144205208052451, 37.950913600295287 ], [ 14.144325986223528, 37.951011083361415 ], [ 14.144538498640681, 37.951182604450032 ], [ 14.144644328051735, 37.951268020686015 ], [ 14.14468554319979, 37.951445520221355 ], [ 14.14476332999868, 37.951780531149225 ], [ 14.144800998939441, 37.951890659020144 ], [ 14.14493931902058, 37.952295042950055 ], [ 14.144978698435606, 37.952333068416031 ], [ 14.145202632944256, 37.952549296839621 ], [ 14.14530058094398, 37.952643874803435 ], [ 14.145406774506858, 37.952688196731224 ], [ 14.145798393018413, 37.952851644047577 ], [ 14.146101659930725, 37.95333244494725 ], [ 14.146227326926956, 37.953531675520679 ], [ 14.146244274837271, 37.953558544132818 ], [ 14.146309314061556, 37.953636213291013 ], [ 14.146372144731563, 37.953710561325686 ], [ 14.146425403067418, 37.953773580642263 ], [ 14.146667304707233, 37.954059817064127 ], [ 14.146840357315245, 37.95426458315773 ], [ 14.147051415686878, 37.954482996838813 ], [ 14.147402896421026, 37.954838677746373 ], [ 14.147629164390679, 37.954725592366884 ], [ 14.147689257656172, 37.95469555834768 ], [ 14.148188146934894, 37.954588485091676 ], [ 14.148336090452437, 37.954556732842164 ], [ 14.148453876715729, 37.954531453101026 ], [ 14.149109824268125, 37.954794962286343 ], [ 14.149241058207057, 37.954971753552329 ], [ 14.149413612334888, 37.955205147881941 ], [ 14.149544851749345, 37.955618073991836 ], [ 14.149447223439662, 37.956023271446277 ], [ 14.149427964752014, 37.956103203957781 ], [ 14.149408941412894, 37.95619052748814 ], [ 14.149317111258574, 37.956618510930291 ], [ 14.149311725881054, 37.956644995057275 ], [ 14.14926381003713, 37.956880623118906 ], [ 14.149240939143231, 37.956993091891412 ], [ 14.149206919133183, 37.957160387747408 ], [ 14.14917701117119, 37.957307459163395 ], [ 14.149160073564707, 37.957390745546626 ], [ 14.149229280364217, 37.957551110700841 ], [ 14.14936028737158, 37.957854673699096 ], [ 14.149495004490419, 37.958082856347566 ], [ 14.149761870915627, 37.958534862383395 ], [ 14.14981993977036, 37.958834207621337 ], [ 14.149859724496359, 37.959039295749179 ], [ 14.150256130290801, 37.959455302398752 ], [ 14.150726542754324, 37.95977558509918 ], [ 14.151033898546117, 37.960420851044319 ], [ 14.151127376128326, 37.96061709749285 ], [ 14.151182354824302, 37.960732517244388 ], [ 14.151430764379596, 37.961053976965545 ], [ 14.151489135841011, 37.961129512636994 ], [ 14.151767245854291, 37.961489402436328 ], [ 14.151888957870637, 37.96164690107269 ], [ 14.151971126416054, 37.96172805093218 ], [ 14.152109251240189, 37.961864460508231 ], [ 14.152167537645212, 37.961922024721908 ], [ 14.152395236893252, 37.962146895598522 ], [ 14.152637004728335, 37.962351607518755 ], [ 14.152716747150057, 37.96241912675692 ], [ 14.152947005707047, 37.962614090522479 ], [ 14.153138066394659, 37.962774707880079 ], [ 14.153319582251566, 37.962907144546456 ], [ 14.153726653985677, 37.963204145689858 ], [ 14.153884794784705, 37.96331952535985 ], [ 14.153918587723979, 37.963340400661536 ], [ 14.154380328165525, 37.963625629116557 ], [ 14.154512967770831, 37.963707563445581 ], [ 14.154789755097626, 37.963878538028418 ], [ 14.15509344811082, 37.964049013117048 ], [ 14.155698634578723, 37.964397510108881 ], [ 14.155819639370039, 37.964466602945066 ], [ 14.156297988652998, 37.964835355189358 ], [ 14.156367106552111, 37.964888922314323 ], [ 14.156461504927465, 37.964962082202454 ], [ 14.156540886708115, 37.965174647196406 ], [ 14.156598511587561, 37.965328950570381 ], [ 14.156626916066742, 37.965405010876125 ], [ 14.156462215953857, 37.9657851407324 ], [ 14.156378190931058, 37.965979070360063 ], [ 14.156276943573856, 37.966212747994035 ], [ 14.155825739249584, 37.966210284428037 ], [ 14.15563908942733, 37.966209265769365 ], [ 14.155255524538452, 37.966188189351008 ], [ 14.154728569965998, 37.966159232239299 ], [ 14.154684804366463, 37.966158896931013 ], [ 14.153943375687613, 37.96615321650799 ], [ 14.153451562943298, 37.966417918673706 ], [ 14.153379488188463, 37.966677697568258 ], [ 14.153364699393602, 37.966821643162049 ], [ 14.153333714893073, 37.967123199477378 ], [ 14.153318232498433, 37.967273883558384 ], [ 14.153312047426938, 37.967334071845784 ], [ 14.153276797119291, 37.967677148660485 ], [ 14.153335700044593, 37.967741069821322 ], [ 14.153355672270665, 37.967791864121835 ], [ 14.153608280179244, 37.968156451395053 ], [ 14.153693798329844, 37.968246529613943 ], [ 14.154031782311511, 37.968602531097602 ], [ 14.154311553910205, 37.968946542983431 ], [ 14.15437761710462, 37.969028141782061 ], [ 14.154729583790644, 37.969462876727889 ], [ 14.154747787859298, 37.969485363158654 ], [ 14.154932701489853, 37.969904150989599 ], [ 14.154951216730707, 37.969958812297051 ], [ 14.15511767931655, 37.970346221919627 ], [ 14.155309918854297, 37.970793616221449 ], [ 14.155402854479233, 37.971234089253052 ], [ 14.15544266571885, 37.97142669038692 ], [ 14.155565838993988, 37.971645565669839 ], [ 14.155665181982892, 37.971822097556753 ], [ 14.156289369314619, 37.972136820388585 ], [ 14.157072867993501, 37.972210402667635 ], [ 14.157379259386481, 37.972143536897498 ], [ 14.157544316882138, 37.972107514456567 ], [ 14.157915798689512, 37.972026441513812 ], [ 14.157992831098346, 37.972009629636247 ], [ 14.158135184943051, 37.971945498119105 ], [ 14.158491521413147, 37.971784962342412 ], [ 14.158639346436669, 37.971718365661445 ], [ 14.158906320390725, 37.971685152155978 ], [ 14.159025286742368, 37.971670350203887 ], [ 14.159310834801435, 37.971634824301489 ], [ 14.159456186190084, 37.971673430510322 ], [ 14.159515136720481, 37.971689088171715 ], [ 14.160139674785302, 37.971854963943159 ], [ 14.160590874980951, 37.972226785121443 ], [ 14.160550912246721, 37.972640938532486 ], [ 14.160540267243618, 37.972751254189298 ], [ 14.160541753517768, 37.973371665672886 ], [ 14.160542250655844, 37.973579534299326 ], [ 14.160475647643127, 37.974014820623509 ], [ 14.160452908003592, 37.974163441121917 ], [ 14.160392380782877, 37.974559015287277 ], [ 14.160387227485192, 37.974615247953956 ], [ 14.160343905608475, 37.974875823250329 ], [ 14.160397711585757, 37.975166082054521 ], [ 14.160436082710286, 37.97518151531834 ], [ 14.160873311409553, 37.975357368849835 ], [ 14.161021345452225, 37.97541690717599 ], [ 14.161124170132455, 37.975458263477776 ], [ 14.161260268979481, 37.975478517064289 ], [ 14.161597936402114, 37.975528767707864 ], [ 14.16196471858059, 37.975583349356668 ], [ 14.162169873588791, 37.975574321882661 ], [ 14.162321091944468, 37.975567667562714 ], [ 14.163198062561767, 37.975529071967621 ], [ 14.163365711893398, 37.975521693121003 ], [ 14.164018607906932, 37.975631317508999 ], [ 14.164453963666073, 37.975704412939209 ], [ 14.164849126164249, 37.975770759417827 ], [ 14.164980242807776, 37.975792773052419 ], [ 14.165607904856092, 37.975938704192863 ], [ 14.16621755944141, 37.976080443891348 ], [ 14.166287319581539, 37.976157627164078 ], [ 14.166679315606226, 37.976591329919657 ], [ 14.166809006068698, 37.976843782643421 ], [ 14.166884020711038, 37.976989803843509 ], [ 14.166905581901158, 37.977031112695357 ], [ 14.167213053069741, 37.97763028160611 ], [ 14.167581463157591, 37.978219770808757 ], [ 14.167667189454505, 37.978356938621609 ], [ 14.167749745245032, 37.978489034513537 ], [ 14.167809375232833, 37.978556202168981 ], [ 14.167861209080948, 37.978614590383742 ], [ 14.168159125795404, 37.978950169964193 ], [ 14.168193299025031, 37.978988662888312 ], [ 14.168369001146313, 37.979186575093856 ], [ 14.168397892582851, 37.979216035540077 ], [ 14.168661353569027, 37.979484679741752 ], [ 14.168844205816869, 37.979671129160536 ], [ 14.169020754150088, 37.979851148963064 ], [ 14.169631207606427, 37.980253799179806 ], [ 14.169846084954813, 37.980395528121676 ], [ 14.16990868732079, 37.980446779594772 ], [ 14.170294969476222, 37.980763024062824 ], [ 14.170534882917176, 37.98095943602388 ], [ 14.170795572526346, 37.981087498922143 ], [ 14.171216365535777, 37.981136476819714 ], [ 14.17157686947656, 37.98145011741228 ], [ 14.171690035681994, 37.981548570564478 ], [ 14.171799409461229, 37.981643725165668 ], [ 14.171960071567501, 37.981783498525715 ], [ 14.172231702755671, 37.981982217957267 ], [ 14.172292468112802, 37.982026671813408 ], [ 14.17236635426304, 37.982080724298001 ], [ 14.172454325962176, 37.982188611759149 ], [ 14.172717171594426, 37.982510955853947 ], [ 14.172827013832677, 37.982645660375802 ], [ 14.173332058484021, 37.983325695044996 ], [ 14.173733858788241, 37.983983265474627 ], [ 14.173839440184736, 37.98403003846736 ], [ 14.174149559071751, 37.98416742386398 ], [ 14.174232907871126, 37.984204347173517 ], [ 14.174485327912006, 37.984317880689808 ], [ 14.174550389770305, 37.984347144909123 ], [ 14.174736925184792, 37.984431043853618 ], [ 14.174929188329452, 37.984517518848385 ], [ 14.174980388153738, 37.984540540536472 ], [ 14.175190941529582, 37.984769080597189 ], [ 14.175341011492726, 37.984931968430658 ], [ 14.175589511403246, 37.9852016906054 ], [ 14.175686617270179, 37.985303412507363 ], [ 14.175948221124168, 37.985477127009823 ], [ 14.176796744420516, 37.986040572085699 ], [ 14.177598183215995, 37.986680488748412 ], [ 14.177975233887837, 37.987178430725969 ], [ 14.178099022761273, 37.987341912083117 ], [ 14.178287045858069, 37.987590220202911 ], [ 14.178317300020142, 37.987630174967478 ], [ 14.178344430658861, 37.988277253838241 ], [ 14.178293840299217, 37.988729682010096 ], [ 14.177970322517645, 37.989113132074095 ], [ 14.177407267619794, 37.990038461871464 ], [ 14.177402013926892, 37.990070558818367 ], [ 14.177219280879912, 37.990532111290037 ], [ 14.177096293295977, 37.99086696530577 ], [ 14.177097337554375, 37.990925761061007 ], [ 14.17710339996964, 37.991266707035322 ], [ 14.17711694379412, 37.992027552474411 ], [ 14.177001320577288, 37.992343126246276 ], [ 14.176834477118318, 37.992800071956161 ], [ 14.176721739452278, 37.993108396912135 ], [ 14.176330571847723, 37.994178176343567 ], [ 14.176375644072431, 37.994324706800157 ], [ 14.176583327147906, 37.994999882365654 ], [ 14.176638481658024, 37.995162755609421 ], [ 14.176748552886655, 37.995487795774828 ], [ 14.177016914230441, 37.995975674808342 ], [ 14.177475761657787, 37.996644227024632 ], [ 14.17770421020354, 37.997200714232633 ], [ 14.177708178719501, 37.997249971716968 ], [ 14.177837924286772, 37.997938289465438 ], [ 14.177820628654965, 37.998061425011365 ], [ 14.177814269831408, 37.998118453227356 ], [ 14.17776651586647, 37.998446663435885 ], [ 14.177743221954371, 37.998612495867796 ], [ 14.177738021156612, 37.998649523772109 ], [ 14.177672916795864, 37.998840091845551 ], [ 14.177591765338253, 37.999077629772259 ], [ 14.177502223429952, 37.999339723602425 ], [ 14.177176769529233, 37.999988868965623 ], [ 14.177647066814547, 38.000566853892394 ], [ 14.17767700479801, 38.001092270527195 ], [ 14.177642785568652, 38.002079712702802 ], [ 14.177498683901691, 38.002819874928925 ], [ 14.177454775564954, 38.003344872563339 ], [ 14.177406849293098, 38.003917918947536 ], [ 14.177207558271277, 38.00459899049649 ], [ 14.177122585526442, 38.004889384569481 ], [ 14.177135721646454, 38.004942044248352 ], [ 14.177246804986266, 38.005387336178252 ], [ 14.177306981814869, 38.005628561089608 ], [ 14.177381570440366, 38.005837901474436 ], [ 14.177534906959403, 38.006275006933578 ], [ 14.177548770155523, 38.006314326590399 ], [ 14.177649276109184, 38.00659937950563 ], [ 14.177759117444783, 38.007187779671071 ], [ 14.177800146343671, 38.007407563891419 ], [ 14.177813280918837, 38.007613301710734 ], [ 14.177828635213253, 38.007853787760894 ], [ 14.177840186211688, 38.008034711233307 ], [ 14.177845070316879, 38.008115808584975 ], [ 14.177852185051762, 38.008224790867914 ], [ 14.177856778679116, 38.008295169219451 ], [ 14.17786139139932, 38.008367108914982 ], [ 14.17786807585763, 38.008471537979624 ], [ 14.177859406923108, 38.008511655210008 ], [ 14.177836582948446, 38.008617273651339 ], [ 14.177812862650526, 38.008727045573636 ], [ 14.177796384333147, 38.008803301044175 ], [ 14.177786442008937, 38.008849309059812 ], [ 14.177663775070856, 38.009416959285154 ], [ 14.177737680473856, 38.009940415580623 ], [ 14.177888007402156, 38.010771138844206 ], [ 14.177985943267739, 38.011221525591459 ], [ 14.178282836223845, 38.012072789451388 ], [ 14.178410887674625, 38.01236415596442 ], [ 14.178449751449657, 38.012452584783993 ], [ 14.178745980731636, 38.013425433486923 ], [ 14.178908294789514, 38.014084923032911 ], [ 14.178914434377791, 38.014121969697904 ], [ 14.178927444697401, 38.014172680774301 ], [ 14.178935532047088, 38.014209202026727 ], [ 14.178953893724255, 38.01428512555519 ], [ 14.178946248382077, 38.014504499763333 ], [ 14.178919326971799, 38.015277081115897 ], [ 14.179007323283987, 38.016655288781394 ], [ 14.179034128195408, 38.016874804544358 ], [ 14.179131995826841, 38.017676224657265 ], [ 14.179264900075646, 38.017896385602008 ], [ 14.179315853880775, 38.017980419133707 ], [ 14.179336371762096, 38.018014780507741 ], [ 14.179351337375971, 38.018039571895883 ], [ 14.179380991504029, 38.018088695097092 ], [ 14.179795143117916, 38.018774741885572 ], [ 14.179825545414024, 38.018825103266295 ], [ 14.180111631050313, 38.019223774632316 ], [ 14.180229485357398, 38.019388007491102 ], [ 14.180277840223926, 38.01947745057138 ], [ 14.180648931708328, 38.020163863592252 ], [ 14.180705868905747, 38.02026917853032 ], [ 14.18074016782621, 38.020332621296291 ], [ 14.182613722995221, 38.019650366761404 ], [ 14.183326457748478, 38.019411135521963 ], [ 14.18345975038727, 38.019366395236517 ], [ 14.183474720776506, 38.019268020933538 ], [ 14.183515916596258, 38.0189929402489 ], [ 14.183520836397394, 38.018953551133336 ], [ 14.183528161900963, 38.018894900694121 ], [ 14.183532623777765, 38.018859180216872 ], [ 14.183565345204274, 38.018597223700851 ], [ 14.183798912909895, 38.01808719464411 ], [ 14.183781817417531, 38.017543216498233 ], [ 14.183835794407878, 38.017285558821634 ], [ 14.183858111014612, 38.01717903442087 ], [ 14.183896572789452, 38.016995435692372 ], [ 14.183914727118804, 38.016908778794729 ], [ 14.183920794030104, 38.016879816844892 ], [ 14.183942808039824, 38.016774731133701 ], [ 14.183960643205026, 38.016689599201484 ], [ 14.184150036733859, 38.01623037149335 ], [ 14.184493912087037, 38.015601936874006 ], [ 14.184706351265094, 38.01510164274336 ], [ 14.184744622818945, 38.015011076401585 ], [ 14.185220401160057, 38.014184195907369 ], [ 14.185535447612878, 38.013418432217094 ], [ 14.185550961565431, 38.013388272727958 ], [ 14.185626943916821, 38.013240557266734 ], [ 14.1857070588488, 38.013084811191455 ], [ 14.18583876167739, 38.012828771479988 ], [ 14.186057339908974, 38.012411046338038 ], [ 14.186465298750186, 38.011770123307485 ], [ 14.187029980003825, 38.011285957760251 ], [ 14.187363183891506, 38.010899568739923 ], [ 14.187433601004335, 38.010817911752078 ], [ 14.187455409736877, 38.010752714831838 ], [ 14.18762225814006, 38.010206304211664 ], [ 14.187884669851092, 38.009641233579622 ], [ 14.187925354116297, 38.009553621869664 ], [ 14.188044386810684, 38.009359686871491 ], [ 14.188075895723975, 38.009308349068498 ], [ 14.188401256226143, 38.008789751333957 ], [ 14.189101685859915, 38.00825454049388 ], [ 14.189510852618131, 38.007934884853753 ], [ 14.189779748470274, 38.007724813884252 ], [ 14.190091361286036, 38.007323858675328 ], [ 14.190447773953446, 38.006992946820986 ], [ 14.190794432920415, 38.006554425848819 ], [ 14.191328155283093, 38.005978589389805 ], [ 14.191360081126088, 38.005944142598572 ], [ 14.191681918323701, 38.005677785214125 ], [ 14.191960047045464, 38.005165751646395 ], [ 14.192035787036243, 38.004577153078728 ], [ 14.192097250211832, 38.004128740023035 ], [ 14.192181301744959, 38.003688343440551 ], [ 14.192321770505416, 38.003447920098822 ], [ 14.192402715889628, 38.003309374893263 ], [ 14.192988467653914, 38.002792735767812 ], [ 14.19349523139711, 38.002356116889075 ], [ 14.194037728117651, 38.001710815443452 ], [ 14.194244538275056, 38.00146756270572 ], [ 14.19471754732885, 38.000955907892717 ], [ 14.194608622451721, 38.000542055225139 ], [ 14.19488882595723, 38.000285302506221 ], [ 14.195068110519024, 38.000121022728891 ], [ 14.195549369426459, 37.999897123533614 ], [ 14.196017726293038, 37.999732303195977 ], [ 14.196531984849024, 37.999632992706637 ], [ 14.196999372194879, 37.999585267581338 ], [ 14.197093349122552, 37.999562165359393 ], [ 14.197535494496121, 37.999453470260185 ], [ 14.19801575036824, 37.999265600523636 ], [ 14.19839131119859, 37.999043662527313 ], [ 14.198457723244974, 37.998983592784683 ], [ 14.198831197412535, 37.998639712564021 ], [ 14.199040033141236, 37.998364847658635 ], [ 14.19935231438004, 37.997914311834911 ], [ 14.199527444793597, 37.997555397082344 ], [ 14.199788699454009, 37.997279774685161 ], [ 14.199825882979885, 37.997240545717169 ], [ 14.200135503248735, 37.997073748539819 ], [ 14.200605158426152, 37.996877340253555 ], [ 14.200948928108708, 37.996691029790938 ], [ 14.201280745448278, 37.996496231024196 ], [ 14.201647145193625, 37.99631791439586 ], [ 14.202306587680415, 37.995960030623237 ], [ 14.202509946192519, 37.995527834165983 ], [ 14.202649661304429, 37.99525151213394 ], [ 14.202838265368417, 37.994925396128039 ], [ 14.202858079620473, 37.994891135277697 ], [ 14.203043793464794, 37.994621769898487 ], [ 14.203141483617538, 37.994509106878162 ], [ 14.203344209088206, 37.994275309844859 ], [ 14.203665228377105, 37.993968446125052 ], [ 14.203907694042515, 37.993647051085297 ], [ 14.204074208266414, 37.993036403190374 ], [ 14.204227682500671, 37.992502879278739 ], [ 14.204359010500607, 37.991947822799659 ], [ 14.204498621001457, 37.991311434046992 ], [ 14.204538532628376, 37.991129500891688 ], [ 14.204557623836513, 37.990435371513449 ], [ 14.204516683298378, 37.990012097159813 ], [ 14.204496488291698, 37.989803313690452 ], [ 14.204474883339449, 37.989629788928561 ], [ 14.204457854570849, 37.989493012114536 ], [ 14.204412317302699, 37.989127263927713 ], [ 14.204430974900776, 37.988487165306488 ], [ 14.204503375773013, 37.988033763429911 ], [ 14.204737293483868, 37.987541680101465 ], [ 14.205315121478993, 37.986795723973771 ], [ 14.205684501128481, 37.986329140937997 ], [ 14.206170177075794, 37.985587289738376 ], [ 14.206242195273703, 37.985517433022487 ], [ 14.206826787031373, 37.984950386636847 ], [ 14.207313117819041, 37.984464165186886 ], [ 14.207335060297853, 37.984442227355395 ], [ 14.207424258989867, 37.984353048474631 ], [ 14.207497391819221, 37.984279930783785 ], [ 14.207635693280878, 37.984156656673122 ], [ 14.207695866914275, 37.984103420309111 ], [ 14.20790358479433, 37.983919617494514 ], [ 14.208068453467078, 37.98377372963806 ], [ 14.208367750815389, 37.983508889393335 ], [ 14.208657588054143, 37.98329432741464 ], [ 14.208872362144533, 37.983135332243926 ], [ 14.209585323323966, 37.982581435583086 ], [ 14.210184862161775, 37.981811996375761 ], [ 14.210040564614811, 37.981431245144037 ], [ 14.210011337254819, 37.981039435709533 ], [ 14.210104368484858, 37.980807156582628 ], [ 14.210415563010665, 37.980433167816692 ], [ 14.211048705284508, 37.979887326820631 ], [ 14.211219059186607, 37.979691050564149 ], [ 14.211252285763633, 37.979652766670682 ], [ 14.211381944684112, 37.979503376826457 ], [ 14.211435376626584, 37.979142319092283 ], [ 14.211439797755016, 37.979112444163817 ], [ 14.211451036326869, 37.979036502456175 ], [ 14.211468456294684, 37.978918790954282 ], [ 14.211279266786651, 37.978436477844255 ], [ 14.211254265860676, 37.978395301925282 ], [ 14.211195436877418, 37.978298412923152 ], [ 14.21104504612642, 37.978050722423831 ], [ 14.210720467362682, 37.977533910715458 ], [ 14.210609380504664, 37.977317718585439 ], [ 14.210430983268555, 37.976970527031796 ], [ 14.210650561474981, 37.976578111349355 ], [ 14.210678154264009, 37.976534627864659 ], [ 14.211044478637042, 37.975957355336703 ], [ 14.211345703781483, 37.97554331367067 ], [ 14.211544599817234, 37.975079789910588 ], [ 14.211516560583588, 37.974856332674818 ], [ 14.211471009414019, 37.974493300404305 ], [ 14.211317838818209, 37.973806825215512 ] ] ] } }
]
}
